<?xml version="1.0" encoding="UTF-8" standalone="yes"?>
<gpx version="1.1" creator="https://onthegomap.com" xmlns="http://www.topografix.com/GPX/1/1">
  <metadata>
    <name>7.9km route</name>
    <link href="https://onthegomap.com">
      <text>On The Go Map</text>
    </link>
    <time>2026-05-17T09:52:12.530Z</time>
    <copyright author="On The Go Map, OpenStreetMap Contributors">
      <year>2026</year>
    </copyright>
  </metadata>
  <trk>
    <name>7.9km route</name>
    <trkseg>
      <trkpt lat="45.47884" lon="-75.78817">
        <ele>100.5</ele>
      </trkpt>
      <trkpt lat="45.47928" lon="-75.78899">
        <ele>102</ele>
      </trkpt>
      <trkpt lat="45.47966" lon="-75.78969">
        <ele>102.9</ele>
      </trkpt>
      <trkpt lat="45.47969" lon="-75.78981">
        <ele>103</ele>
      </trkpt>
      <trkpt lat="45.47967" lon="-75.78992">
        <ele>103</ele>
      </trkpt>
      <trkpt lat="45.47964" lon="-75.78996">
        <ele>103</ele>
      </trkpt>
      <trkpt lat="45.47945" lon="-75.79014">
        <ele>103.3</ele>
      </trkpt>
      <trkpt lat="45.47903" lon="-75.79021">
        <ele>103.5</ele>
      </trkpt>
      <trkpt lat="45.47904" lon="-75.79059">
        <ele>104.6</ele>
      </trkpt>
      <trkpt lat="45.47908" lon="-75.79078">
        <ele>104.9</ele>
      </trkpt>
      <trkpt lat="45.47854" lon="-75.79099">
        <ele>105.1</ele>
      </trkpt>
      <trkpt lat="45.47848" lon="-75.79105">
        <ele>105.3</ele>
      </trkpt>
      <trkpt lat="45.47847" lon="-75.79111">
        <ele>105.4</ele>
      </trkpt>
      <trkpt lat="45.47849" lon="-75.79123">
        <ele>105.6</ele>
      </trkpt>
      <trkpt lat="45.47893" lon="-75.79289">
        <ele>110.9</ele>
      </trkpt>
      <trkpt lat="45.47905" lon="-75.79335">
        <ele>112.6</ele>
      </trkpt>
      <trkpt lat="45.47899" lon="-75.79338">
        <ele>112.7</ele>
      </trkpt>
      <trkpt lat="45.47865" lon="-75.79358">
        <ele>113.7</ele>
      </trkpt>
      <trkpt lat="45.47833" lon="-75.79394">
        <ele>117.2</ele>
      </trkpt>
      <trkpt lat="45.47804" lon="-75.79392">
        <ele>121</ele>
      </trkpt>
      <trkpt lat="45.47759" lon="-75.79376">
        <ele>126.7</ele>
      </trkpt>
      <trkpt lat="45.47734" lon="-75.79371">
        <ele>128.9</ele>
      </trkpt>
      <trkpt lat="45.47715" lon="-75.79382">
        <ele>132.8</ele>
      </trkpt>
      <trkpt lat="45.47689" lon="-75.79406">
        <ele>138.2</ele>
      </trkpt>
      <trkpt lat="45.47652" lon="-75.79422">
        <ele>140.9</ele>
      </trkpt>
      <trkpt lat="45.47651" lon="-75.79422">
        <ele>141</ele>
      </trkpt>
      <trkpt lat="45.47644" lon="-75.79428">
        <ele>141.5</ele>
      </trkpt>
      <trkpt lat="45.47636" lon="-75.79432">
        <ele>141.8</ele>
      </trkpt>
      <trkpt lat="45.47604" lon="-75.7943">
        <ele>142.1</ele>
      </trkpt>
      <trkpt lat="45.47572" lon="-75.79434">
        <ele>143.4</ele>
      </trkpt>
      <trkpt lat="45.47565" lon="-75.79437">
        <ele>144</ele>
      </trkpt>
      <trkpt lat="45.47532" lon="-75.79464">
        <ele>148.4</ele>
      </trkpt>
      <trkpt lat="45.47511" lon="-75.79489">
        <ele>150.2</ele>
      </trkpt>
      <trkpt lat="45.47506" lon="-75.7949">
        <ele>150.3</ele>
      </trkpt>
      <trkpt lat="45.4751" lon="-75.79498">
        <ele>150</ele>
      </trkpt>
      <trkpt lat="45.47511" lon="-75.79508">
        <ele>149.6</ele>
      </trkpt>
      <trkpt lat="45.47508" lon="-75.79528">
        <ele>149.8</ele>
      </trkpt>
      <trkpt lat="45.47492" lon="-75.79596">
        <ele>154.7</ele>
      </trkpt>
      <trkpt lat="45.47486" lon="-75.79652">
        <ele>160.5</ele>
      </trkpt>
      <trkpt lat="45.47481" lon="-75.79687">
        <ele>164.1</ele>
      </trkpt>
      <trkpt lat="45.47468" lon="-75.79735">
        <ele>166.9</ele>
      </trkpt>
      <trkpt lat="45.47456" lon="-75.7976">
        <ele>166.1</ele>
      </trkpt>
      <trkpt lat="45.47454" lon="-75.79776">
        <ele>166.4</ele>
      </trkpt>
      <trkpt lat="45.47449" lon="-75.79847">
        <ele>168.9</ele>
      </trkpt>
      <trkpt lat="45.47447" lon="-75.79898">
        <ele>169</ele>
      </trkpt>
      <trkpt lat="45.4745" lon="-75.79928">
        <ele>168.3</ele>
      </trkpt>
      <trkpt lat="45.47453" lon="-75.79937">
        <ele>168.1</ele>
      </trkpt>
      <trkpt lat="45.47458" lon="-75.79944">
        <ele>168</ele>
      </trkpt>
      <trkpt lat="45.47468" lon="-75.79949">
        <ele>168.1</ele>
      </trkpt>
      <trkpt lat="45.47476" lon="-75.7995">
        <ele>168.5</ele>
      </trkpt>
      <trkpt lat="45.47482" lon="-75.79947">
        <ele>169</ele>
      </trkpt>
      <trkpt lat="45.47499" lon="-75.79928">
        <ele>171.5</ele>
      </trkpt>
      <trkpt lat="45.47506" lon="-75.79924">
        <ele>172.1</ele>
      </trkpt>
      <trkpt lat="45.47517" lon="-75.79926">
        <ele>172.4</ele>
      </trkpt>
      <trkpt lat="45.47543" lon="-75.79943">
        <ele>172.1</ele>
      </trkpt>
      <trkpt lat="45.47555" lon="-75.79954">
        <ele>172.4</ele>
      </trkpt>
      <trkpt lat="45.47583" lon="-75.79987">
        <ele>175.1</ele>
      </trkpt>
      <trkpt lat="45.47589" lon="-75.79999">
        <ele>176</ele>
      </trkpt>
      <trkpt lat="45.47591" lon="-75.80009">
        <ele>176.9</ele>
      </trkpt>
      <trkpt lat="45.4759" lon="-75.80019">
        <ele>177.6</ele>
      </trkpt>
      <trkpt lat="45.47576" lon="-75.80055">
        <ele>179.8</ele>
      </trkpt>
      <trkpt lat="45.47568" lon="-75.80094">
        <ele>182.4</ele>
      </trkpt>
      <trkpt lat="45.47569" lon="-75.80145">
        <ele>182.8</ele>
      </trkpt>
      <trkpt lat="45.47557" lon="-75.80226">
        <ele>176.1</ele>
      </trkpt>
      <trkpt lat="45.47557" lon="-75.80246">
        <ele>173.8</ele>
      </trkpt>
      <trkpt lat="45.47558" lon="-75.80267">
        <ele>171.6</ele>
      </trkpt>
      <trkpt lat="45.4756" lon="-75.80271">
        <ele>171.1</ele>
      </trkpt>
      <trkpt lat="45.47568" lon="-75.80282">
        <ele>169.6</ele>
      </trkpt>
      <trkpt lat="45.47585" lon="-75.80301">
        <ele>168.3</ele>
      </trkpt>
      <trkpt lat="45.47611" lon="-75.80318">
        <ele>167.7</ele>
      </trkpt>
      <trkpt lat="45.47634" lon="-75.80329">
        <ele>167.2</ele>
      </trkpt>
      <trkpt lat="45.47647" lon="-75.8034">
        <ele>166.6</ele>
      </trkpt>
      <trkpt lat="45.47674" lon="-75.80351">
        <ele>166.4</ele>
      </trkpt>
      <trkpt lat="45.47686" lon="-75.80363">
        <ele>166.6</ele>
      </trkpt>
      <trkpt lat="45.47693" lon="-75.80374">
        <ele>166.7</ele>
      </trkpt>
      <trkpt lat="45.47695" lon="-75.80389">
        <ele>167</ele>
      </trkpt>
      <trkpt lat="45.47689" lon="-75.8044">
        <ele>169.7</ele>
      </trkpt>
      <trkpt lat="45.47687" lon="-75.80471">
        <ele>172.3</ele>
      </trkpt>
      <trkpt lat="45.47679" lon="-75.80505">
        <ele>175.5</ele>
      </trkpt>
      <trkpt lat="45.47677" lon="-75.80525">
        <ele>177.2</ele>
      </trkpt>
      <trkpt lat="45.47677" lon="-75.80587">
        <ele>181.6</ele>
      </trkpt>
      <trkpt lat="45.47679" lon="-75.80612">
        <ele>183</ele>
      </trkpt>
      <trkpt lat="45.47684" lon="-75.80632">
        <ele>183.9</ele>
      </trkpt>
      <trkpt lat="45.47731" lon="-75.80714">
        <ele>181.8</ele>
      </trkpt>
      <trkpt lat="45.47738" lon="-75.80732">
        <ele>180</ele>
      </trkpt>
      <trkpt lat="45.47737" lon="-75.80753">
        <ele>178.8</ele>
      </trkpt>
      <trkpt lat="45.47722" lon="-75.80778">
        <ele>177.7</ele>
      </trkpt>
      <trkpt lat="45.47704" lon="-75.80802">
        <ele>175.7</ele>
      </trkpt>
      <trkpt lat="45.47691" lon="-75.80826">
        <ele>173.6</ele>
      </trkpt>
      <trkpt lat="45.47661" lon="-75.80862">
        <ele>171.9</ele>
      </trkpt>
      <trkpt lat="45.47652" lon="-75.80873">
        <ele>171.5</ele>
      </trkpt>
      <trkpt lat="45.47644" lon="-75.80886">
        <ele>171</ele>
      </trkpt>
      <trkpt lat="45.47642" lon="-75.8093">
        <ele>170.9</ele>
      </trkpt>
      <trkpt lat="45.47655" lon="-75.8095">
        <ele>170.5</ele>
      </trkpt>
      <trkpt lat="45.47687" lon="-75.80991">
        <ele>170</ele>
      </trkpt>
      <trkpt lat="45.47708" lon="-75.81023">
        <ele>170.6</ele>
      </trkpt>
      <trkpt lat="45.47716" lon="-75.81028">
        <ele>170.6</ele>
      </trkpt>
      <trkpt lat="45.47721" lon="-75.81029">
        <ele>170.5</ele>
      </trkpt>
      <trkpt lat="45.47738" lon="-75.81031">
        <ele>170</ele>
      </trkpt>
      <trkpt lat="45.4775" lon="-75.81024">
        <ele>169.8</ele>
      </trkpt>
      <trkpt lat="45.47768" lon="-75.81006">
        <ele>169</ele>
      </trkpt>
      <trkpt lat="45.4785" lon="-75.80978">
        <ele>168.5</ele>
      </trkpt>
      <trkpt lat="45.4787" lon="-75.80976">
        <ele>168.2</ele>
      </trkpt>
      <trkpt lat="45.47878" lon="-75.80971">
        <ele>167.7</ele>
      </trkpt>
      <trkpt lat="45.47906" lon="-75.80935">
        <ele>166.3</ele>
      </trkpt>
      <trkpt lat="45.4792" lon="-75.80916">
        <ele>166</ele>
      </trkpt>
      <trkpt lat="45.4794" lon="-75.80903">
        <ele>166.3</ele>
      </trkpt>
      <trkpt lat="45.48027" lon="-75.80836">
        <ele>165.7</ele>
      </trkpt>
      <trkpt lat="45.48058" lon="-75.80802">
        <ele>163.7</ele>
      </trkpt>
      <trkpt lat="45.48095" lon="-75.80755">
        <ele>161.2</ele>
      </trkpt>
      <trkpt lat="45.48105" lon="-75.80741">
        <ele>160.5</ele>
      </trkpt>
      <trkpt lat="45.48117" lon="-75.8072">
        <ele>159.3</ele>
      </trkpt>
      <trkpt lat="45.48125" lon="-75.80701">
        <ele>159.2</ele>
      </trkpt>
      <trkpt lat="45.48135" lon="-75.80689">
        <ele>158.1</ele>
      </trkpt>
      <trkpt lat="45.48154" lon="-75.80674">
        <ele>156</ele>
      </trkpt>
      <trkpt lat="45.4818" lon="-75.80645">
        <ele>151</ele>
      </trkpt>
      <trkpt lat="45.48218" lon="-75.80617">
        <ele>142.5</ele>
      </trkpt>
      <trkpt lat="45.4825" lon="-75.80584">
        <ele>131.3</ele>
      </trkpt>
      <trkpt lat="45.48309" lon="-75.80636">
        <ele>131.6</ele>
      </trkpt>
      <trkpt lat="45.4832" lon="-75.80682">
        <ele>140.1</ele>
      </trkpt>
      <trkpt lat="45.48324" lon="-75.807">
        <ele>142.8</ele>
      </trkpt>
      <trkpt lat="45.48331" lon="-75.80718">
        <ele>144</ele>
      </trkpt>
      <trkpt lat="45.48342" lon="-75.80733">
        <ele>143</ele>
      </trkpt>
      <trkpt lat="45.4836" lon="-75.80748">
        <ele>140.1</ele>
      </trkpt>
      <trkpt lat="45.48366" lon="-75.80758">
        <ele>139.9</ele>
      </trkpt>
      <trkpt lat="45.48372" lon="-75.80786">
        <ele>140.7</ele>
      </trkpt>
      <trkpt lat="45.484" lon="-75.80862">
        <ele>143.5</ele>
      </trkpt>
      <trkpt lat="45.48403" lon="-75.80875">
        <ele>144.1</ele>
      </trkpt>
      <trkpt lat="45.48405" lon="-75.80917">
        <ele>148.1</ele>
      </trkpt>
      <trkpt lat="45.48401" lon="-75.80963">
        <ele>152.4</ele>
      </trkpt>
      <trkpt lat="45.48408" lon="-75.8099">
        <ele>153.8</ele>
      </trkpt>
      <trkpt lat="45.48407" lon="-75.81014">
        <ele>155.3</ele>
      </trkpt>
      <trkpt lat="45.4841" lon="-75.81037">
        <ele>155.9</ele>
      </trkpt>
      <trkpt lat="45.48408" lon="-75.81051">
        <ele>156.1</ele>
      </trkpt>
      <trkpt lat="45.48403" lon="-75.81056">
        <ele>157.2</ele>
      </trkpt>
      <trkpt lat="45.48396" lon="-75.81054">
        <ele>158.5</ele>
      </trkpt>
      <trkpt lat="45.48393" lon="-75.81043">
        <ele>158.8</ele>
      </trkpt>
      <trkpt lat="45.48395" lon="-75.81032">
        <ele>159.1</ele>
      </trkpt>
      <trkpt lat="45.4839" lon="-75.81024">
        <ele>160</ele>
      </trkpt>
      <trkpt lat="45.48383" lon="-75.81027">
        <ele>161</ele>
      </trkpt>
      <trkpt lat="45.48374" lon="-75.81044">
        <ele>163</ele>
      </trkpt>
      <trkpt lat="45.48373" lon="-75.81054">
        <ele>163.6</ele>
      </trkpt>
      <trkpt lat="45.48353" lon="-75.81077">
        <ele>167.2</ele>
      </trkpt>
      <trkpt lat="45.48342" lon="-75.81095">
        <ele>169.1</ele>
      </trkpt>
      <trkpt lat="45.48331" lon="-75.81106">
        <ele>171</ele>
      </trkpt>
      <trkpt lat="45.48323" lon="-75.81129">
        <ele>172.3</ele>
      </trkpt>
      <trkpt lat="45.48316" lon="-75.81152">
        <ele>172.3</ele>
      </trkpt>
      <trkpt lat="45.4831" lon="-75.81166">
        <ele>172.7</ele>
      </trkpt>
      <trkpt lat="45.48299" lon="-75.8118">
        <ele>174.2</ele>
      </trkpt>
      <trkpt lat="45.48293" lon="-75.81185">
        <ele>175.3</ele>
      </trkpt>
      <trkpt lat="45.48238" lon="-75.81197">
        <ele>189.6</ele>
      </trkpt>
      <trkpt lat="45.48229" lon="-75.81201">
        <ele>191.5</ele>
      </trkpt>
      <trkpt lat="45.48186" lon="-75.81242">
        <ele>198.6</ele>
      </trkpt>
      <trkpt lat="45.48168" lon="-75.81263">
        <ele>201.1</ele>
      </trkpt>
      <trkpt lat="45.48157" lon="-75.8127">
        <ele>202.3</ele>
      </trkpt>
      <trkpt lat="45.48149" lon="-75.81273">
        <ele>203.1</ele>
      </trkpt>
      <trkpt lat="45.48121" lon="-75.81271">
        <ele>204.8</ele>
      </trkpt>
      <trkpt lat="45.48103" lon="-75.81281">
        <ele>205.1</ele>
      </trkpt>
      <trkpt lat="45.48095" lon="-75.81283">
        <ele>205.3</ele>
      </trkpt>
      <trkpt lat="45.48038" lon="-75.81271">
        <ele>206</ele>
      </trkpt>
      <trkpt lat="45.48023" lon="-75.81272">
        <ele>206.1</ele>
      </trkpt>
      <trkpt lat="45.48014" lon="-75.81276">
        <ele>206.4</ele>
      </trkpt>
      <trkpt lat="45.47994" lon="-75.8129">
        <ele>207.2</ele>
      </trkpt>
      <trkpt lat="45.47976" lon="-75.81308">
        <ele>208</ele>
      </trkpt>
      <trkpt lat="45.47953" lon="-75.81342">
        <ele>210.3</ele>
      </trkpt>
      <trkpt lat="45.47937" lon="-75.81401">
        <ele>211.6</ele>
      </trkpt>
      <trkpt lat="45.47929" lon="-75.81436">
        <ele>210.4</ele>
      </trkpt>
      <trkpt lat="45.47918" lon="-75.8146">
        <ele>210.4</ele>
      </trkpt>
      <trkpt lat="45.47914" lon="-75.81473">
        <ele>210.1</ele>
      </trkpt>
      <trkpt lat="45.47913" lon="-75.81488">
        <ele>208.6</ele>
      </trkpt>
      <trkpt lat="45.47915" lon="-75.81514">
        <ele>204.7</ele>
      </trkpt>
      <trkpt lat="45.47912" lon="-75.81548">
        <ele>200.8</ele>
      </trkpt>
      <trkpt lat="45.47907" lon="-75.81564">
        <ele>199.8</ele>
      </trkpt>
      <trkpt lat="45.47887" lon="-75.81597">
        <ele>199.1</ele>
      </trkpt>
      <trkpt lat="45.4788" lon="-75.81604">
        <ele>199.9</ele>
      </trkpt>
      <trkpt lat="45.47869" lon="-75.81608">
        <ele>201.9</ele>
      </trkpt>
      <trkpt lat="45.47857" lon="-75.81606">
        <ele>205</ele>
      </trkpt>
      <trkpt lat="45.47831" lon="-75.81609">
        <ele>209.2</ele>
      </trkpt>
      <trkpt lat="45.47794" lon="-75.816">
        <ele>210.5</ele>
      </trkpt>
      <trkpt lat="45.47784" lon="-75.81603">
        <ele>210.2</ele>
      </trkpt>
      <trkpt lat="45.47766" lon="-75.81614">
        <ele>209.3</ele>
      </trkpt>
      <trkpt lat="45.4776" lon="-75.81615">
        <ele>208.9</ele>
      </trkpt>
      <trkpt lat="45.47751" lon="-75.81616">
        <ele>208.3</ele>
      </trkpt>
      <trkpt lat="45.47744" lon="-75.8162">
        <ele>207.5</ele>
      </trkpt>
      <trkpt lat="45.47731" lon="-75.81637">
        <ele>205.2</ele>
      </trkpt>
      <trkpt lat="45.4772" lon="-75.81646">
        <ele>203.3</ele>
      </trkpt>
      <trkpt lat="45.47713" lon="-75.81655">
        <ele>201.8</ele>
      </trkpt>
      <trkpt lat="45.47707" lon="-75.8166">
        <ele>200.6</ele>
      </trkpt>
      <trkpt lat="45.477" lon="-75.81658">
        <ele>200</ele>
      </trkpt>
      <trkpt lat="45.47669" lon="-75.81626">
        <ele>198.5</ele>
      </trkpt>
      <trkpt lat="45.47663" lon="-75.81616">
        <ele>198.1</ele>
      </trkpt>
      <trkpt lat="45.4766" lon="-75.81599">
        <ele>197.9</ele>
      </trkpt>
      <trkpt lat="45.4766" lon="-75.81589">
        <ele>197.9</ele>
      </trkpt>
      <trkpt lat="45.47663" lon="-75.81578">
        <ele>197.9</ele>
      </trkpt>
      <trkpt lat="45.47671" lon="-75.81557">
        <ele>197.5</ele>
      </trkpt>
      <trkpt lat="45.47687" lon="-75.81507">
        <ele>195.8</ele>
      </trkpt>
      <trkpt lat="45.47697" lon="-75.81485">
        <ele>195.3</ele>
      </trkpt>
      <trkpt lat="45.47711" lon="-75.81408">
        <ele>193.1</ele>
      </trkpt>
      <trkpt lat="45.47722" lon="-75.8139">
        <ele>193.2</ele>
      </trkpt>
      <trkpt lat="45.47727" lon="-75.81377">
        <ele>193.4</ele>
      </trkpt>
      <trkpt lat="45.47728" lon="-75.81365">
        <ele>193.2</ele>
      </trkpt>
      <trkpt lat="45.47727" lon="-75.81327">
        <ele>191.5</ele>
      </trkpt>
      <trkpt lat="45.47724" lon="-75.81298">
        <ele>189.2</ele>
      </trkpt>
      <trkpt lat="45.47725" lon="-75.81255">
        <ele>186</ele>
      </trkpt>
      <trkpt lat="45.47724" lon="-75.81221">
        <ele>184</ele>
      </trkpt>
      <trkpt lat="45.47727" lon="-75.81197">
        <ele>183.1</ele>
      </trkpt>
      <trkpt lat="45.47724" lon="-75.81172">
        <ele>181.3</ele>
      </trkpt>
      <trkpt lat="45.47723" lon="-75.81145">
        <ele>179.2</ele>
      </trkpt>
      <trkpt lat="45.47723" lon="-75.81098">
        <ele>174.1</ele>
      </trkpt>
      <trkpt lat="45.47723" lon="-75.81093">
        <ele>173.7</ele>
      </trkpt>
      <trkpt lat="45.47719" lon="-75.81054">
        <ele>170.9</ele>
      </trkpt>
      <trkpt lat="45.47721" lon="-75.81029">
        <ele>170.7</ele>
      </trkpt>
      <trkpt lat="45.47716" lon="-75.81028">
        <ele>170.7</ele>
      </trkpt>
      <trkpt lat="45.47708" lon="-75.81023">
        <ele>170.6</ele>
      </trkpt>
      <trkpt lat="45.47687" lon="-75.80991">
        <ele>169.9</ele>
      </trkpt>
      <trkpt lat="45.47655" lon="-75.8095">
        <ele>170.5</ele>
      </trkpt>
      <trkpt lat="45.47642" lon="-75.8093">
        <ele>170.9</ele>
      </trkpt>
      <trkpt lat="45.47644" lon="-75.80886">
        <ele>171.1</ele>
      </trkpt>
      <trkpt lat="45.47652" lon="-75.80873">
        <ele>171.5</ele>
      </trkpt>
      <trkpt lat="45.47691" lon="-75.80826">
        <ele>173.6</ele>
      </trkpt>
      <trkpt lat="45.47704" lon="-75.80802">
        <ele>175.7</ele>
      </trkpt>
      <trkpt lat="45.47722" lon="-75.80778">
        <ele>177.7</ele>
      </trkpt>
      <trkpt lat="45.47737" lon="-75.80753">
        <ele>178.9</ele>
      </trkpt>
      <trkpt lat="45.47738" lon="-75.80732">
        <ele>180</ele>
      </trkpt>
      <trkpt lat="45.47731" lon="-75.80714">
        <ele>181.8</ele>
      </trkpt>
      <trkpt lat="45.47684" lon="-75.80632">
        <ele>183.9</ele>
      </trkpt>
      <trkpt lat="45.47679" lon="-75.80612">
        <ele>183</ele>
      </trkpt>
      <trkpt lat="45.47677" lon="-75.80587">
        <ele>181.6</ele>
      </trkpt>
      <trkpt lat="45.47677" lon="-75.80525">
        <ele>177.2</ele>
      </trkpt>
      <trkpt lat="45.47679" lon="-75.80505">
        <ele>175.5</ele>
      </trkpt>
      <trkpt lat="45.47687" lon="-75.80471">
        <ele>172.3</ele>
      </trkpt>
      <trkpt lat="45.47689" lon="-75.8044">
        <ele>169.7</ele>
      </trkpt>
      <trkpt lat="45.47695" lon="-75.80389">
        <ele>167</ele>
      </trkpt>
      <trkpt lat="45.47693" lon="-75.80374">
        <ele>166.7</ele>
      </trkpt>
      <trkpt lat="45.47686" lon="-75.80363">
        <ele>166.6</ele>
      </trkpt>
      <trkpt lat="45.47674" lon="-75.80351">
        <ele>166.4</ele>
      </trkpt>
      <trkpt lat="45.47647" lon="-75.8034">
        <ele>166.6</ele>
      </trkpt>
      <trkpt lat="45.47634" lon="-75.80329">
        <ele>167.2</ele>
      </trkpt>
      <trkpt lat="45.47611" lon="-75.80318">
        <ele>167.7</ele>
      </trkpt>
      <trkpt lat="45.47585" lon="-75.80301">
        <ele>168.3</ele>
      </trkpt>
      <trkpt lat="45.47568" lon="-75.80282">
        <ele>169.6</ele>
      </trkpt>
      <trkpt lat="45.4756" lon="-75.80271">
        <ele>171.1</ele>
      </trkpt>
      <trkpt lat="45.47558" lon="-75.80267">
        <ele>171.6</ele>
      </trkpt>
      <trkpt lat="45.47557" lon="-75.80246">
        <ele>173.9</ele>
      </trkpt>
      <trkpt lat="45.47557" lon="-75.80226">
        <ele>176</ele>
      </trkpt>
      <trkpt lat="45.47569" lon="-75.80145">
        <ele>182.8</ele>
      </trkpt>
      <trkpt lat="45.47568" lon="-75.80094">
        <ele>182.4</ele>
      </trkpt>
      <trkpt lat="45.47576" lon="-75.80055">
        <ele>179.8</ele>
      </trkpt>
      <trkpt lat="45.4759" lon="-75.80019">
        <ele>177.7</ele>
      </trkpt>
      <trkpt lat="45.47591" lon="-75.80009">
        <ele>176.8</ele>
      </trkpt>
      <trkpt lat="45.47589" lon="-75.79999">
        <ele>175.9</ele>
      </trkpt>
      <trkpt lat="45.47583" lon="-75.79987">
        <ele>175.1</ele>
      </trkpt>
      <trkpt lat="45.47555" lon="-75.79954">
        <ele>172.4</ele>
      </trkpt>
      <trkpt lat="45.47543" lon="-75.79943">
        <ele>172.1</ele>
      </trkpt>
      <trkpt lat="45.47517" lon="-75.79926">
        <ele>172.4</ele>
      </trkpt>
      <trkpt lat="45.47506" lon="-75.79924">
        <ele>172.1</ele>
      </trkpt>
      <trkpt lat="45.47499" lon="-75.79928">
        <ele>171.5</ele>
      </trkpt>
      <trkpt lat="45.47482" lon="-75.79947">
        <ele>169</ele>
      </trkpt>
      <trkpt lat="45.47476" lon="-75.7995">
        <ele>168.4</ele>
      </trkpt>
      <trkpt lat="45.47468" lon="-75.79949">
        <ele>168.1</ele>
      </trkpt>
      <trkpt lat="45.47458" lon="-75.79944">
        <ele>168</ele>
      </trkpt>
      <trkpt lat="45.47453" lon="-75.79937">
        <ele>168.1</ele>
      </trkpt>
      <trkpt lat="45.4745" lon="-75.79928">
        <ele>168.3</ele>
      </trkpt>
      <trkpt lat="45.47447" lon="-75.79898">
        <ele>169</ele>
      </trkpt>
      <trkpt lat="45.47449" lon="-75.79847">
        <ele>168.9</ele>
      </trkpt>
      <trkpt lat="45.47454" lon="-75.79776">
        <ele>166.4</ele>
      </trkpt>
      <trkpt lat="45.47456" lon="-75.7976">
        <ele>166.1</ele>
      </trkpt>
      <trkpt lat="45.47468" lon="-75.79735">
        <ele>166.9</ele>
      </trkpt>
      <trkpt lat="45.47481" lon="-75.79687">
        <ele>164.1</ele>
      </trkpt>
      <trkpt lat="45.47486" lon="-75.79652">
        <ele>160.5</ele>
      </trkpt>
      <trkpt lat="45.47492" lon="-75.79596">
        <ele>154.7</ele>
      </trkpt>
      <trkpt lat="45.47508" lon="-75.79528">
        <ele>149.9</ele>
      </trkpt>
      <trkpt lat="45.47511" lon="-75.79508">
        <ele>149.6</ele>
      </trkpt>
      <trkpt lat="45.4751" lon="-75.79498">
        <ele>150</ele>
      </trkpt>
      <trkpt lat="45.47506" lon="-75.7949">
        <ele>150.2</ele>
      </trkpt>
      <trkpt lat="45.47511" lon="-75.79489">
        <ele>150.1</ele>
      </trkpt>
      <trkpt lat="45.47532" lon="-75.79464">
        <ele>148.4</ele>
      </trkpt>
      <trkpt lat="45.47565" lon="-75.79437">
        <ele>144</ele>
      </trkpt>
      <trkpt lat="45.47572" lon="-75.79434">
        <ele>143.4</ele>
      </trkpt>
      <trkpt lat="45.47604" lon="-75.7943">
        <ele>142.1</ele>
      </trkpt>
      <trkpt lat="45.47636" lon="-75.79432">
        <ele>141.8</ele>
      </trkpt>
      <trkpt lat="45.47644" lon="-75.79428">
        <ele>141.5</ele>
      </trkpt>
      <trkpt lat="45.47651" lon="-75.79422">
        <ele>140.9</ele>
      </trkpt>
      <trkpt lat="45.47689" lon="-75.79406">
        <ele>138.1</ele>
      </trkpt>
      <trkpt lat="45.47715" lon="-75.79382">
        <ele>132.7</ele>
      </trkpt>
      <trkpt lat="45.47734" lon="-75.79371">
        <ele>129</ele>
      </trkpt>
      <trkpt lat="45.47749" lon="-75.79374">
        <ele>127.6</ele>
      </trkpt>
      <trkpt lat="45.47759" lon="-75.79376">
        <ele>126.7</ele>
      </trkpt>
      <trkpt lat="45.47804" lon="-75.79392">
        <ele>120.9</ele>
      </trkpt>
      <trkpt lat="45.47833" lon="-75.79394">
        <ele>117.1</ele>
      </trkpt>
      <trkpt lat="45.47865" lon="-75.79358">
        <ele>113.7</ele>
      </trkpt>
      <trkpt lat="45.47899" lon="-75.79338">
        <ele>112.7</ele>
      </trkpt>
      <trkpt lat="45.47905" lon="-75.79335">
        <ele>112.5</ele>
      </trkpt>
      <trkpt lat="45.47849" lon="-75.79123">
        <ele>105.6</ele>
      </trkpt>
      <trkpt lat="45.47847" lon="-75.79113">
        <ele>105.4</ele>
      </trkpt>
      <trkpt lat="45.47847" lon="-75.79111">
        <ele>105.4</ele>
      </trkpt>
      <trkpt lat="45.47848" lon="-75.79105">
        <ele>105.3</ele>
      </trkpt>
      <trkpt lat="45.47854" lon="-75.79099">
        <ele>105.1</ele>
      </trkpt>
      <trkpt lat="45.47908" lon="-75.79078">
        <ele>104.9</ele>
      </trkpt>
      <trkpt lat="45.47904" lon="-75.79059">
        <ele>104.6</ele>
      </trkpt>
      <trkpt lat="45.47903" lon="-75.79021">
        <ele>103.6</ele>
      </trkpt>
      <trkpt lat="45.47945" lon="-75.79014">
        <ele>103.2</ele>
      </trkpt>
      <trkpt lat="45.47964" lon="-75.78996">
        <ele>103</ele>
      </trkpt>
      <trkpt lat="45.47967" lon="-75.78992">
        <ele>103</ele>
      </trkpt>
      <trkpt lat="45.47969" lon="-75.78981">
        <ele>103</ele>
      </trkpt>
      <trkpt lat="45.47966" lon="-75.78969">
        <ele>102.9</ele>
      </trkpt>
      <trkpt lat="45.47928" lon="-75.78899">
        <ele>102</ele>
      </trkpt>
      <trkpt lat="45.47885" lon="-75.78819">
        <ele>100.6</ele>
      </trkpt>
    </trkseg>
  </trk>
</gpx>