<?xml version="1.0" encoding="UTF-8" standalone="yes"?>
<gpx version="1.1" creator="https://onthegomap.com" xmlns="http://www.topografix.com/GPX/1/1">
  <metadata>
    <name>5.6km route</name>
    <link href="https://onthegomap.com">
      <text>On The Go Map</text>
    </link>
    <time>2026-03-29T00:04:29.663Z</time>
    <copyright author="On The Go Map, OpenStreetMap Contributors">
      <year>2026</year>
    </copyright>
  </metadata>
  <trk>
    <name>5.6km route</name>
    <trkseg>
      <trkpt lat="45.47883" lon="-75.78815">
        <ele>100.5</ele>
      </trkpt>
      <trkpt lat="45.47928" lon="-75.78899">
        <ele>101.9</ele>
      </trkpt>
      <trkpt lat="45.47966" lon="-75.78969">
        <ele>102.9</ele>
      </trkpt>
      <trkpt lat="45.47969" lon="-75.78981">
        <ele>103</ele>
      </trkpt>
      <trkpt lat="45.47967" lon="-75.78992">
        <ele>103</ele>
      </trkpt>
      <trkpt lat="45.47964" lon="-75.78996">
        <ele>103</ele>
      </trkpt>
      <trkpt lat="45.47945" lon="-75.79014">
        <ele>103.3</ele>
      </trkpt>
      <trkpt lat="45.47903" lon="-75.79021">
        <ele>103.6</ele>
      </trkpt>
      <trkpt lat="45.47904" lon="-75.79059">
        <ele>104.6</ele>
      </trkpt>
      <trkpt lat="45.47908" lon="-75.79078">
        <ele>105</ele>
      </trkpt>
      <trkpt lat="45.47928" lon="-75.79151">
        <ele>106.6</ele>
      </trkpt>
      <trkpt lat="45.47968" lon="-75.79305">
        <ele>112.3</ele>
      </trkpt>
      <trkpt lat="45.47969" lon="-75.79307">
        <ele>112.4</ele>
      </trkpt>
      <trkpt lat="45.47937" lon="-75.79321">
        <ele>112.2</ele>
      </trkpt>
      <trkpt lat="45.47905" lon="-75.79335">
        <ele>112.6</ele>
      </trkpt>
      <trkpt lat="45.47899" lon="-75.79338">
        <ele>112.7</ele>
      </trkpt>
      <trkpt lat="45.47865" lon="-75.79358">
        <ele>113.6</ele>
      </trkpt>
      <trkpt lat="45.47833" lon="-75.79394">
        <ele>117.2</ele>
      </trkpt>
      <trkpt lat="45.47804" lon="-75.79392">
        <ele>120.9</ele>
      </trkpt>
      <trkpt lat="45.47788" lon="-75.79386">
        <ele>122.8</ele>
      </trkpt>
      <trkpt lat="45.47759" lon="-75.79376">
        <ele>126.7</ele>
      </trkpt>
      <trkpt lat="45.47734" lon="-75.79371">
        <ele>129.1</ele>
      </trkpt>
      <trkpt lat="45.47715" lon="-75.79382">
        <ele>132.7</ele>
      </trkpt>
      <trkpt lat="45.47689" lon="-75.79406">
        <ele>138.2</ele>
      </trkpt>
      <trkpt lat="45.47651" lon="-75.79422">
        <ele>140.9</ele>
      </trkpt>
      <trkpt lat="45.47644" lon="-75.79428">
        <ele>141.5</ele>
      </trkpt>
      <trkpt lat="45.47636" lon="-75.79432">
        <ele>141.9</ele>
      </trkpt>
      <trkpt lat="45.47604" lon="-75.7943">
        <ele>142.1</ele>
      </trkpt>
      <trkpt lat="45.47572" lon="-75.79434">
        <ele>143.4</ele>
      </trkpt>
      <trkpt lat="45.47565" lon="-75.79437">
        <ele>144</ele>
      </trkpt>
      <trkpt lat="45.47532" lon="-75.79464">
        <ele>148.5</ele>
      </trkpt>
      <trkpt lat="45.47511" lon="-75.79489">
        <ele>150.2</ele>
      </trkpt>
      <trkpt lat="45.47506" lon="-75.7949">
        <ele>150.1</ele>
      </trkpt>
      <trkpt lat="45.4751" lon="-75.79498">
        <ele>150</ele>
      </trkpt>
      <trkpt lat="45.47511" lon="-75.79508">
        <ele>149.6</ele>
      </trkpt>
      <trkpt lat="45.47508" lon="-75.79528">
        <ele>149.8</ele>
      </trkpt>
      <trkpt lat="45.47492" lon="-75.79596">
        <ele>154.7</ele>
      </trkpt>
      <trkpt lat="45.47486" lon="-75.79652">
        <ele>160.5</ele>
      </trkpt>
      <trkpt lat="45.47481" lon="-75.79687">
        <ele>164.1</ele>
      </trkpt>
      <trkpt lat="45.47468" lon="-75.79735">
        <ele>167</ele>
      </trkpt>
      <trkpt lat="45.47456" lon="-75.7976">
        <ele>165.9</ele>
      </trkpt>
      <trkpt lat="45.47454" lon="-75.79776">
        <ele>166.3</ele>
      </trkpt>
      <trkpt lat="45.47443" lon="-75.79788">
        <ele>165.4</ele>
      </trkpt>
      <trkpt lat="45.47429" lon="-75.79809">
        <ele>165.9</ele>
      </trkpt>
      <trkpt lat="45.47405" lon="-75.79862">
        <ele>169.7</ele>
      </trkpt>
      <trkpt lat="45.47397" lon="-75.79872">
        <ele>169.4</ele>
      </trkpt>
      <trkpt lat="45.47389" lon="-75.79879">
        <ele>169</ele>
      </trkpt>
      <trkpt lat="45.4736" lon="-75.79893">
        <ele>168.8</ele>
      </trkpt>
      <trkpt lat="45.4733" lon="-75.79924">
        <ele>169.1</ele>
      </trkpt>
      <trkpt lat="45.47318" lon="-75.79948">
        <ele>169.6</ele>
      </trkpt>
      <trkpt lat="45.47295" lon="-75.80012">
        <ele>169.6</ele>
      </trkpt>
      <trkpt lat="45.4728" lon="-75.8004">
        <ele>170.3</ele>
      </trkpt>
      <trkpt lat="45.47202" lon="-75.80138">
        <ele>173.3</ele>
      </trkpt>
      <trkpt lat="45.47182" lon="-75.80152">
        <ele>173.8</ele>
      </trkpt>
      <trkpt lat="45.47174" lon="-75.80172">
        <ele>171.9</ele>
      </trkpt>
      <trkpt lat="45.47168" lon="-75.80206">
        <ele>169.8</ele>
      </trkpt>
      <trkpt lat="45.47162" lon="-75.80223">
        <ele>170.2</ele>
      </trkpt>
      <trkpt lat="45.47152" lon="-75.80235">
        <ele>170.3</ele>
      </trkpt>
      <trkpt lat="45.47138" lon="-75.80243">
        <ele>169.9</ele>
      </trkpt>
      <trkpt lat="45.47126" lon="-75.8025">
        <ele>170.2</ele>
      </trkpt>
      <trkpt lat="45.47105" lon="-75.80284">
        <ele>172.6</ele>
      </trkpt>
      <trkpt lat="45.47084" lon="-75.80312">
        <ele>172.2</ele>
      </trkpt>
      <trkpt lat="45.47066" lon="-75.80343">
        <ele>171.9</ele>
      </trkpt>
      <trkpt lat="45.4706" lon="-75.80356">
        <ele>171.7</ele>
      </trkpt>
      <trkpt lat="45.47055" lon="-75.80376">
        <ele>172.3</ele>
      </trkpt>
      <trkpt lat="45.47057" lon="-75.80385">
        <ele>172.7</ele>
      </trkpt>
      <trkpt lat="45.47066" lon="-75.80401">
        <ele>173.5</ele>
      </trkpt>
      <trkpt lat="45.47074" lon="-75.80424">
        <ele>174.5</ele>
      </trkpt>
      <trkpt lat="45.47075" lon="-75.80434">
        <ele>174.9</ele>
      </trkpt>
      <trkpt lat="45.47072" lon="-75.80449">
        <ele>175.1</ele>
      </trkpt>
      <trkpt lat="45.47053" lon="-75.80473">
        <ele>176</ele>
      </trkpt>
      <trkpt lat="45.47031" lon="-75.80491">
        <ele>177.4</ele>
      </trkpt>
      <trkpt lat="45.47022" lon="-75.80507">
        <ele>179.9</ele>
      </trkpt>
      <trkpt lat="45.47016" lon="-75.80525">
        <ele>181.9</ele>
      </trkpt>
      <trkpt lat="45.47001" lon="-75.80548">
        <ele>183.4</ele>
      </trkpt>
      <trkpt lat="45.46993" lon="-75.80558">
        <ele>183.5</ele>
      </trkpt>
      <trkpt lat="45.46974" lon="-75.80573">
        <ele>183.1</ele>
      </trkpt>
      <trkpt lat="45.46953" lon="-75.80584">
        <ele>181.5</ele>
      </trkpt>
      <trkpt lat="45.46924" lon="-75.80568">
        <ele>177.2</ele>
      </trkpt>
      <trkpt lat="45.46899" lon="-75.8055">
        <ele>171.9</ele>
      </trkpt>
      <trkpt lat="45.46887" lon="-75.80529">
        <ele>169.5</ele>
      </trkpt>
      <trkpt lat="45.46868" lon="-75.80516">
        <ele>166.9</ele>
      </trkpt>
      <trkpt lat="45.46852" lon="-75.80503">
        <ele>165.6</ele>
      </trkpt>
      <trkpt lat="45.46814" lon="-75.80461">
        <ele>165.2</ele>
      </trkpt>
      <trkpt lat="45.46804" lon="-75.80445">
        <ele>164.8</ele>
      </trkpt>
      <trkpt lat="45.46799" lon="-75.8043">
        <ele>164.9</ele>
      </trkpt>
      <trkpt lat="45.46802" lon="-75.80418">
        <ele>165.4</ele>
      </trkpt>
      <trkpt lat="45.46802" lon="-75.80407">
        <ele>165.9</ele>
      </trkpt>
      <trkpt lat="45.4679" lon="-75.80393">
        <ele>166.2</ele>
      </trkpt>
      <trkpt lat="45.46764" lon="-75.80336">
        <ele>168.5</ele>
      </trkpt>
      <trkpt lat="45.46748" lon="-75.80307">
        <ele>165.6</ele>
      </trkpt>
      <trkpt lat="45.46736" lon="-75.80275">
        <ele>167.4</ele>
      </trkpt>
      <trkpt lat="45.46729" lon="-75.80267">
        <ele>167.2</ele>
      </trkpt>
      <trkpt lat="45.46718" lon="-75.80247">
        <ele>167</ele>
      </trkpt>
      <trkpt lat="45.46705" lon="-75.80232">
        <ele>165.9</ele>
      </trkpt>
      <trkpt lat="45.46687" lon="-75.80216">
        <ele>164.8</ele>
      </trkpt>
      <trkpt lat="45.46683" lon="-75.8021">
        <ele>164.6</ele>
      </trkpt>
      <trkpt lat="45.46676" lon="-75.80212">
        <ele>164</ele>
      </trkpt>
      <trkpt lat="45.46675" lon="-75.8022">
        <ele>163.6</ele>
      </trkpt>
      <trkpt lat="45.46679" lon="-75.80237">
        <ele>163.3</ele>
      </trkpt>
      <trkpt lat="45.46679" lon="-75.80248">
        <ele>163.1</ele>
      </trkpt>
      <trkpt lat="45.46681" lon="-75.80272">
        <ele>162.9</ele>
      </trkpt>
      <trkpt lat="45.46674" lon="-75.80275">
        <ele>163.5</ele>
      </trkpt>
      <trkpt lat="45.46668" lon="-75.80274">
        <ele>164.3</ele>
      </trkpt>
      <trkpt lat="45.46642" lon="-75.8026">
        <ele>168.6</ele>
      </trkpt>
      <trkpt lat="45.4663" lon="-75.8026">
        <ele>170.5</ele>
      </trkpt>
      <trkpt lat="45.46605" lon="-75.80264">
        <ele>173.5</ele>
      </trkpt>
      <trkpt lat="45.46584" lon="-75.80267">
        <ele>175.3</ele>
      </trkpt>
      <trkpt lat="45.46578" lon="-75.80275">
        <ele>176.1</ele>
      </trkpt>
      <trkpt lat="45.46565" lon="-75.80278">
        <ele>177.3</ele>
      </trkpt>
      <trkpt lat="45.46553" lon="-75.8028">
        <ele>178.4</ele>
      </trkpt>
      <trkpt lat="45.46543" lon="-75.80287">
        <ele>179.4</ele>
      </trkpt>
      <trkpt lat="45.46535" lon="-75.80286">
        <ele>179.9</ele>
      </trkpt>
      <trkpt lat="45.46523" lon="-75.80267">
        <ele>179.6</ele>
      </trkpt>
      <trkpt lat="45.46505" lon="-75.80245">
        <ele>178.4</ele>
      </trkpt>
      <trkpt lat="45.46488" lon="-75.80232">
        <ele>176.7</ele>
      </trkpt>
      <trkpt lat="45.46474" lon="-75.80215">
        <ele>173.6</ele>
      </trkpt>
      <trkpt lat="45.46453" lon="-75.80209">
        <ele>171.1</ele>
      </trkpt>
      <trkpt lat="45.46432" lon="-75.80229">
        <ele>171</ele>
      </trkpt>
      <trkpt lat="45.4641" lon="-75.80215">
        <ele>167.1</ele>
      </trkpt>
      <trkpt lat="45.46381" lon="-75.80208">
        <ele>164.5</ele>
      </trkpt>
      <trkpt lat="45.46369" lon="-75.80197">
        <ele>162.7</ele>
      </trkpt>
      <trkpt lat="45.46358" lon="-75.80194">
        <ele>161.4</ele>
      </trkpt>
      <trkpt lat="45.46333" lon="-75.80195">
        <ele>158.4</ele>
      </trkpt>
      <trkpt lat="45.4632" lon="-75.80203">
        <ele>156</ele>
      </trkpt>
      <trkpt lat="45.46316" lon="-75.80203">
        <ele>155.4</ele>
      </trkpt>
      <trkpt lat="45.46298" lon="-75.80185">
        <ele>152.3</ele>
      </trkpt>
      <trkpt lat="45.46289" lon="-75.80169">
        <ele>150.5</ele>
      </trkpt>
      <trkpt lat="45.46279" lon="-75.80155">
        <ele>147.6</ele>
      </trkpt>
      <trkpt lat="45.46255" lon="-75.80092">
        <ele>138.4</ele>
      </trkpt>
      <trkpt lat="45.46246" lon="-75.80084">
        <ele>136.8</ele>
      </trkpt>
      <trkpt lat="45.46235" lon="-75.80081">
        <ele>135.6</ele>
      </trkpt>
      <trkpt lat="45.46209" lon="-75.80097">
        <ele>134.9</ele>
      </trkpt>
      <trkpt lat="45.46178" lon="-75.80134">
        <ele>137.2</ele>
      </trkpt>
      <trkpt lat="45.46166" lon="-75.80146">
        <ele>137.7</ele>
      </trkpt>
      <trkpt lat="45.4614" lon="-75.80161">
        <ele>137.1</ele>
      </trkpt>
      <trkpt lat="45.46125" lon="-75.80174">
        <ele>136.7</ele>
      </trkpt>
      <trkpt lat="45.46115" lon="-75.80181">
        <ele>136.6</ele>
      </trkpt>
      <trkpt lat="45.46107" lon="-75.80199">
        <ele>137.5</ele>
      </trkpt>
      <trkpt lat="45.46091" lon="-75.80228">
        <ele>137.9</ele>
      </trkpt>
      <trkpt lat="45.46093" lon="-75.80248">
        <ele>138.4</ele>
      </trkpt>
      <trkpt lat="45.46078" lon="-75.80251">
        <ele>137.3</ele>
      </trkpt>
      <trkpt lat="45.4606" lon="-75.8025">
        <ele>136.4</ele>
      </trkpt>
      <trkpt lat="45.4605" lon="-75.80258">
        <ele>136</ele>
      </trkpt>
      <trkpt lat="45.46043" lon="-75.8027">
        <ele>135.7</ele>
      </trkpt>
      <trkpt lat="45.46037" lon="-75.80299">
        <ele>134.7</ele>
      </trkpt>
      <trkpt lat="45.4603" lon="-75.80312">
        <ele>134.1</ele>
      </trkpt>
      <trkpt lat="45.46025" lon="-75.80319">
        <ele>133.6</ele>
      </trkpt>
      <trkpt lat="45.46012" lon="-75.80327">
        <ele>132.3</ele>
      </trkpt>
      <trkpt lat="45.46005" lon="-75.80339">
        <ele>131.4</ele>
      </trkpt>
      <trkpt lat="45.45994" lon="-75.80339">
        <ele>130.7</ele>
      </trkpt>
      <trkpt lat="45.45987" lon="-75.80342">
        <ele>130.4</ele>
      </trkpt>
      <trkpt lat="45.45966" lon="-75.8034">
        <ele>129.5</ele>
      </trkpt>
      <trkpt lat="45.45944" lon="-75.80342">
        <ele>128.2</ele>
      </trkpt>
      <trkpt lat="45.45894" lon="-75.80351">
        <ele>124.2</ele>
      </trkpt>
      <trkpt lat="45.45888" lon="-75.80355">
        <ele>123.6</ele>
      </trkpt>
      <trkpt lat="45.4585" lon="-75.80376">
        <ele>120.8</ele>
      </trkpt>
      <trkpt lat="45.45822" lon="-75.80386">
        <ele>119.5</ele>
      </trkpt>
      <trkpt lat="45.45809" lon="-75.80396">
        <ele>119</ele>
      </trkpt>
      <trkpt lat="45.45797" lon="-75.80386">
        <ele>118.6</ele>
      </trkpt>
      <trkpt lat="45.45787" lon="-75.80351">
        <ele>118.8</ele>
      </trkpt>
      <trkpt lat="45.45775" lon="-75.80301">
        <ele>119.9</ele>
      </trkpt>
      <trkpt lat="45.45759" lon="-75.80213">
        <ele>120</ele>
      </trkpt>
      <trkpt lat="45.45752" lon="-75.80166">
        <ele>119.3</ele>
      </trkpt>
      <trkpt lat="45.45732" lon="-75.79948">
        <ele>115.8</ele>
      </trkpt>
      <trkpt lat="45.45728" lon="-75.79919">
        <ele>116.2</ele>
      </trkpt>
      <trkpt lat="45.45721" lon="-75.79901">
        <ele>116.5</ele>
      </trkpt>
      <trkpt lat="45.45692" lon="-75.79862">
        <ele>117.5</ele>
      </trkpt>
      <trkpt lat="45.45684" lon="-75.79855">
        <ele>117</ele>
      </trkpt>
      <trkpt lat="45.45668" lon="-75.79842">
        <ele>115.9</ele>
      </trkpt>
      <trkpt lat="45.45627" lon="-75.79819">
        <ele>116</ele>
      </trkpt>
      <trkpt lat="45.45611" lon="-75.79808">
        <ele>116.5</ele>
      </trkpt>
      <trkpt lat="45.45534" lon="-75.79731">
        <ele>117.9</ele>
      </trkpt>
      <trkpt lat="45.45514" lon="-75.79702">
        <ele>117.2</ele>
      </trkpt>
      <trkpt lat="45.45448" lon="-75.79602">
        <ele>113.3</ele>
      </trkpt>
      <trkpt lat="45.45409" lon="-75.7954">
        <ele>111</ele>
      </trkpt>
      <trkpt lat="45.45316" lon="-75.79422">
        <ele>111.2</ele>
      </trkpt>
      <trkpt lat="45.45258" lon="-75.79343">
        <ele>111.2</ele>
      </trkpt>
      <trkpt lat="45.45225" lon="-75.79297">
        <ele>110.5</ele>
      </trkpt>
      <trkpt lat="45.4522" lon="-75.79292">
        <ele>110.2</ele>
      </trkpt>
      <trkpt lat="45.4518" lon="-75.79248">
        <ele>107.5</ele>
      </trkpt>
      <trkpt lat="45.45164" lon="-75.79274">
        <ele>105.4</ele>
      </trkpt>
      <trkpt lat="45.45157" lon="-75.7928">
        <ele>104.9</ele>
      </trkpt>
      <trkpt lat="45.45096" lon="-75.7927">
        <ele>103.1</ele>
      </trkpt>
      <trkpt lat="45.45045" lon="-75.79264">
        <ele>101.7</ele>
      </trkpt>
      <trkpt lat="45.45037" lon="-75.79258">
        <ele>101.7</ele>
      </trkpt>
      <trkpt lat="45.45033" lon="-75.79252">
        <ele>101.8</ele>
      </trkpt>
      <trkpt lat="45.45005" lon="-75.79191">
        <ele>102.9</ele>
      </trkpt>
      <trkpt lat="45.44988" lon="-75.79154">
        <ele>102.9</ele>
      </trkpt>
      <trkpt lat="45.4498" lon="-75.79136">
        <ele>102.7</ele>
      </trkpt>
      <trkpt lat="45.44978" lon="-75.79127">
        <ele>102.8</ele>
      </trkpt>
      <trkpt lat="45.4498" lon="-75.79118">
        <ele>102.9</ele>
      </trkpt>
      <trkpt lat="45.45011" lon="-75.79056">
        <ele>104</ele>
      </trkpt>
      <trkpt lat="45.45014" lon="-75.79045">
        <ele>104</ele>
      </trkpt>
      <trkpt lat="45.45016" lon="-75.79027">
        <ele>104.4</ele>
      </trkpt>
      <trkpt lat="45.4501" lon="-75.78967">
        <ele>105.1</ele>
      </trkpt>
      <trkpt lat="45.45009" lon="-75.78956">
        <ele>105.4</ele>
      </trkpt>
      <trkpt lat="45.45008" lon="-75.78956">
        <ele>105.4</ele>
      </trkpt>
      <trkpt lat="45.44923" lon="-75.78974">
        <ele>105.7</ele>
      </trkpt>
      <trkpt lat="45.44922" lon="-75.78963">
        <ele>105.8</ele>
      </trkpt>
      <trkpt lat="45.4492" lon="-75.78886">
        <ele>107</ele>
      </trkpt>
    </trkseg>
  </trk>
</gpx>