<?xml version="1.0" encoding="UTF-8" standalone="yes"?>
<gpx version="1.1" creator="https://onthegomap.com" xmlns="http://www.topografix.com/GPX/1/1">
  <metadata>
    <name>9.5km route</name>
    <link href="https://onthegomap.com">
      <text>On The Go Map</text>
    </link>
    <time>2026-02-18T01:37:41.507Z</time>
    <copyright author="On The Go Map, OpenStreetMap Contributors">
      <year>2026</year>
    </copyright>
  </metadata>
  <trk>
    <name>9.5km route</name>
    <trkseg>
      <trkpt lat="45.47885" lon="-75.78818">
        <ele>100.6</ele>
      </trkpt>
      <trkpt lat="45.47928" lon="-75.78899">
        <ele>101.9</ele>
      </trkpt>
      <trkpt lat="45.47966" lon="-75.78969">
        <ele>103</ele>
      </trkpt>
      <trkpt lat="45.47969" lon="-75.78981">
        <ele>103</ele>
      </trkpt>
      <trkpt lat="45.47995" lon="-75.78984">
        <ele>103</ele>
      </trkpt>
      <trkpt lat="45.48038" lon="-75.79067">
        <ele>105.3</ele>
      </trkpt>
      <trkpt lat="45.4804" lon="-75.79073">
        <ele>105.5</ele>
      </trkpt>
      <trkpt lat="45.48039" lon="-75.79086">
        <ele>105.8</ele>
      </trkpt>
      <trkpt lat="45.48037" lon="-75.79094">
        <ele>105.8</ele>
      </trkpt>
      <trkpt lat="45.48033" lon="-75.791">
        <ele>105.9</ele>
      </trkpt>
      <trkpt lat="45.48035" lon="-75.79103">
        <ele>105.9</ele>
      </trkpt>
      <trkpt lat="45.48044" lon="-75.79158">
        <ele>107.3</ele>
      </trkpt>
      <trkpt lat="45.48049" lon="-75.79163">
        <ele>107.5</ele>
      </trkpt>
      <trkpt lat="45.48067" lon="-75.79153">
        <ele>107.4</ele>
      </trkpt>
      <trkpt lat="45.48077" lon="-75.79152">
        <ele>107.3</ele>
      </trkpt>
      <trkpt lat="45.48084" lon="-75.79153">
        <ele>107.4</ele>
      </trkpt>
      <trkpt lat="45.48087" lon="-75.79161">
        <ele>107.5</ele>
      </trkpt>
      <trkpt lat="45.481" lon="-75.79217">
        <ele>109.2</ele>
      </trkpt>
      <trkpt lat="45.4811" lon="-75.79251">
        <ele>110</ele>
      </trkpt>
      <trkpt lat="45.4811" lon="-75.79252">
        <ele>110</ele>
      </trkpt>
      <trkpt lat="45.48127" lon="-75.79304">
        <ele>110.4</ele>
      </trkpt>
      <trkpt lat="45.48139" lon="-75.79329">
        <ele>111</ele>
      </trkpt>
      <trkpt lat="45.48154" lon="-75.79345">
        <ele>111.4</ele>
      </trkpt>
      <trkpt lat="45.48207" lon="-75.79383">
        <ele>111</ele>
      </trkpt>
      <trkpt lat="45.48315" lon="-75.79503">
        <ele>112.4</ele>
      </trkpt>
      <trkpt lat="45.48321" lon="-75.79513">
        <ele>112.2</ele>
      </trkpt>
      <trkpt lat="45.48323" lon="-75.79525">
        <ele>112</ele>
      </trkpt>
      <trkpt lat="45.48319" lon="-75.79538">
        <ele>112</ele>
      </trkpt>
      <trkpt lat="45.48278" lon="-75.79584">
        <ele>111.6</ele>
      </trkpt>
      <trkpt lat="45.48266" lon="-75.79598">
        <ele>111.8</ele>
      </trkpt>
      <trkpt lat="45.48245" lon="-75.79621">
        <ele>112.1</ele>
      </trkpt>
      <trkpt lat="45.48235" lon="-75.79626">
        <ele>112.3</ele>
      </trkpt>
      <trkpt lat="45.48223" lon="-75.79626">
        <ele>112.8</ele>
      </trkpt>
      <trkpt lat="45.48179" lon="-75.79617">
        <ele>114.5</ele>
      </trkpt>
      <trkpt lat="45.48174" lon="-75.79615">
        <ele>114.7</ele>
      </trkpt>
      <trkpt lat="45.48038" lon="-75.79495">
        <ele>117.7</ele>
      </trkpt>
      <trkpt lat="45.48019" lon="-75.79478">
        <ele>117.9</ele>
      </trkpt>
      <trkpt lat="45.48012" lon="-75.7947">
        <ele>118</ele>
      </trkpt>
      <trkpt lat="45.48007" lon="-75.79456">
        <ele>117.8</ele>
      </trkpt>
      <trkpt lat="45.47999" lon="-75.79425">
        <ele>117.3</ele>
      </trkpt>
      <trkpt lat="45.47992" lon="-75.79398">
        <ele>116</ele>
      </trkpt>
      <trkpt lat="45.47972" lon="-75.79319">
        <ele>113</ele>
      </trkpt>
      <trkpt lat="45.47969" lon="-75.79307">
        <ele>112.6</ele>
      </trkpt>
      <trkpt lat="45.47937" lon="-75.79321">
        <ele>112.2</ele>
      </trkpt>
      <trkpt lat="45.4793" lon="-75.79324">
        <ele>112.3</ele>
      </trkpt>
      <trkpt lat="45.47905" lon="-75.79335">
        <ele>112.6</ele>
      </trkpt>
      <trkpt lat="45.47899" lon="-75.79338">
        <ele>112.7</ele>
      </trkpt>
      <trkpt lat="45.47865" lon="-75.79358">
        <ele>113.6</ele>
      </trkpt>
      <trkpt lat="45.47833" lon="-75.79394">
        <ele>117</ele>
      </trkpt>
      <trkpt lat="45.47804" lon="-75.79392">
        <ele>120.7</ele>
      </trkpt>
      <trkpt lat="45.47759" lon="-75.79376">
        <ele>126.3</ele>
      </trkpt>
      <trkpt lat="45.4775" lon="-75.79374">
        <ele>127.3</ele>
      </trkpt>
      <trkpt lat="45.47734" lon="-75.79371">
        <ele>128.7</ele>
      </trkpt>
      <trkpt lat="45.47715" lon="-75.79382">
        <ele>132.3</ele>
      </trkpt>
      <trkpt lat="45.47689" lon="-75.79406">
        <ele>137.9</ele>
      </trkpt>
      <trkpt lat="45.47651" lon="-75.79422">
        <ele>140.8</ele>
      </trkpt>
      <trkpt lat="45.47644" lon="-75.79428">
        <ele>141.4</ele>
      </trkpt>
      <trkpt lat="45.47636" lon="-75.79432">
        <ele>141.6</ele>
      </trkpt>
      <trkpt lat="45.47604" lon="-75.7943">
        <ele>142</ele>
      </trkpt>
      <trkpt lat="45.47572" lon="-75.79434">
        <ele>143.3</ele>
      </trkpt>
      <trkpt lat="45.47565" lon="-75.79437">
        <ele>143.9</ele>
      </trkpt>
      <trkpt lat="45.47532" lon="-75.79464">
        <ele>148.3</ele>
      </trkpt>
      <trkpt lat="45.47511" lon="-75.79489">
        <ele>150.1</ele>
      </trkpt>
      <trkpt lat="45.47506" lon="-75.7949">
        <ele>150.3</ele>
      </trkpt>
      <trkpt lat="45.4751" lon="-75.79498">
        <ele>150</ele>
      </trkpt>
      <trkpt lat="45.47511" lon="-75.79508">
        <ele>149.7</ele>
      </trkpt>
      <trkpt lat="45.47508" lon="-75.79528">
        <ele>149.9</ele>
      </trkpt>
      <trkpt lat="45.47492" lon="-75.79596">
        <ele>154.5</ele>
      </trkpt>
      <trkpt lat="45.47486" lon="-75.79652">
        <ele>160.2</ele>
      </trkpt>
      <trkpt lat="45.47481" lon="-75.79687">
        <ele>163.8</ele>
      </trkpt>
      <trkpt lat="45.47468" lon="-75.79735">
        <ele>166.8</ele>
      </trkpt>
      <trkpt lat="45.47456" lon="-75.7976">
        <ele>165.8</ele>
      </trkpt>
      <trkpt lat="45.47454" lon="-75.79776">
        <ele>165.9</ele>
      </trkpt>
      <trkpt lat="45.47443" lon="-75.79788">
        <ele>165.6</ele>
      </trkpt>
      <trkpt lat="45.47429" lon="-75.79809">
        <ele>165.8</ele>
      </trkpt>
      <trkpt lat="45.47405" lon="-75.79862">
        <ele>169.4</ele>
      </trkpt>
      <trkpt lat="45.47397" lon="-75.79872">
        <ele>169.5</ele>
      </trkpt>
      <trkpt lat="45.47389" lon="-75.79879">
        <ele>169.2</ele>
      </trkpt>
      <trkpt lat="45.4736" lon="-75.79893">
        <ele>168.7</ele>
      </trkpt>
      <trkpt lat="45.4733" lon="-75.79924">
        <ele>169</ele>
      </trkpt>
      <trkpt lat="45.47318" lon="-75.79948">
        <ele>169.5</ele>
      </trkpt>
      <trkpt lat="45.47295" lon="-75.80012">
        <ele>169.6</ele>
      </trkpt>
      <trkpt lat="45.4728" lon="-75.8004">
        <ele>170.3</ele>
      </trkpt>
      <trkpt lat="45.47202" lon="-75.80138">
        <ele>173.6</ele>
      </trkpt>
      <trkpt lat="45.47182" lon="-75.80152">
        <ele>173.9</ele>
      </trkpt>
      <trkpt lat="45.47174" lon="-75.80172">
        <ele>172.3</ele>
      </trkpt>
      <trkpt lat="45.47168" lon="-75.80206">
        <ele>170</ele>
      </trkpt>
      <trkpt lat="45.47162" lon="-75.80223">
        <ele>170.1</ele>
      </trkpt>
      <trkpt lat="45.47152" lon="-75.80235">
        <ele>170.2</ele>
      </trkpt>
      <trkpt lat="45.47126" lon="-75.8025">
        <ele>170.3</ele>
      </trkpt>
      <trkpt lat="45.47105" lon="-75.80284">
        <ele>172.4</ele>
      </trkpt>
      <trkpt lat="45.47084" lon="-75.80312">
        <ele>172.3</ele>
      </trkpt>
      <trkpt lat="45.47066" lon="-75.80343">
        <ele>171.9</ele>
      </trkpt>
      <trkpt lat="45.4706" lon="-75.80356">
        <ele>171.9</ele>
      </trkpt>
      <trkpt lat="45.47055" lon="-75.80376">
        <ele>172.3</ele>
      </trkpt>
      <trkpt lat="45.47057" lon="-75.80385">
        <ele>172.6</ele>
      </trkpt>
      <trkpt lat="45.47066" lon="-75.80401">
        <ele>173.3</ele>
      </trkpt>
      <trkpt lat="45.47074" lon="-75.80424">
        <ele>174.4</ele>
      </trkpt>
      <trkpt lat="45.47075" lon="-75.80434">
        <ele>174.9</ele>
      </trkpt>
      <trkpt lat="45.47072" lon="-75.80449">
        <ele>175.2</ele>
      </trkpt>
      <trkpt lat="45.47053" lon="-75.80473">
        <ele>175.8</ele>
      </trkpt>
      <trkpt lat="45.47031" lon="-75.80491">
        <ele>177.3</ele>
      </trkpt>
      <trkpt lat="45.47022" lon="-75.80507">
        <ele>179.5</ele>
      </trkpt>
      <trkpt lat="45.47016" lon="-75.80525">
        <ele>181.5</ele>
      </trkpt>
      <trkpt lat="45.47013" lon="-75.80529">
        <ele>181.9</ele>
      </trkpt>
      <trkpt lat="45.47001" lon="-75.80548">
        <ele>183.2</ele>
      </trkpt>
      <trkpt lat="45.46993" lon="-75.80558">
        <ele>183.5</ele>
      </trkpt>
      <trkpt lat="45.46974" lon="-75.80573">
        <ele>183.1</ele>
      </trkpt>
      <trkpt lat="45.46953" lon="-75.80584">
        <ele>181.8</ele>
      </trkpt>
      <trkpt lat="45.46959" lon="-75.80593">
        <ele>182.4</ele>
      </trkpt>
      <trkpt lat="45.46962" lon="-75.80607">
        <ele>183.2</ele>
      </trkpt>
      <trkpt lat="45.47002" lon="-75.80629">
        <ele>186.8</ele>
      </trkpt>
      <trkpt lat="45.4701" lon="-75.80635">
        <ele>186.6</ele>
      </trkpt>
      <trkpt lat="45.47019" lon="-75.80652">
        <ele>185.6</ele>
      </trkpt>
      <trkpt lat="45.47031" lon="-75.80656">
        <ele>185.2</ele>
      </trkpt>
      <trkpt lat="45.47045" lon="-75.80655">
        <ele>185.7</ele>
      </trkpt>
      <trkpt lat="45.4705" lon="-75.80651">
        <ele>186</ele>
      </trkpt>
      <trkpt lat="45.4706" lon="-75.80652">
        <ele>186</ele>
      </trkpt>
      <trkpt lat="45.47067" lon="-75.80655">
        <ele>186</ele>
      </trkpt>
      <trkpt lat="45.47115" lon="-75.80611">
        <ele>190</ele>
      </trkpt>
      <trkpt lat="45.47132" lon="-75.80606">
        <ele>190</ele>
      </trkpt>
      <trkpt lat="45.47141" lon="-75.80606">
        <ele>189.9</ele>
      </trkpt>
      <trkpt lat="45.4715" lon="-75.80611">
        <ele>189.9</ele>
      </trkpt>
      <trkpt lat="45.47186" lon="-75.80685">
        <ele>189.6</ele>
      </trkpt>
      <trkpt lat="45.47192" lon="-75.80713">
        <ele>187.9</ele>
      </trkpt>
      <trkpt lat="45.47194" lon="-75.80736">
        <ele>185.9</ele>
      </trkpt>
      <trkpt lat="45.47197" lon="-75.80765">
        <ele>182.3</ele>
      </trkpt>
      <trkpt lat="45.47198" lon="-75.808">
        <ele>176.5</ele>
      </trkpt>
      <trkpt lat="45.47194" lon="-75.80814">
        <ele>174.2</ele>
      </trkpt>
      <trkpt lat="45.47187" lon="-75.80822">
        <ele>173</ele>
      </trkpt>
      <trkpt lat="45.4718" lon="-75.8084">
        <ele>171.3</ele>
      </trkpt>
      <trkpt lat="45.47186" lon="-75.80865">
        <ele>169.7</ele>
      </trkpt>
      <trkpt lat="45.47193" lon="-75.80873">
        <ele>169.9</ele>
      </trkpt>
      <trkpt lat="45.47206" lon="-75.8088">
        <ele>170.7</ele>
      </trkpt>
      <trkpt lat="45.4723" lon="-75.80904">
        <ele>174.7</ele>
      </trkpt>
      <trkpt lat="45.47236" lon="-75.80921">
        <ele>177</ele>
      </trkpt>
      <trkpt lat="45.47238" lon="-75.8094">
        <ele>179.1</ele>
      </trkpt>
      <trkpt lat="45.47234" lon="-75.80971">
        <ele>181.7</ele>
      </trkpt>
      <trkpt lat="45.4722" lon="-75.81041">
        <ele>184.5</ele>
      </trkpt>
      <trkpt lat="45.47218" lon="-75.81076">
        <ele>187.1</ele>
      </trkpt>
      <trkpt lat="45.4722" lon="-75.81104">
        <ele>190.4</ele>
      </trkpt>
      <trkpt lat="45.47219" lon="-75.81113">
        <ele>191.6</ele>
      </trkpt>
      <trkpt lat="45.47164" lon="-75.81177">
        <ele>193.9</ele>
      </trkpt>
      <trkpt lat="45.47158" lon="-75.81187">
        <ele>192.9</ele>
      </trkpt>
      <trkpt lat="45.47154" lon="-75.812">
        <ele>191.9</ele>
      </trkpt>
      <trkpt lat="45.47153" lon="-75.81223">
        <ele>190.9</ele>
      </trkpt>
      <trkpt lat="45.47147" lon="-75.81236">
        <ele>190.1</ele>
      </trkpt>
      <trkpt lat="45.47108" lon="-75.81288">
        <ele>191.1</ele>
      </trkpt>
      <trkpt lat="45.47104" lon="-75.81295">
        <ele>191.7</ele>
      </trkpt>
      <trkpt lat="45.47103" lon="-75.8131">
        <ele>192.2</ele>
      </trkpt>
      <trkpt lat="45.47107" lon="-75.81332">
        <ele>192.7</ele>
      </trkpt>
      <trkpt lat="45.47109" lon="-75.81363">
        <ele>193.7</ele>
      </trkpt>
      <trkpt lat="45.47104" lon="-75.81383">
        <ele>193.6</ele>
      </trkpt>
      <trkpt lat="45.47072" lon="-75.81486">
        <ele>193.4</ele>
      </trkpt>
      <trkpt lat="45.47068" lon="-75.81511">
        <ele>193.7</ele>
      </trkpt>
      <trkpt lat="45.47068" lon="-75.81529">
        <ele>194.5</ele>
      </trkpt>
      <trkpt lat="45.47072" lon="-75.81546">
        <ele>195.6</ele>
      </trkpt>
      <trkpt lat="45.4707" lon="-75.81579">
        <ele>195.1</ele>
      </trkpt>
      <trkpt lat="45.47051" lon="-75.81585">
        <ele>193.5</ele>
      </trkpt>
      <trkpt lat="45.47049" lon="-75.81601">
        <ele>192.6</ele>
      </trkpt>
      <trkpt lat="45.47037" lon="-75.81617">
        <ele>191.2</ele>
      </trkpt>
      <trkpt lat="45.47028" lon="-75.8162">
        <ele>190.6</ele>
      </trkpt>
      <trkpt lat="45.47023" lon="-75.81625">
        <ele>190.1</ele>
      </trkpt>
      <trkpt lat="45.47013" lon="-75.81634">
        <ele>189</ele>
      </trkpt>
      <trkpt lat="45.47008" lon="-75.81646">
        <ele>188.1</ele>
      </trkpt>
      <trkpt lat="45.47005" lon="-75.81659">
        <ele>187.4</ele>
      </trkpt>
      <trkpt lat="45.46999" lon="-75.81702">
        <ele>186.7</ele>
      </trkpt>
      <trkpt lat="45.46995" lon="-75.81705">
        <ele>186.6</ele>
      </trkpt>
      <trkpt lat="45.46991" lon="-75.81721">
        <ele>186.3</ele>
      </trkpt>
      <trkpt lat="45.4699" lon="-75.81733">
        <ele>186.4</ele>
      </trkpt>
      <trkpt lat="45.46993" lon="-75.81744">
        <ele>186.5</ele>
      </trkpt>
      <trkpt lat="45.46992" lon="-75.81752">
        <ele>186.1</ele>
      </trkpt>
      <trkpt lat="45.46982" lon="-75.81771">
        <ele>184.2</ele>
      </trkpt>
      <trkpt lat="45.46967" lon="-75.81784">
        <ele>181.7</ele>
      </trkpt>
      <trkpt lat="45.46946" lon="-75.81781">
        <ele>179</ele>
      </trkpt>
      <trkpt lat="45.46931" lon="-75.8179">
        <ele>177.3</ele>
      </trkpt>
      <trkpt lat="45.46913" lon="-75.81794">
        <ele>176.1</ele>
      </trkpt>
      <trkpt lat="45.46914" lon="-75.81804">
        <ele>175.8</ele>
      </trkpt>
      <trkpt lat="45.4691" lon="-75.81814">
        <ele>175.4</ele>
      </trkpt>
      <trkpt lat="45.469" lon="-75.81824">
        <ele>175.1</ele>
      </trkpt>
      <trkpt lat="45.46899" lon="-75.81832">
        <ele>175.1</ele>
      </trkpt>
      <trkpt lat="45.46902" lon="-75.81843">
        <ele>175.2</ele>
      </trkpt>
      <trkpt lat="45.46905" lon="-75.81857">
        <ele>175.4</ele>
      </trkpt>
      <trkpt lat="45.46905" lon="-75.81873">
        <ele>175.5</ele>
      </trkpt>
      <trkpt lat="45.46902" lon="-75.81887">
        <ele>175.4</ele>
      </trkpt>
      <trkpt lat="45.46894" lon="-75.81901">
        <ele>174.7</ele>
      </trkpt>
      <trkpt lat="45.46878" lon="-75.81916">
        <ele>173.6</ele>
      </trkpt>
      <trkpt lat="45.46851" lon="-75.81935">
        <ele>171.6</ele>
      </trkpt>
      <trkpt lat="45.46838" lon="-75.81937">
        <ele>170.7</ele>
      </trkpt>
      <trkpt lat="45.46822" lon="-75.81932">
        <ele>169.9</ele>
      </trkpt>
      <trkpt lat="45.46793" lon="-75.81913">
        <ele>168</ele>
      </trkpt>
      <trkpt lat="45.46783" lon="-75.81908">
        <ele>167.4</ele>
      </trkpt>
      <trkpt lat="45.46753" lon="-75.81904">
        <ele>164.8</ele>
      </trkpt>
      <trkpt lat="45.46743" lon="-75.81897">
        <ele>164.4</ele>
      </trkpt>
      <trkpt lat="45.46736" lon="-75.81881">
        <ele>164.5</ele>
      </trkpt>
      <trkpt lat="45.46724" lon="-75.8184">
        <ele>165.5</ele>
      </trkpt>
      <trkpt lat="45.46719" lon="-75.81817">
        <ele>165.9</ele>
      </trkpt>
      <trkpt lat="45.46716" lon="-75.81799">
        <ele>166.5</ele>
      </trkpt>
      <trkpt lat="45.46711" lon="-75.81788">
        <ele>166.8</ele>
      </trkpt>
      <trkpt lat="45.46692" lon="-75.81773">
        <ele>167</ele>
      </trkpt>
      <trkpt lat="45.4663" lon="-75.81741">
        <ele>167</ele>
      </trkpt>
      <trkpt lat="45.46624" lon="-75.81737">
        <ele>166.9</ele>
      </trkpt>
      <trkpt lat="45.46617" lon="-75.81726">
        <ele>166.7</ele>
      </trkpt>
      <trkpt lat="45.46614" lon="-75.81714">
        <ele>166.5</ele>
      </trkpt>
      <trkpt lat="45.46616" lon="-75.81685">
        <ele>166.6</ele>
      </trkpt>
      <trkpt lat="45.46619" lon="-75.81676">
        <ele>166.7</ele>
      </trkpt>
      <trkpt lat="45.46625" lon="-75.81669">
        <ele>166.9</ele>
      </trkpt>
      <trkpt lat="45.46632" lon="-75.81667">
        <ele>167.1</ele>
      </trkpt>
      <trkpt lat="45.46645" lon="-75.81667">
        <ele>167.4</ele>
      </trkpt>
      <trkpt lat="45.4668" lon="-75.81677">
        <ele>168.3</ele>
      </trkpt>
      <trkpt lat="45.46724" lon="-75.81693">
        <ele>170.2</ele>
      </trkpt>
      <trkpt lat="45.46735" lon="-75.81696">
        <ele>170.2</ele>
      </trkpt>
      <trkpt lat="45.46747" lon="-75.81697">
        <ele>170.3</ele>
      </trkpt>
      <trkpt lat="45.4676" lon="-75.81693">
        <ele>170.8</ele>
      </trkpt>
      <trkpt lat="45.46779" lon="-75.81682">
        <ele>172</ele>
      </trkpt>
      <trkpt lat="45.46789" lon="-75.81671">
        <ele>173.1</ele>
      </trkpt>
      <trkpt lat="45.46801" lon="-75.81643">
        <ele>175.6</ele>
      </trkpt>
      <trkpt lat="45.46805" lon="-75.81624">
        <ele>177.1</ele>
      </trkpt>
      <trkpt lat="45.46805" lon="-75.81606">
        <ele>177.7</ele>
      </trkpt>
      <trkpt lat="45.46802" lon="-75.81597">
        <ele>177.9</ele>
      </trkpt>
      <trkpt lat="45.46795" lon="-75.81592">
        <ele>177.4</ele>
      </trkpt>
      <trkpt lat="45.46787" lon="-75.81595">
        <ele>176.8</ele>
      </trkpt>
      <trkpt lat="45.46779" lon="-75.81591">
        <ele>176.3</ele>
      </trkpt>
      <trkpt lat="45.46754" lon="-75.81563">
        <ele>174.8</ele>
      </trkpt>
      <trkpt lat="45.46746" lon="-75.81545">
        <ele>175.1</ele>
      </trkpt>
      <trkpt lat="45.4674" lon="-75.81526">
        <ele>176.3</ele>
      </trkpt>
      <trkpt lat="45.46736" lon="-75.81519">
        <ele>176.6</ele>
      </trkpt>
      <trkpt lat="45.46719" lon="-75.81506">
        <ele>177.3</ele>
      </trkpt>
      <trkpt lat="45.46709" lon="-75.81504">
        <ele>177.4</ele>
      </trkpt>
      <trkpt lat="45.4669" lon="-75.81506">
        <ele>176.9</ele>
      </trkpt>
      <trkpt lat="45.46676" lon="-75.81503">
        <ele>176.6</ele>
      </trkpt>
      <trkpt lat="45.46665" lon="-75.81494">
        <ele>177</ele>
      </trkpt>
      <trkpt lat="45.46659" lon="-75.81485">
        <ele>177.5</ele>
      </trkpt>
      <trkpt lat="45.46653" lon="-75.81475">
        <ele>178.1</ele>
      </trkpt>
      <trkpt lat="45.46635" lon="-75.81437">
        <ele>180.6</ele>
      </trkpt>
      <trkpt lat="45.46627" lon="-75.81411">
        <ele>181.8</ele>
      </trkpt>
      <trkpt lat="45.46611" lon="-75.81342">
        <ele>187</ele>
      </trkpt>
      <trkpt lat="45.46609" lon="-75.81322">
        <ele>189.4</ele>
      </trkpt>
      <trkpt lat="45.46602" lon="-75.81309">
        <ele>189.8</ele>
      </trkpt>
      <trkpt lat="45.46598" lon="-75.81306">
        <ele>189.9</ele>
      </trkpt>
      <trkpt lat="45.46584" lon="-75.81293">
        <ele>188.6</ele>
      </trkpt>
      <trkpt lat="45.46573" lon="-75.81272">
        <ele>188</ele>
      </trkpt>
      <trkpt lat="45.46571" lon="-75.8125">
        <ele>189</ele>
      </trkpt>
      <trkpt lat="45.46554" lon="-75.81194">
        <ele>191.6</ele>
      </trkpt>
      <trkpt lat="45.46555" lon="-75.81187">
        <ele>192</ele>
      </trkpt>
      <trkpt lat="45.46559" lon="-75.81173">
        <ele>192.9</ele>
      </trkpt>
      <trkpt lat="45.46558" lon="-75.81163">
        <ele>193.6</ele>
      </trkpt>
      <trkpt lat="45.4655" lon="-75.81136">
        <ele>195.7</ele>
      </trkpt>
      <trkpt lat="45.46546" lon="-75.81111">
        <ele>197.9</ele>
      </trkpt>
      <trkpt lat="45.46545" lon="-75.81098">
        <ele>198.8</ele>
      </trkpt>
      <trkpt lat="45.46546" lon="-75.81086">
        <ele>199.4</ele>
      </trkpt>
      <trkpt lat="45.46553" lon="-75.81062">
        <ele>199.7</ele>
      </trkpt>
      <trkpt lat="45.46561" lon="-75.81031">
        <ele>198.9</ele>
      </trkpt>
      <trkpt lat="45.46566" lon="-75.81018">
        <ele>198.3</ele>
      </trkpt>
      <trkpt lat="45.4657" lon="-75.8099">
        <ele>196.5</ele>
      </trkpt>
      <trkpt lat="45.46568" lon="-75.80951">
        <ele>193.9</ele>
      </trkpt>
      <trkpt lat="45.46554" lon="-75.80852">
        <ele>190.2</ele>
      </trkpt>
      <trkpt lat="45.46543" lon="-75.80818">
        <ele>190.9</ele>
      </trkpt>
      <trkpt lat="45.46524" lon="-75.80794">
        <ele>191.2</ele>
      </trkpt>
      <trkpt lat="45.46501" lon="-75.80755">
        <ele>188.5</ele>
      </trkpt>
      <trkpt lat="45.46471" lon="-75.80726">
        <ele>182.2</ele>
      </trkpt>
      <trkpt lat="45.46458" lon="-75.80703">
        <ele>180.5</ele>
      </trkpt>
      <trkpt lat="45.46455" lon="-75.80699">
        <ele>180.6</ele>
      </trkpt>
      <trkpt lat="45.46449" lon="-75.80692">
        <ele>180.8</ele>
      </trkpt>
      <trkpt lat="45.46405" lon="-75.80658">
        <ele>185.6</ele>
      </trkpt>
      <trkpt lat="45.46413" lon="-75.80635">
        <ele>187.4</ele>
      </trkpt>
      <trkpt lat="45.46416" lon="-75.8062">
        <ele>188.3</ele>
      </trkpt>
      <trkpt lat="45.4642" lon="-75.80611">
        <ele>188.8</ele>
      </trkpt>
      <trkpt lat="45.46442" lon="-75.80584">
        <ele>189.3</ele>
      </trkpt>
      <trkpt lat="45.46456" lon="-75.80557">
        <ele>188.9</ele>
      </trkpt>
      <trkpt lat="45.4646" lon="-75.80531">
        <ele>188.9</ele>
      </trkpt>
      <trkpt lat="45.46467" lon="-75.80512">
        <ele>188.6</ele>
      </trkpt>
      <trkpt lat="45.4647" lon="-75.80489">
        <ele>188.5</ele>
      </trkpt>
      <trkpt lat="45.46467" lon="-75.80468">
        <ele>188.9</ele>
      </trkpt>
      <trkpt lat="45.4646" lon="-75.80451">
        <ele>189.6</ele>
      </trkpt>
      <trkpt lat="45.4646" lon="-75.80442">
        <ele>189.8</ele>
      </trkpt>
      <trkpt lat="45.46469" lon="-75.8042">
        <ele>189.2</ele>
      </trkpt>
      <trkpt lat="45.46465" lon="-75.80377">
        <ele>188.6</ele>
      </trkpt>
      <trkpt lat="45.46459" lon="-75.80341">
        <ele>185.8</ele>
      </trkpt>
      <trkpt lat="45.46449" lon="-75.80307">
        <ele>182.4</ele>
      </trkpt>
      <trkpt lat="45.4644" lon="-75.80256">
        <ele>175.5</ele>
      </trkpt>
      <trkpt lat="45.46432" lon="-75.80229">
        <ele>172</ele>
      </trkpt>
      <trkpt lat="45.46453" lon="-75.80209">
        <ele>170.8</ele>
      </trkpt>
      <trkpt lat="45.46474" lon="-75.80215">
        <ele>173.8</ele>
      </trkpt>
      <trkpt lat="45.46488" lon="-75.80232">
        <ele>176.6</ele>
      </trkpt>
      <trkpt lat="45.46505" lon="-75.80245">
        <ele>178.4</ele>
      </trkpt>
      <trkpt lat="45.46506" lon="-75.80247">
        <ele>178.5</ele>
      </trkpt>
      <trkpt lat="45.46523" lon="-75.80267">
        <ele>179.7</ele>
      </trkpt>
      <trkpt lat="45.46535" lon="-75.80286">
        <ele>179.9</ele>
      </trkpt>
      <trkpt lat="45.46543" lon="-75.80287">
        <ele>179.3</ele>
      </trkpt>
      <trkpt lat="45.46553" lon="-75.8028">
        <ele>178.4</ele>
      </trkpt>
      <trkpt lat="45.46565" lon="-75.80278">
        <ele>177.3</ele>
      </trkpt>
      <trkpt lat="45.46578" lon="-75.80275">
        <ele>176.1</ele>
      </trkpt>
      <trkpt lat="45.46584" lon="-75.80267">
        <ele>175.3</ele>
      </trkpt>
      <trkpt lat="45.4663" lon="-75.8026">
        <ele>170.5</ele>
      </trkpt>
      <trkpt lat="45.46642" lon="-75.8026">
        <ele>168.7</ele>
      </trkpt>
      <trkpt lat="45.46668" lon="-75.80274">
        <ele>164.4</ele>
      </trkpt>
      <trkpt lat="45.46674" lon="-75.80275">
        <ele>163.7</ele>
      </trkpt>
      <trkpt lat="45.46681" lon="-75.80272">
        <ele>162.8</ele>
      </trkpt>
      <trkpt lat="45.46679" lon="-75.80248">
        <ele>163.1</ele>
      </trkpt>
      <trkpt lat="45.46679" lon="-75.80237">
        <ele>163.3</ele>
      </trkpt>
      <trkpt lat="45.46675" lon="-75.8022">
        <ele>163.8</ele>
      </trkpt>
      <trkpt lat="45.46676" lon="-75.80212">
        <ele>164.2</ele>
      </trkpt>
      <trkpt lat="45.46683" lon="-75.8021">
        <ele>164.7</ele>
      </trkpt>
      <trkpt lat="45.46687" lon="-75.80216">
        <ele>164.8</ele>
      </trkpt>
      <trkpt lat="45.46705" lon="-75.80232">
        <ele>165.9</ele>
      </trkpt>
      <trkpt lat="45.46718" lon="-75.80247">
        <ele>166.8</ele>
      </trkpt>
      <trkpt lat="45.46729" lon="-75.80267">
        <ele>167.3</ele>
      </trkpt>
      <trkpt lat="45.46736" lon="-75.80275">
        <ele>167.3</ele>
      </trkpt>
      <trkpt lat="45.46748" lon="-75.80307">
        <ele>166.2</ele>
      </trkpt>
      <trkpt lat="45.46764" lon="-75.80336">
        <ele>168.3</ele>
      </trkpt>
      <trkpt lat="45.4679" lon="-75.80393">
        <ele>166.2</ele>
      </trkpt>
      <trkpt lat="45.46802" lon="-75.80407">
        <ele>166</ele>
      </trkpt>
      <trkpt lat="45.46802" lon="-75.80418">
        <ele>165.4</ele>
      </trkpt>
      <trkpt lat="45.46799" lon="-75.8043">
        <ele>164.8</ele>
      </trkpt>
      <trkpt lat="45.46804" lon="-75.80445">
        <ele>164.9</ele>
      </trkpt>
      <trkpt lat="45.46814" lon="-75.80461">
        <ele>165.2</ele>
      </trkpt>
      <trkpt lat="45.46852" lon="-75.80503">
        <ele>165.7</ele>
      </trkpt>
      <trkpt lat="45.46868" lon="-75.80516">
        <ele>167</ele>
      </trkpt>
      <trkpt lat="45.46887" lon="-75.80529">
        <ele>169.4</ele>
      </trkpt>
      <trkpt lat="45.46899" lon="-75.8055">
        <ele>171.8</ele>
      </trkpt>
      <trkpt lat="45.46924" lon="-75.80568">
        <ele>177.1</ele>
      </trkpt>
      <trkpt lat="45.46953" lon="-75.80584">
        <ele>181.3</ele>
      </trkpt>
      <trkpt lat="45.46974" lon="-75.80573">
        <ele>183</ele>
      </trkpt>
      <trkpt lat="45.46993" lon="-75.80558">
        <ele>183.5</ele>
      </trkpt>
      <trkpt lat="45.47001" lon="-75.80548">
        <ele>183.3</ele>
      </trkpt>
      <trkpt lat="45.47016" lon="-75.80525">
        <ele>182</ele>
      </trkpt>
      <trkpt lat="45.47022" lon="-75.80507">
        <ele>179.9</ele>
      </trkpt>
      <trkpt lat="45.47031" lon="-75.80491">
        <ele>177.5</ele>
      </trkpt>
      <trkpt lat="45.47053" lon="-75.80473">
        <ele>175.9</ele>
      </trkpt>
      <trkpt lat="45.47056" lon="-75.80469">
        <ele>175.7</ele>
      </trkpt>
      <trkpt lat="45.47072" lon="-75.80449">
        <ele>175.1</ele>
      </trkpt>
      <trkpt lat="45.47075" lon="-75.80434">
        <ele>174.8</ele>
      </trkpt>
      <trkpt lat="45.47074" lon="-75.80424">
        <ele>174.5</ele>
      </trkpt>
      <trkpt lat="45.47066" lon="-75.80401">
        <ele>173.6</ele>
      </trkpt>
      <trkpt lat="45.47057" lon="-75.80385">
        <ele>172.7</ele>
      </trkpt>
      <trkpt lat="45.47055" lon="-75.80376">
        <ele>172.4</ele>
      </trkpt>
      <trkpt lat="45.4706" lon="-75.80356">
        <ele>171.8</ele>
      </trkpt>
      <trkpt lat="45.47066" lon="-75.80343">
        <ele>171.9</ele>
      </trkpt>
      <trkpt lat="45.47084" lon="-75.80312">
        <ele>172.2</ele>
      </trkpt>
      <trkpt lat="45.47105" lon="-75.80284">
        <ele>172.5</ele>
      </trkpt>
      <trkpt lat="45.47126" lon="-75.8025">
        <ele>170.2</ele>
      </trkpt>
      <trkpt lat="45.47152" lon="-75.80235">
        <ele>170.2</ele>
      </trkpt>
      <trkpt lat="45.47162" lon="-75.80223">
        <ele>170.1</ele>
      </trkpt>
      <trkpt lat="45.47168" lon="-75.80206">
        <ele>170</ele>
      </trkpt>
      <trkpt lat="45.47174" lon="-75.80172">
        <ele>172</ele>
      </trkpt>
      <trkpt lat="45.47182" lon="-75.80152">
        <ele>173.6</ele>
      </trkpt>
      <trkpt lat="45.47202" lon="-75.80138">
        <ele>173.4</ele>
      </trkpt>
      <trkpt lat="45.4728" lon="-75.8004">
        <ele>170.2</ele>
      </trkpt>
      <trkpt lat="45.47295" lon="-75.80012">
        <ele>169.7</ele>
      </trkpt>
      <trkpt lat="45.47318" lon="-75.79948">
        <ele>169.5</ele>
      </trkpt>
      <trkpt lat="45.4733" lon="-75.79924">
        <ele>169.2</ele>
      </trkpt>
      <trkpt lat="45.4736" lon="-75.79893">
        <ele>168.7</ele>
      </trkpt>
      <trkpt lat="45.47389" lon="-75.79879">
        <ele>169</ele>
      </trkpt>
      <trkpt lat="45.47397" lon="-75.79872">
        <ele>169.4</ele>
      </trkpt>
      <trkpt lat="45.47405" lon="-75.79862">
        <ele>169.5</ele>
      </trkpt>
      <trkpt lat="45.47429" lon="-75.79809">
        <ele>165.8</ele>
      </trkpt>
      <trkpt lat="45.47443" lon="-75.79788">
        <ele>165.3</ele>
      </trkpt>
      <trkpt lat="45.47454" lon="-75.79776">
        <ele>166.2</ele>
      </trkpt>
      <trkpt lat="45.47456" lon="-75.7976">
        <ele>166.2</ele>
      </trkpt>
      <trkpt lat="45.47468" lon="-75.79735">
        <ele>167</ele>
      </trkpt>
      <trkpt lat="45.47481" lon="-75.79687">
        <ele>164</ele>
      </trkpt>
      <trkpt lat="45.47486" lon="-75.79652">
        <ele>160.4</ele>
      </trkpt>
      <trkpt lat="45.47492" lon="-75.79596">
        <ele>154.6</ele>
      </trkpt>
      <trkpt lat="45.47508" lon="-75.79528">
        <ele>149.8</ele>
      </trkpt>
      <trkpt lat="45.47511" lon="-75.79508">
        <ele>149.8</ele>
      </trkpt>
      <trkpt lat="45.4751" lon="-75.79498">
        <ele>149.9</ele>
      </trkpt>
      <trkpt lat="45.47506" lon="-75.7949">
        <ele>150</ele>
      </trkpt>
      <trkpt lat="45.47511" lon="-75.79489">
        <ele>150.1</ele>
      </trkpt>
      <trkpt lat="45.47532" lon="-75.79464">
        <ele>148.3</ele>
      </trkpt>
      <trkpt lat="45.47565" lon="-75.79437">
        <ele>143.9</ele>
      </trkpt>
      <trkpt lat="45.47572" lon="-75.79434">
        <ele>143.3</ele>
      </trkpt>
      <trkpt lat="45.47582" lon="-75.79433">
        <ele>142.8</ele>
      </trkpt>
      <trkpt lat="45.47604" lon="-75.7943">
        <ele>142.1</ele>
      </trkpt>
      <trkpt lat="45.47636" lon="-75.79432">
        <ele>141.8</ele>
      </trkpt>
      <trkpt lat="45.47644" lon="-75.79428">
        <ele>141.3</ele>
      </trkpt>
      <trkpt lat="45.47651" lon="-75.79422">
        <ele>140.9</ele>
      </trkpt>
      <trkpt lat="45.47689" lon="-75.79406">
        <ele>138</ele>
      </trkpt>
      <trkpt lat="45.47715" lon="-75.79382">
        <ele>132.6</ele>
      </trkpt>
      <trkpt lat="45.47734" lon="-75.79371">
        <ele>129.2</ele>
      </trkpt>
      <trkpt lat="45.47759" lon="-75.79376">
        <ele>126.7</ele>
      </trkpt>
      <trkpt lat="45.47804" lon="-75.79392">
        <ele>120.8</ele>
      </trkpt>
      <trkpt lat="45.47833" lon="-75.79394">
        <ele>117.1</ele>
      </trkpt>
      <trkpt lat="45.47865" lon="-75.79358">
        <ele>113.6</ele>
      </trkpt>
      <trkpt lat="45.47899" lon="-75.79338">
        <ele>112.7</ele>
      </trkpt>
      <trkpt lat="45.47905" lon="-75.79335">
        <ele>112.5</ele>
      </trkpt>
      <trkpt lat="45.47872" lon="-75.79212">
        <ele>108.1</ele>
      </trkpt>
      <trkpt lat="45.47849" lon="-75.79123">
        <ele>105.6</ele>
      </trkpt>
      <trkpt lat="45.47847" lon="-75.79111">
        <ele>105.4</ele>
      </trkpt>
      <trkpt lat="45.47848" lon="-75.79105">
        <ele>105.3</ele>
      </trkpt>
      <trkpt lat="45.47854" lon="-75.79099">
        <ele>105.1</ele>
      </trkpt>
      <trkpt lat="45.47908" lon="-75.79078">
        <ele>104.9</ele>
      </trkpt>
      <trkpt lat="45.47904" lon="-75.79059">
        <ele>104.6</ele>
      </trkpt>
      <trkpt lat="45.47903" lon="-75.79021">
        <ele>103.5</ele>
      </trkpt>
      <trkpt lat="45.47945" lon="-75.79014">
        <ele>103.2</ele>
      </trkpt>
      <trkpt lat="45.47964" lon="-75.78996">
        <ele>103</ele>
      </trkpt>
      <trkpt lat="45.47967" lon="-75.78992">
        <ele>103</ele>
      </trkpt>
      <trkpt lat="45.47969" lon="-75.78981">
        <ele>103</ele>
      </trkpt>
      <trkpt lat="45.47966" lon="-75.78969">
        <ele>103</ele>
      </trkpt>
      <trkpt lat="45.47928" lon="-75.78899">
        <ele>101.9</ele>
      </trkpt>
      <trkpt lat="45.47885" lon="-75.78818">
        <ele>100.6</ele>
      </trkpt>
    </trkseg>
  </trk>
</gpx>