<?xml version="1.0" encoding="UTF-8" standalone="yes"?>
<gpx version="1.1" creator="https://onthegomap.com" xmlns="http://www.topografix.com/GPX/1/1">
  <metadata>
    <name>8km route</name>
    <link href="https://onthegomap.com">
      <text>On The Go Map</text>
    </link>
    <time>2026-03-01T13:48:15.034Z</time>
    <copyright author="On The Go Map, OpenStreetMap Contributors">
      <year>2026</year>
    </copyright>
  </metadata>
  <trk>
    <name>8km route</name>
    <trkseg>
      <trkpt lat="45.47884" lon="-75.78816">
        <ele>100.5</ele>
      </trkpt>
      <trkpt lat="45.47928" lon="-75.78899">
        <ele>102</ele>
      </trkpt>
      <trkpt lat="45.47966" lon="-75.78969">
        <ele>102.9</ele>
      </trkpt>
      <trkpt lat="45.47969" lon="-75.78981">
        <ele>103</ele>
      </trkpt>
      <trkpt lat="45.47967" lon="-75.78992">
        <ele>103</ele>
      </trkpt>
      <trkpt lat="45.47964" lon="-75.78996">
        <ele>103</ele>
      </trkpt>
      <trkpt lat="45.47945" lon="-75.79014">
        <ele>103.2</ele>
      </trkpt>
      <trkpt lat="45.47903" lon="-75.79021">
        <ele>103.6</ele>
      </trkpt>
      <trkpt lat="45.47904" lon="-75.79059">
        <ele>104.6</ele>
      </trkpt>
      <trkpt lat="45.47908" lon="-75.79078">
        <ele>104.9</ele>
      </trkpt>
      <trkpt lat="45.47854" lon="-75.79099">
        <ele>105.1</ele>
      </trkpt>
      <trkpt lat="45.47848" lon="-75.79105">
        <ele>105.3</ele>
      </trkpt>
      <trkpt lat="45.47847" lon="-75.79111">
        <ele>105.4</ele>
      </trkpt>
      <trkpt lat="45.47849" lon="-75.79123">
        <ele>105.6</ele>
      </trkpt>
      <trkpt lat="45.47905" lon="-75.79335">
        <ele>112.6</ele>
      </trkpt>
      <trkpt lat="45.47899" lon="-75.79338">
        <ele>112.7</ele>
      </trkpt>
      <trkpt lat="45.47865" lon="-75.79358">
        <ele>113.6</ele>
      </trkpt>
      <trkpt lat="45.47833" lon="-75.79394">
        <ele>117.2</ele>
      </trkpt>
      <trkpt lat="45.47804" lon="-75.79392">
        <ele>120.8</ele>
      </trkpt>
      <trkpt lat="45.47801" lon="-75.7939">
        <ele>121.2</ele>
      </trkpt>
      <trkpt lat="45.47759" lon="-75.79376">
        <ele>126.5</ele>
      </trkpt>
      <trkpt lat="45.47734" lon="-75.79371">
        <ele>129</ele>
      </trkpt>
      <trkpt lat="45.47715" lon="-75.79382">
        <ele>132.6</ele>
      </trkpt>
      <trkpt lat="45.47689" lon="-75.79406">
        <ele>138.2</ele>
      </trkpt>
      <trkpt lat="45.47651" lon="-75.79422">
        <ele>140.9</ele>
      </trkpt>
      <trkpt lat="45.47644" lon="-75.79428">
        <ele>141.4</ele>
      </trkpt>
      <trkpt lat="45.47636" lon="-75.79432">
        <ele>141.8</ele>
      </trkpt>
      <trkpt lat="45.47604" lon="-75.7943">
        <ele>142.1</ele>
      </trkpt>
      <trkpt lat="45.47572" lon="-75.79434">
        <ele>143.4</ele>
      </trkpt>
      <trkpt lat="45.47565" lon="-75.79437">
        <ele>143.9</ele>
      </trkpt>
      <trkpt lat="45.47532" lon="-75.79464">
        <ele>148.4</ele>
      </trkpt>
      <trkpt lat="45.47511" lon="-75.79489">
        <ele>150.2</ele>
      </trkpt>
      <trkpt lat="45.47506" lon="-75.7949">
        <ele>150.3</ele>
      </trkpt>
      <trkpt lat="45.4751" lon="-75.79498">
        <ele>150</ele>
      </trkpt>
      <trkpt lat="45.47511" lon="-75.79508">
        <ele>149.7</ele>
      </trkpt>
      <trkpt lat="45.47508" lon="-75.79528">
        <ele>149.9</ele>
      </trkpt>
      <trkpt lat="45.47492" lon="-75.79596">
        <ele>154.7</ele>
      </trkpt>
      <trkpt lat="45.47486" lon="-75.79652">
        <ele>160.4</ele>
      </trkpt>
      <trkpt lat="45.47481" lon="-75.79687">
        <ele>164</ele>
      </trkpt>
      <trkpt lat="45.47468" lon="-75.79735">
        <ele>166.9</ele>
      </trkpt>
      <trkpt lat="45.47456" lon="-75.7976">
        <ele>165.9</ele>
      </trkpt>
      <trkpt lat="45.47454" lon="-75.79776">
        <ele>166.3</ele>
      </trkpt>
      <trkpt lat="45.47449" lon="-75.79847">
        <ele>168.9</ele>
      </trkpt>
      <trkpt lat="45.47447" lon="-75.79898">
        <ele>169.1</ele>
      </trkpt>
      <trkpt lat="45.4745" lon="-75.79928">
        <ele>168.3</ele>
      </trkpt>
      <trkpt lat="45.47453" lon="-75.79937">
        <ele>168.1</ele>
      </trkpt>
      <trkpt lat="45.47458" lon="-75.79944">
        <ele>168</ele>
      </trkpt>
      <trkpt lat="45.47468" lon="-75.79949">
        <ele>168.1</ele>
      </trkpt>
      <trkpt lat="45.47476" lon="-75.7995">
        <ele>168.4</ele>
      </trkpt>
      <trkpt lat="45.47482" lon="-75.79947">
        <ele>168.9</ele>
      </trkpt>
      <trkpt lat="45.47499" lon="-75.79928">
        <ele>171.4</ele>
      </trkpt>
      <trkpt lat="45.47506" lon="-75.79924">
        <ele>172</ele>
      </trkpt>
      <trkpt lat="45.47517" lon="-75.79926">
        <ele>172.5</ele>
      </trkpt>
      <trkpt lat="45.47543" lon="-75.79943">
        <ele>172.1</ele>
      </trkpt>
      <trkpt lat="45.47555" lon="-75.79954">
        <ele>172.4</ele>
      </trkpt>
      <trkpt lat="45.47583" lon="-75.79987">
        <ele>175</ele>
      </trkpt>
      <trkpt lat="45.47589" lon="-75.79999">
        <ele>176.1</ele>
      </trkpt>
      <trkpt lat="45.47591" lon="-75.80009">
        <ele>176.9</ele>
      </trkpt>
      <trkpt lat="45.4759" lon="-75.80019">
        <ele>177.5</ele>
      </trkpt>
      <trkpt lat="45.47576" lon="-75.80055">
        <ele>179.8</ele>
      </trkpt>
      <trkpt lat="45.47568" lon="-75.80094">
        <ele>182.4</ele>
      </trkpt>
      <trkpt lat="45.47569" lon="-75.80145">
        <ele>183</ele>
      </trkpt>
      <trkpt lat="45.47557" lon="-75.80226">
        <ele>176.1</ele>
      </trkpt>
      <trkpt lat="45.47557" lon="-75.80246">
        <ele>173.9</ele>
      </trkpt>
      <trkpt lat="45.47558" lon="-75.80267">
        <ele>171.7</ele>
      </trkpt>
      <trkpt lat="45.4756" lon="-75.80271">
        <ele>171.2</ele>
      </trkpt>
      <trkpt lat="45.47568" lon="-75.80282">
        <ele>169.7</ele>
      </trkpt>
      <trkpt lat="45.47585" lon="-75.80301">
        <ele>168.3</ele>
      </trkpt>
      <trkpt lat="45.47611" lon="-75.80318">
        <ele>167.7</ele>
      </trkpt>
      <trkpt lat="45.47634" lon="-75.80329">
        <ele>167.2</ele>
      </trkpt>
      <trkpt lat="45.47647" lon="-75.8034">
        <ele>166.6</ele>
      </trkpt>
      <trkpt lat="45.47674" lon="-75.80351">
        <ele>166.4</ele>
      </trkpt>
      <trkpt lat="45.47686" lon="-75.80363">
        <ele>166.6</ele>
      </trkpt>
      <trkpt lat="45.47693" lon="-75.80374">
        <ele>166.7</ele>
      </trkpt>
      <trkpt lat="45.47695" lon="-75.80389">
        <ele>167</ele>
      </trkpt>
      <trkpt lat="45.47689" lon="-75.8044">
        <ele>169.6</ele>
      </trkpt>
      <trkpt lat="45.47687" lon="-75.80471">
        <ele>172.2</ele>
      </trkpt>
      <trkpt lat="45.47679" lon="-75.80505">
        <ele>175.4</ele>
      </trkpt>
      <trkpt lat="45.47677" lon="-75.80525">
        <ele>177.1</ele>
      </trkpt>
      <trkpt lat="45.47677" lon="-75.80587">
        <ele>181.6</ele>
      </trkpt>
      <trkpt lat="45.47679" lon="-75.80612">
        <ele>182.9</ele>
      </trkpt>
      <trkpt lat="45.47684" lon="-75.80632">
        <ele>183.9</ele>
      </trkpt>
      <trkpt lat="45.47731" lon="-75.80714">
        <ele>181.9</ele>
      </trkpt>
      <trkpt lat="45.47738" lon="-75.80732">
        <ele>180.2</ele>
      </trkpt>
      <trkpt lat="45.47737" lon="-75.80753">
        <ele>179.1</ele>
      </trkpt>
      <trkpt lat="45.47722" lon="-75.80778">
        <ele>177.7</ele>
      </trkpt>
      <trkpt lat="45.47704" lon="-75.80802">
        <ele>175.8</ele>
      </trkpt>
      <trkpt lat="45.47691" lon="-75.80826">
        <ele>173.8</ele>
      </trkpt>
      <trkpt lat="45.47652" lon="-75.80873">
        <ele>171.5</ele>
      </trkpt>
      <trkpt lat="45.47644" lon="-75.80886">
        <ele>171.2</ele>
      </trkpt>
      <trkpt lat="45.47642" lon="-75.8093">
        <ele>171</ele>
      </trkpt>
      <trkpt lat="45.47637" lon="-75.80936">
        <ele>171.2</ele>
      </trkpt>
      <trkpt lat="45.47599" lon="-75.80946">
        <ele>172.9</ele>
      </trkpt>
      <trkpt lat="45.47592" lon="-75.80943">
        <ele>173.4</ele>
      </trkpt>
      <trkpt lat="45.47575" lon="-75.80946">
        <ele>174.1</ele>
      </trkpt>
      <trkpt lat="45.47564" lon="-75.80943">
        <ele>174.5</ele>
      </trkpt>
      <trkpt lat="45.47521" lon="-75.80942">
        <ele>175.3</ele>
      </trkpt>
      <trkpt lat="45.4751" lon="-75.80943">
        <ele>175.6</ele>
      </trkpt>
      <trkpt lat="45.47475" lon="-75.80955">
        <ele>176.8</ele>
      </trkpt>
      <trkpt lat="45.47462" lon="-75.80964">
        <ele>177</ele>
      </trkpt>
      <trkpt lat="45.47446" lon="-75.80984">
        <ele>177.1</ele>
      </trkpt>
      <trkpt lat="45.47403" lon="-75.8101">
        <ele>180.6</ele>
      </trkpt>
      <trkpt lat="45.47395" lon="-75.81022">
        <ele>181.4</ele>
      </trkpt>
      <trkpt lat="45.47372" lon="-75.81059">
        <ele>185.8</ele>
      </trkpt>
      <trkpt lat="45.47368" lon="-75.81068">
        <ele>186.7</ele>
      </trkpt>
      <trkpt lat="45.47363" lon="-75.81087">
        <ele>188.8</ele>
      </trkpt>
      <trkpt lat="45.4736" lon="-75.81112">
        <ele>191</ele>
      </trkpt>
      <trkpt lat="45.47354" lon="-75.81142">
        <ele>193.3</ele>
      </trkpt>
      <trkpt lat="45.47349" lon="-75.81183">
        <ele>196</ele>
      </trkpt>
      <trkpt lat="45.47333" lon="-75.81239">
        <ele>198.3</ele>
      </trkpt>
      <trkpt lat="45.47322" lon="-75.81288">
        <ele>198.8</ele>
      </trkpt>
      <trkpt lat="45.47315" lon="-75.8136">
        <ele>206.3</ele>
      </trkpt>
      <trkpt lat="45.47314" lon="-75.81401">
        <ele>209.2</ele>
      </trkpt>
      <trkpt lat="45.47308" lon="-75.8143">
        <ele>209.2</ele>
      </trkpt>
      <trkpt lat="45.47301" lon="-75.81448">
        <ele>209.2</ele>
      </trkpt>
      <trkpt lat="45.47293" lon="-75.81458">
        <ele>209.3</ele>
      </trkpt>
      <trkpt lat="45.47284" lon="-75.81475">
        <ele>209.5</ele>
      </trkpt>
      <trkpt lat="45.47274" lon="-75.81513">
        <ele>208.5</ele>
      </trkpt>
      <trkpt lat="45.47266" lon="-75.8153">
        <ele>208.9</ele>
      </trkpt>
      <trkpt lat="45.47241" lon="-75.81574">
        <ele>210.8</ele>
      </trkpt>
      <trkpt lat="45.47217" lon="-75.81605">
        <ele>210.9</ele>
      </trkpt>
      <trkpt lat="45.47213" lon="-75.81619">
        <ele>210.3</ele>
      </trkpt>
      <trkpt lat="45.47213" lon="-75.81629">
        <ele>209.9</ele>
      </trkpt>
      <trkpt lat="45.47215" lon="-75.81639">
        <ele>209.5</ele>
      </trkpt>
      <trkpt lat="45.47239" lon="-75.81677">
        <ele>208.5</ele>
      </trkpt>
      <trkpt lat="45.47248" lon="-75.81699">
        <ele>208.8</ele>
      </trkpt>
      <trkpt lat="45.47224" lon="-75.81694">
        <ele>208.3</ele>
      </trkpt>
      <trkpt lat="45.47215" lon="-75.81685">
        <ele>208.1</ele>
      </trkpt>
      <trkpt lat="45.472" lon="-75.81663">
        <ele>208.6</ele>
      </trkpt>
      <trkpt lat="45.47149" lon="-75.81624">
        <ele>207.1</ele>
      </trkpt>
      <trkpt lat="45.47132" lon="-75.81604">
        <ele>205.5</ele>
      </trkpt>
      <trkpt lat="45.47121" lon="-75.81583">
        <ele>204.2</ele>
      </trkpt>
      <trkpt lat="45.47112" lon="-75.81576">
        <ele>202.6</ele>
      </trkpt>
      <trkpt lat="45.47104" lon="-75.81574">
        <ele>201.2</ele>
      </trkpt>
      <trkpt lat="45.47083" lon="-75.81575">
        <ele>197.6</ele>
      </trkpt>
      <trkpt lat="45.4707" lon="-75.81579">
        <ele>195.5</ele>
      </trkpt>
      <trkpt lat="45.47051" lon="-75.81585">
        <ele>193.3</ele>
      </trkpt>
      <trkpt lat="45.47049" lon="-75.81601">
        <ele>192.5</ele>
      </trkpt>
      <trkpt lat="45.47037" lon="-75.81617">
        <ele>191</ele>
      </trkpt>
      <trkpt lat="45.47028" lon="-75.8162">
        <ele>190.5</ele>
      </trkpt>
      <trkpt lat="45.47023" lon="-75.81625">
        <ele>189.9</ele>
      </trkpt>
      <trkpt lat="45.47013" lon="-75.81634">
        <ele>188.8</ele>
      </trkpt>
      <trkpt lat="45.47008" lon="-75.81646">
        <ele>187.8</ele>
      </trkpt>
      <trkpt lat="45.47005" lon="-75.81659">
        <ele>187.3</ele>
      </trkpt>
      <trkpt lat="45.46999" lon="-75.81702">
        <ele>186.4</ele>
      </trkpt>
      <trkpt lat="45.46995" lon="-75.81705">
        <ele>186.3</ele>
      </trkpt>
      <trkpt lat="45.46991" lon="-75.81721">
        <ele>186.2</ele>
      </trkpt>
      <trkpt lat="45.4699" lon="-75.81733">
        <ele>186.4</ele>
      </trkpt>
      <trkpt lat="45.46993" lon="-75.81744">
        <ele>186.5</ele>
      </trkpt>
      <trkpt lat="45.46992" lon="-75.81752">
        <ele>185.9</ele>
      </trkpt>
      <trkpt lat="45.46982" lon="-75.81771">
        <ele>183.9</ele>
      </trkpt>
      <trkpt lat="45.46967" lon="-75.81784">
        <ele>181.4</ele>
      </trkpt>
      <trkpt lat="45.46946" lon="-75.81781">
        <ele>178.8</ele>
      </trkpt>
      <trkpt lat="45.46931" lon="-75.8179">
        <ele>177.1</ele>
      </trkpt>
      <trkpt lat="45.46913" lon="-75.81794">
        <ele>175.8</ele>
      </trkpt>
      <trkpt lat="45.46891" lon="-75.81722">
        <ele>175.7</ele>
      </trkpt>
      <trkpt lat="45.46873" lon="-75.81676">
        <ele>176.8</ele>
      </trkpt>
      <trkpt lat="45.46869" lon="-75.81665">
        <ele>177.6</ele>
      </trkpt>
      <trkpt lat="45.46839" lon="-75.81607">
        <ele>180.2</ele>
      </trkpt>
      <trkpt lat="45.46814" lon="-75.8157">
        <ele>180.3</ele>
      </trkpt>
      <trkpt lat="45.46757" lon="-75.81495">
        <ele>181.1</ele>
      </trkpt>
      <trkpt lat="45.46736" lon="-75.81468">
        <ele>181.7</ele>
      </trkpt>
      <trkpt lat="45.46651" lon="-75.81352">
        <ele>185.6</ele>
      </trkpt>
      <trkpt lat="45.46627" lon="-75.81305">
        <ele>192.8</ele>
      </trkpt>
      <trkpt lat="45.46606" lon="-75.81251">
        <ele>194.6</ele>
      </trkpt>
      <trkpt lat="45.46594" lon="-75.81199">
        <ele>195.6</ele>
      </trkpt>
      <trkpt lat="45.46583" lon="-75.81121">
        <ele>197.9</ele>
      </trkpt>
      <trkpt lat="45.46583" lon="-75.81044">
        <ele>199</ele>
      </trkpt>
      <trkpt lat="45.46587" lon="-75.80996">
        <ele>197.2</ele>
      </trkpt>
      <trkpt lat="45.46604" lon="-75.80927">
        <ele>191</ele>
      </trkpt>
      <trkpt lat="45.46616" lon="-75.80887">
        <ele>188.6</ele>
      </trkpt>
      <trkpt lat="45.46638" lon="-75.80836">
        <ele>191.2</ele>
      </trkpt>
      <trkpt lat="45.46646" lon="-75.80811">
        <ele>192.2</ele>
      </trkpt>
      <trkpt lat="45.46672" lon="-75.80737">
        <ele>191.1</ele>
      </trkpt>
      <trkpt lat="45.4668" lon="-75.80673">
        <ele>185.3</ele>
      </trkpt>
      <trkpt lat="45.46682" lon="-75.80637">
        <ele>182.7</ele>
      </trkpt>
      <trkpt lat="45.46681" lon="-75.80596">
        <ele>180.5</ele>
      </trkpt>
      <trkpt lat="45.46676" lon="-75.80557">
        <ele>178.5</ele>
      </trkpt>
      <trkpt lat="45.46667" lon="-75.80518">
        <ele>178.1</ele>
      </trkpt>
      <trkpt lat="45.46653" lon="-75.80478">
        <ele>179.4</ele>
      </trkpt>
      <trkpt lat="45.46629" lon="-75.80424">
        <ele>178.6</ele>
      </trkpt>
      <trkpt lat="45.46586" lon="-75.80345">
        <ele>176.5</ele>
      </trkpt>
      <trkpt lat="45.46569" lon="-75.80295">
        <ele>177.4</ele>
      </trkpt>
      <trkpt lat="45.46565" lon="-75.80278">
        <ele>177.1</ele>
      </trkpt>
      <trkpt lat="45.46578" lon="-75.80275">
        <ele>176</ele>
      </trkpt>
      <trkpt lat="45.46584" lon="-75.80267">
        <ele>175.2</ele>
      </trkpt>
      <trkpt lat="45.4663" lon="-75.8026">
        <ele>170.2</ele>
      </trkpt>
      <trkpt lat="45.46636" lon="-75.8026">
        <ele>169.3</ele>
      </trkpt>
      <trkpt lat="45.46642" lon="-75.8026">
        <ele>168.3</ele>
      </trkpt>
      <trkpt lat="45.46668" lon="-75.80274">
        <ele>164</ele>
      </trkpt>
      <trkpt lat="45.46674" lon="-75.80275">
        <ele>163.3</ele>
      </trkpt>
      <trkpt lat="45.46681" lon="-75.80272">
        <ele>163.1</ele>
      </trkpt>
      <trkpt lat="45.46679" lon="-75.80248">
        <ele>163.1</ele>
      </trkpt>
      <trkpt lat="45.46679" lon="-75.80237">
        <ele>163.3</ele>
      </trkpt>
      <trkpt lat="45.46675" lon="-75.8022">
        <ele>163.8</ele>
      </trkpt>
      <trkpt lat="45.46676" lon="-75.80212">
        <ele>164.3</ele>
      </trkpt>
      <trkpt lat="45.46683" lon="-75.8021">
        <ele>164.7</ele>
      </trkpt>
      <trkpt lat="45.46687" lon="-75.80216">
        <ele>164.9</ele>
      </trkpt>
      <trkpt lat="45.46705" lon="-75.80232">
        <ele>166</ele>
      </trkpt>
      <trkpt lat="45.46718" lon="-75.80247">
        <ele>167</ele>
      </trkpt>
      <trkpt lat="45.46729" lon="-75.80267">
        <ele>167.3</ele>
      </trkpt>
      <trkpt lat="45.46736" lon="-75.80275">
        <ele>167.4</ele>
      </trkpt>
      <trkpt lat="45.46748" lon="-75.80307">
        <ele>165.5</ele>
      </trkpt>
      <trkpt lat="45.46764" lon="-75.80336">
        <ele>168.6</ele>
      </trkpt>
      <trkpt lat="45.4679" lon="-75.80393">
        <ele>166.2</ele>
      </trkpt>
      <trkpt lat="45.46802" lon="-75.80407">
        <ele>165.8</ele>
      </trkpt>
      <trkpt lat="45.46802" lon="-75.80418">
        <ele>165.3</ele>
      </trkpt>
      <trkpt lat="45.46799" lon="-75.8043">
        <ele>164.9</ele>
      </trkpt>
      <trkpt lat="45.46804" lon="-75.80445">
        <ele>164.8</ele>
      </trkpt>
      <trkpt lat="45.46814" lon="-75.80461">
        <ele>165.2</ele>
      </trkpt>
      <trkpt lat="45.46852" lon="-75.80503">
        <ele>165.7</ele>
      </trkpt>
      <trkpt lat="45.46868" lon="-75.80516">
        <ele>167.1</ele>
      </trkpt>
      <trkpt lat="45.46887" lon="-75.80529">
        <ele>169.6</ele>
      </trkpt>
      <trkpt lat="45.46899" lon="-75.8055">
        <ele>172.2</ele>
      </trkpt>
      <trkpt lat="45.46924" lon="-75.80568">
        <ele>177.4</ele>
      </trkpt>
      <trkpt lat="45.46953" lon="-75.80584">
        <ele>181.6</ele>
      </trkpt>
      <trkpt lat="45.46974" lon="-75.80573">
        <ele>183.1</ele>
      </trkpt>
      <trkpt lat="45.46993" lon="-75.80558">
        <ele>183.5</ele>
      </trkpt>
      <trkpt lat="45.47001" lon="-75.80548">
        <ele>183.4</ele>
      </trkpt>
      <trkpt lat="45.47016" lon="-75.80525">
        <ele>181.7</ele>
      </trkpt>
      <trkpt lat="45.47022" lon="-75.80507">
        <ele>179.7</ele>
      </trkpt>
      <trkpt lat="45.47031" lon="-75.80491">
        <ele>177.3</ele>
      </trkpt>
      <trkpt lat="45.47053" lon="-75.80473">
        <ele>175.9</ele>
      </trkpt>
      <trkpt lat="45.47072" lon="-75.80449">
        <ele>175.2</ele>
      </trkpt>
      <trkpt lat="45.47075" lon="-75.80434">
        <ele>174.9</ele>
      </trkpt>
      <trkpt lat="45.47074" lon="-75.80424">
        <ele>174.5</ele>
      </trkpt>
      <trkpt lat="45.47066" lon="-75.80401">
        <ele>173.4</ele>
      </trkpt>
      <trkpt lat="45.47057" lon="-75.80385">
        <ele>172.7</ele>
      </trkpt>
      <trkpt lat="45.47055" lon="-75.80376">
        <ele>172.3</ele>
      </trkpt>
      <trkpt lat="45.4706" lon="-75.80356">
        <ele>171.8</ele>
      </trkpt>
      <trkpt lat="45.47066" lon="-75.80343">
        <ele>171.9</ele>
      </trkpt>
      <trkpt lat="45.47084" lon="-75.80312">
        <ele>172.2</ele>
      </trkpt>
      <trkpt lat="45.471" lon="-75.80292">
        <ele>172.6</ele>
      </trkpt>
      <trkpt lat="45.47105" lon="-75.80284">
        <ele>172.6</ele>
      </trkpt>
      <trkpt lat="45.47126" lon="-75.8025">
        <ele>170.3</ele>
      </trkpt>
      <trkpt lat="45.47152" lon="-75.80235">
        <ele>170.2</ele>
      </trkpt>
      <trkpt lat="45.47162" lon="-75.80223">
        <ele>170.2</ele>
      </trkpt>
      <trkpt lat="45.47168" lon="-75.80206">
        <ele>169.6</ele>
      </trkpt>
      <trkpt lat="45.47174" lon="-75.80172">
        <ele>172.1</ele>
      </trkpt>
      <trkpt lat="45.47182" lon="-75.80152">
        <ele>174.1</ele>
      </trkpt>
      <trkpt lat="45.47202" lon="-75.80138">
        <ele>173.6</ele>
      </trkpt>
      <trkpt lat="45.4728" lon="-75.8004">
        <ele>170.2</ele>
      </trkpt>
      <trkpt lat="45.47295" lon="-75.80012">
        <ele>169.6</ele>
      </trkpt>
      <trkpt lat="45.47318" lon="-75.79948">
        <ele>169.5</ele>
      </trkpt>
      <trkpt lat="45.4733" lon="-75.79924">
        <ele>169.1</ele>
      </trkpt>
      <trkpt lat="45.4736" lon="-75.79893">
        <ele>168.7</ele>
      </trkpt>
      <trkpt lat="45.47368" lon="-75.79889">
        <ele>168.7</ele>
      </trkpt>
      <trkpt lat="45.47389" lon="-75.79879">
        <ele>169.1</ele>
      </trkpt>
      <trkpt lat="45.47397" lon="-75.79872">
        <ele>169.4</ele>
      </trkpt>
      <trkpt lat="45.47405" lon="-75.79862">
        <ele>169.5</ele>
      </trkpt>
      <trkpt lat="45.47429" lon="-75.79809">
        <ele>165.7</ele>
      </trkpt>
      <trkpt lat="45.47443" lon="-75.79788">
        <ele>165.5</ele>
      </trkpt>
      <trkpt lat="45.47454" lon="-75.79776">
        <ele>165.9</ele>
      </trkpt>
      <trkpt lat="45.47456" lon="-75.7976">
        <ele>166</ele>
      </trkpt>
      <trkpt lat="45.47468" lon="-75.79735">
        <ele>166.9</ele>
      </trkpt>
      <trkpt lat="45.47481" lon="-75.79687">
        <ele>164</ele>
      </trkpt>
      <trkpt lat="45.47486" lon="-75.79652">
        <ele>160.5</ele>
      </trkpt>
      <trkpt lat="45.47492" lon="-75.79596">
        <ele>154.7</ele>
      </trkpt>
      <trkpt lat="45.47508" lon="-75.79528">
        <ele>149.9</ele>
      </trkpt>
      <trkpt lat="45.47511" lon="-75.79508">
        <ele>149.7</ele>
      </trkpt>
      <trkpt lat="45.4751" lon="-75.79498">
        <ele>150</ele>
      </trkpt>
      <trkpt lat="45.47506" lon="-75.7949">
        <ele>150.1</ele>
      </trkpt>
      <trkpt lat="45.47511" lon="-75.79489">
        <ele>150.1</ele>
      </trkpt>
      <trkpt lat="45.47532" lon="-75.79464">
        <ele>148.4</ele>
      </trkpt>
      <trkpt lat="45.47565" lon="-75.79437">
        <ele>144.1</ele>
      </trkpt>
      <trkpt lat="45.47572" lon="-75.79434">
        <ele>143.3</ele>
      </trkpt>
      <trkpt lat="45.47604" lon="-75.7943">
        <ele>142.1</ele>
      </trkpt>
      <trkpt lat="45.47636" lon="-75.79432">
        <ele>141.8</ele>
      </trkpt>
      <trkpt lat="45.47644" lon="-75.79428">
        <ele>141.5</ele>
      </trkpt>
      <trkpt lat="45.47651" lon="-75.79422">
        <ele>140.9</ele>
      </trkpt>
      <trkpt lat="45.47689" lon="-75.79406">
        <ele>138.1</ele>
      </trkpt>
      <trkpt lat="45.47715" lon="-75.79382">
        <ele>132.7</ele>
      </trkpt>
      <trkpt lat="45.47734" lon="-75.79371">
        <ele>129</ele>
      </trkpt>
      <trkpt lat="45.47759" lon="-75.79376">
        <ele>126.7</ele>
      </trkpt>
      <trkpt lat="45.47804" lon="-75.79392">
        <ele>121</ele>
      </trkpt>
      <trkpt lat="45.47833" lon="-75.79394">
        <ele>117.2</ele>
      </trkpt>
      <trkpt lat="45.47865" lon="-75.79358">
        <ele>113.6</ele>
      </trkpt>
      <trkpt lat="45.47899" lon="-75.79338">
        <ele>112.7</ele>
      </trkpt>
      <trkpt lat="45.47905" lon="-75.79335">
        <ele>112.6</ele>
      </trkpt>
      <trkpt lat="45.47874" lon="-75.7922">
        <ele>108.6</ele>
      </trkpt>
      <trkpt lat="45.47849" lon="-75.79123">
        <ele>105.6</ele>
      </trkpt>
      <trkpt lat="45.47847" lon="-75.79111">
        <ele>105.4</ele>
      </trkpt>
      <trkpt lat="45.47848" lon="-75.79105">
        <ele>105.3</ele>
      </trkpt>
      <trkpt lat="45.47854" lon="-75.79099">
        <ele>105.1</ele>
      </trkpt>
      <trkpt lat="45.47908" lon="-75.79078">
        <ele>105</ele>
      </trkpt>
      <trkpt lat="45.47904" lon="-75.79059">
        <ele>104.6</ele>
      </trkpt>
      <trkpt lat="45.47903" lon="-75.79021">
        <ele>103.6</ele>
      </trkpt>
      <trkpt lat="45.47945" lon="-75.79014">
        <ele>103.2</ele>
      </trkpt>
      <trkpt lat="45.47964" lon="-75.78996">
        <ele>103</ele>
      </trkpt>
      <trkpt lat="45.47967" lon="-75.78992">
        <ele>103</ele>
      </trkpt>
      <trkpt lat="45.47969" lon="-75.78981">
        <ele>103</ele>
      </trkpt>
      <trkpt lat="45.47966" lon="-75.78969">
        <ele>102.9</ele>
      </trkpt>
      <trkpt lat="45.47928" lon="-75.78899">
        <ele>101.9</ele>
      </trkpt>
      <trkpt lat="45.47887" lon="-75.78822">
        <ele>100.7</ele>
      </trkpt>
    </trkseg>
  </trk>
</gpx>