<?xml version="1.0" encoding="UTF-8" standalone="yes"?>
<gpx version="1.1" creator="https://onthegomap.com" xmlns="http://www.topografix.com/GPX/1/1">
  <metadata>
    <name>7.7km route</name>
    <link href="https://onthegomap.com">
      <text>On The Go Map</text>
    </link>
    <time>2026-03-18T02:17:44.713Z</time>
    <copyright author="On The Go Map, OpenStreetMap Contributors">
      <year>2026</year>
    </copyright>
  </metadata>
  <trk>
    <name>7.7km route</name>
    <trkseg>
      <trkpt lat="45.47884" lon="-75.78816">
        <ele>100.5</ele>
      </trkpt>
      <trkpt lat="45.47928" lon="-75.78899">
        <ele>101.9</ele>
      </trkpt>
      <trkpt lat="45.47966" lon="-75.78969">
        <ele>103</ele>
      </trkpt>
      <trkpt lat="45.47969" lon="-75.78981">
        <ele>103</ele>
      </trkpt>
      <trkpt lat="45.47967" lon="-75.78992">
        <ele>103</ele>
      </trkpt>
      <trkpt lat="45.47964" lon="-75.78996">
        <ele>103</ele>
      </trkpt>
      <trkpt lat="45.47945" lon="-75.79014">
        <ele>103.2</ele>
      </trkpt>
      <trkpt lat="45.47903" lon="-75.79021">
        <ele>103.6</ele>
      </trkpt>
      <trkpt lat="45.47904" lon="-75.79059">
        <ele>104.6</ele>
      </trkpt>
      <trkpt lat="45.47908" lon="-75.79078">
        <ele>105</ele>
      </trkpt>
      <trkpt lat="45.47854" lon="-75.79099">
        <ele>105.1</ele>
      </trkpt>
      <trkpt lat="45.47848" lon="-75.79105">
        <ele>105.3</ele>
      </trkpt>
      <trkpt lat="45.47847" lon="-75.79111">
        <ele>105.4</ele>
      </trkpt>
      <trkpt lat="45.47849" lon="-75.79123">
        <ele>105.6</ele>
      </trkpt>
      <trkpt lat="45.47905" lon="-75.79335">
        <ele>112.6</ele>
      </trkpt>
      <trkpt lat="45.47899" lon="-75.79338">
        <ele>112.7</ele>
      </trkpt>
      <trkpt lat="45.47865" lon="-75.79358">
        <ele>113.7</ele>
      </trkpt>
      <trkpt lat="45.47851" lon="-75.79374">
        <ele>114.8</ele>
      </trkpt>
      <trkpt lat="45.47833" lon="-75.79394">
        <ele>117.3</ele>
      </trkpt>
      <trkpt lat="45.47804" lon="-75.79392">
        <ele>121</ele>
      </trkpt>
      <trkpt lat="45.47759" lon="-75.79376">
        <ele>126.7</ele>
      </trkpt>
      <trkpt lat="45.47734" lon="-75.79371">
        <ele>129.3</ele>
      </trkpt>
      <trkpt lat="45.47715" lon="-75.79382">
        <ele>132.8</ele>
      </trkpt>
      <trkpt lat="45.47689" lon="-75.79406">
        <ele>138.2</ele>
      </trkpt>
      <trkpt lat="45.47651" lon="-75.79422">
        <ele>141</ele>
      </trkpt>
      <trkpt lat="45.47644" lon="-75.79428">
        <ele>141.6</ele>
      </trkpt>
      <trkpt lat="45.47636" lon="-75.79432">
        <ele>141.8</ele>
      </trkpt>
      <trkpt lat="45.47604" lon="-75.7943">
        <ele>142.1</ele>
      </trkpt>
      <trkpt lat="45.47572" lon="-75.79434">
        <ele>143.5</ele>
      </trkpt>
      <trkpt lat="45.47565" lon="-75.79437">
        <ele>144</ele>
      </trkpt>
      <trkpt lat="45.47532" lon="-75.79464">
        <ele>148.5</ele>
      </trkpt>
      <trkpt lat="45.47511" lon="-75.79489">
        <ele>150.2</ele>
      </trkpt>
      <trkpt lat="45.47506" lon="-75.7949">
        <ele>150.2</ele>
      </trkpt>
      <trkpt lat="45.4751" lon="-75.79498">
        <ele>149.9</ele>
      </trkpt>
      <trkpt lat="45.47511" lon="-75.79508">
        <ele>149.7</ele>
      </trkpt>
      <trkpt lat="45.47508" lon="-75.79528">
        <ele>149.9</ele>
      </trkpt>
      <trkpt lat="45.47492" lon="-75.79596">
        <ele>154.8</ele>
      </trkpt>
      <trkpt lat="45.47486" lon="-75.79652">
        <ele>160.6</ele>
      </trkpt>
      <trkpt lat="45.47481" lon="-75.79687">
        <ele>164.2</ele>
      </trkpt>
      <trkpt lat="45.47468" lon="-75.79735">
        <ele>166.9</ele>
      </trkpt>
      <trkpt lat="45.47456" lon="-75.7976">
        <ele>165.8</ele>
      </trkpt>
      <trkpt lat="45.47454" lon="-75.79776">
        <ele>166.1</ele>
      </trkpt>
      <trkpt lat="45.47443" lon="-75.79788">
        <ele>165.3</ele>
      </trkpt>
      <trkpt lat="45.47429" lon="-75.79809">
        <ele>166</ele>
      </trkpt>
      <trkpt lat="45.47405" lon="-75.79862">
        <ele>169.5</ele>
      </trkpt>
      <trkpt lat="45.47397" lon="-75.79872">
        <ele>169.4</ele>
      </trkpt>
      <trkpt lat="45.47389" lon="-75.79879">
        <ele>169</ele>
      </trkpt>
      <trkpt lat="45.4736" lon="-75.79893">
        <ele>168.7</ele>
      </trkpt>
      <trkpt lat="45.4733" lon="-75.79924">
        <ele>169.2</ele>
      </trkpt>
      <trkpt lat="45.47318" lon="-75.79948">
        <ele>169.5</ele>
      </trkpt>
      <trkpt lat="45.47295" lon="-75.80012">
        <ele>169.7</ele>
      </trkpt>
      <trkpt lat="45.4728" lon="-75.8004">
        <ele>170.3</ele>
      </trkpt>
      <trkpt lat="45.47202" lon="-75.80138">
        <ele>173.3</ele>
      </trkpt>
      <trkpt lat="45.47182" lon="-75.80152">
        <ele>173.7</ele>
      </trkpt>
      <trkpt lat="45.47174" lon="-75.80172">
        <ele>172</ele>
      </trkpt>
      <trkpt lat="45.47168" lon="-75.80206">
        <ele>170</ele>
      </trkpt>
      <trkpt lat="45.47162" lon="-75.80223">
        <ele>170.1</ele>
      </trkpt>
      <trkpt lat="45.47152" lon="-75.80235">
        <ele>170.2</ele>
      </trkpt>
      <trkpt lat="45.47126" lon="-75.8025">
        <ele>170.4</ele>
      </trkpt>
      <trkpt lat="45.47105" lon="-75.80284">
        <ele>172.6</ele>
      </trkpt>
      <trkpt lat="45.47084" lon="-75.80312">
        <ele>172.2</ele>
      </trkpt>
      <trkpt lat="45.47066" lon="-75.80343">
        <ele>171.9</ele>
      </trkpt>
      <trkpt lat="45.4706" lon="-75.80356">
        <ele>171.7</ele>
      </trkpt>
      <trkpt lat="45.47055" lon="-75.80376">
        <ele>172.3</ele>
      </trkpt>
      <trkpt lat="45.47057" lon="-75.80385">
        <ele>172.7</ele>
      </trkpt>
      <trkpt lat="45.47066" lon="-75.80401">
        <ele>173.5</ele>
      </trkpt>
      <trkpt lat="45.47074" lon="-75.80424">
        <ele>174.5</ele>
      </trkpt>
      <trkpt lat="45.47075" lon="-75.80434">
        <ele>174.8</ele>
      </trkpt>
      <trkpt lat="45.47072" lon="-75.80449">
        <ele>175.2</ele>
      </trkpt>
      <trkpt lat="45.47053" lon="-75.80473">
        <ele>175.9</ele>
      </trkpt>
      <trkpt lat="45.47031" lon="-75.80491">
        <ele>177.4</ele>
      </trkpt>
      <trkpt lat="45.47022" lon="-75.80507">
        <ele>179.8</ele>
      </trkpt>
      <trkpt lat="45.47016" lon="-75.80525">
        <ele>181.9</ele>
      </trkpt>
      <trkpt lat="45.47001" lon="-75.80548">
        <ele>183.4</ele>
      </trkpt>
      <trkpt lat="45.46993" lon="-75.80558">
        <ele>183.5</ele>
      </trkpt>
      <trkpt lat="45.46974" lon="-75.80573">
        <ele>183</ele>
      </trkpt>
      <trkpt lat="45.46953" lon="-75.80584">
        <ele>181.5</ele>
      </trkpt>
      <trkpt lat="45.46924" lon="-75.80568">
        <ele>177.2</ele>
      </trkpt>
      <trkpt lat="45.46899" lon="-75.8055">
        <ele>172</ele>
      </trkpt>
      <trkpt lat="45.46887" lon="-75.80529">
        <ele>169.5</ele>
      </trkpt>
      <trkpt lat="45.46868" lon="-75.80516">
        <ele>167</ele>
      </trkpt>
      <trkpt lat="45.46852" lon="-75.80503">
        <ele>165.6</ele>
      </trkpt>
      <trkpt lat="45.46814" lon="-75.80461">
        <ele>165.2</ele>
      </trkpt>
      <trkpt lat="45.46804" lon="-75.80445">
        <ele>164.8</ele>
      </trkpt>
      <trkpt lat="45.46799" lon="-75.8043">
        <ele>164.9</ele>
      </trkpt>
      <trkpt lat="45.46802" lon="-75.80418">
        <ele>165.4</ele>
      </trkpt>
      <trkpt lat="45.46802" lon="-75.80407">
        <ele>165.8</ele>
      </trkpt>
      <trkpt lat="45.4679" lon="-75.80393">
        <ele>166.2</ele>
      </trkpt>
      <trkpt lat="45.46774" lon="-75.80359">
        <ele>168.2</ele>
      </trkpt>
      <trkpt lat="45.46764" lon="-75.80336">
        <ele>168.4</ele>
      </trkpt>
      <trkpt lat="45.46748" lon="-75.80307">
        <ele>165.6</ele>
      </trkpt>
      <trkpt lat="45.46736" lon="-75.80275">
        <ele>167.5</ele>
      </trkpt>
      <trkpt lat="45.46729" lon="-75.80267">
        <ele>167.3</ele>
      </trkpt>
      <trkpt lat="45.46718" lon="-75.80247">
        <ele>167.1</ele>
      </trkpt>
      <trkpt lat="45.46705" lon="-75.80232">
        <ele>165.9</ele>
      </trkpt>
      <trkpt lat="45.46687" lon="-75.80216">
        <ele>164.9</ele>
      </trkpt>
      <trkpt lat="45.46683" lon="-75.8021">
        <ele>164.6</ele>
      </trkpt>
      <trkpt lat="45.46676" lon="-75.80212">
        <ele>164</ele>
      </trkpt>
      <trkpt lat="45.46675" lon="-75.8022">
        <ele>163.6</ele>
      </trkpt>
      <trkpt lat="45.46679" lon="-75.80237">
        <ele>163.3</ele>
      </trkpt>
      <trkpt lat="45.46679" lon="-75.80248">
        <ele>163.1</ele>
      </trkpt>
      <trkpt lat="45.46681" lon="-75.80272">
        <ele>162.9</ele>
      </trkpt>
      <trkpt lat="45.46674" lon="-75.80275">
        <ele>163.6</ele>
      </trkpt>
      <trkpt lat="45.46668" lon="-75.80274">
        <ele>164.3</ele>
      </trkpt>
      <trkpt lat="45.46642" lon="-75.8026">
        <ele>168.6</ele>
      </trkpt>
      <trkpt lat="45.4663" lon="-75.8026">
        <ele>170.6</ele>
      </trkpt>
      <trkpt lat="45.46584" lon="-75.80267">
        <ele>175.3</ele>
      </trkpt>
      <trkpt lat="45.46578" lon="-75.80275">
        <ele>176.1</ele>
      </trkpt>
      <trkpt lat="45.46565" lon="-75.80278">
        <ele>177.1</ele>
      </trkpt>
      <trkpt lat="45.46558" lon="-75.80246">
        <ele>175.9</ele>
      </trkpt>
      <trkpt lat="45.46554" lon="-75.80206">
        <ele>171.3</ele>
      </trkpt>
      <trkpt lat="45.46555" lon="-75.80163">
        <ele>167.5</ele>
      </trkpt>
      <trkpt lat="45.4656" lon="-75.80123">
        <ele>164.6</ele>
      </trkpt>
      <trkpt lat="45.46565" lon="-75.80105">
        <ele>162.4</ele>
      </trkpt>
      <trkpt lat="45.46571" lon="-75.80083">
        <ele>159.5</ele>
      </trkpt>
      <trkpt lat="45.46589" lon="-75.80044">
        <ele>152.5</ele>
      </trkpt>
      <trkpt lat="45.46683" lon="-75.7992">
        <ele>138.2</ele>
      </trkpt>
      <trkpt lat="45.46698" lon="-75.79897">
        <ele>140.5</ele>
      </trkpt>
      <trkpt lat="45.46712" lon="-75.79864">
        <ele>141.7</ele>
      </trkpt>
      <trkpt lat="45.4672" lon="-75.79835">
        <ele>140.8</ele>
      </trkpt>
      <trkpt lat="45.46726" lon="-75.79799">
        <ele>140.1</ele>
      </trkpt>
      <trkpt lat="45.4673" lon="-75.79756">
        <ele>139</ele>
      </trkpt>
      <trkpt lat="45.46722" lon="-75.79595">
        <ele>130.8</ele>
      </trkpt>
      <trkpt lat="45.46726" lon="-75.79526">
        <ele>130</ele>
      </trkpt>
      <trkpt lat="45.46732" lon="-75.79486">
        <ele>130.3</ele>
      </trkpt>
      <trkpt lat="45.4674" lon="-75.79448">
        <ele>132.6</ele>
      </trkpt>
      <trkpt lat="45.46754" lon="-75.79399">
        <ele>133.8</ele>
      </trkpt>
      <trkpt lat="45.46761" lon="-75.79365">
        <ele>133.9</ele>
      </trkpt>
      <trkpt lat="45.46765" lon="-75.79327">
        <ele>133.5</ele>
      </trkpt>
      <trkpt lat="45.46765" lon="-75.79285">
        <ele>129.7</ele>
      </trkpt>
      <trkpt lat="45.46759" lon="-75.7924">
        <ele>123</ele>
      </trkpt>
      <trkpt lat="45.46751" lon="-75.79203">
        <ele>119.9</ele>
      </trkpt>
      <trkpt lat="45.46738" lon="-75.79169">
        <ele>119</ele>
      </trkpt>
      <trkpt lat="45.46716" lon="-75.79132">
        <ele>119.8</ele>
      </trkpt>
      <trkpt lat="45.46697" lon="-75.79107">
        <ele>121.4</ele>
      </trkpt>
      <trkpt lat="45.46672" lon="-75.79082">
        <ele>123.6</ele>
      </trkpt>
      <trkpt lat="45.46629" lon="-75.79052">
        <ele>125.7</ele>
      </trkpt>
      <trkpt lat="45.466" lon="-75.79032">
        <ele>126.2</ele>
      </trkpt>
      <trkpt lat="45.46611" lon="-75.79017">
        <ele>124.9</ele>
      </trkpt>
      <trkpt lat="45.46616" lon="-75.79013">
        <ele>124.6</ele>
      </trkpt>
      <trkpt lat="45.46623" lon="-75.79011">
        <ele>124.3</ele>
      </trkpt>
      <trkpt lat="45.46652" lon="-75.79009">
        <ele>123.1</ele>
      </trkpt>
      <trkpt lat="45.46677" lon="-75.79003">
        <ele>122.9</ele>
      </trkpt>
      <trkpt lat="45.46735" lon="-75.78978">
        <ele>123.7</ele>
      </trkpt>
      <trkpt lat="45.46724" lon="-75.78918">
        <ele>126.5</ele>
      </trkpt>
      <trkpt lat="45.46713" lon="-75.78885">
        <ele>126.5</ele>
      </trkpt>
      <trkpt lat="45.467" lon="-75.78854">
        <ele>125.9</ele>
      </trkpt>
      <trkpt lat="45.46684" lon="-75.78825">
        <ele>124.6</ele>
      </trkpt>
      <trkpt lat="45.46672" lon="-75.78807">
        <ele>123.9</ele>
      </trkpt>
      <trkpt lat="45.46652" lon="-75.78783">
        <ele>123</ele>
      </trkpt>
      <trkpt lat="45.46634" lon="-75.78765">
        <ele>122.3</ele>
      </trkpt>
      <trkpt lat="45.46591" lon="-75.78731">
        <ele>122</ele>
      </trkpt>
      <trkpt lat="45.4658" lon="-75.78723">
        <ele>122</ele>
      </trkpt>
      <trkpt lat="45.46556" lon="-75.78712">
        <ele>121.9</ele>
      </trkpt>
      <trkpt lat="45.46549" lon="-75.78711">
        <ele>121.9</ele>
      </trkpt>
      <trkpt lat="45.46541" lon="-75.7871">
        <ele>121.7</ele>
      </trkpt>
      <trkpt lat="45.46515" lon="-75.7871">
        <ele>121.9</ele>
      </trkpt>
      <trkpt lat="45.46483" lon="-75.78719">
        <ele>122.7</ele>
      </trkpt>
      <trkpt lat="45.4647" lon="-75.78718">
        <ele>123.9</ele>
      </trkpt>
      <trkpt lat="45.46466" lon="-75.78684">
        <ele>125.8</ele>
      </trkpt>
      <trkpt lat="45.46454" lon="-75.78625">
        <ele>127.2</ele>
      </trkpt>
      <trkpt lat="45.46452" lon="-75.78597">
        <ele>127.3</ele>
      </trkpt>
      <trkpt lat="45.46456" lon="-75.78567">
        <ele>127.9</ele>
      </trkpt>
      <trkpt lat="45.46468" lon="-75.78517">
        <ele>127.4</ele>
      </trkpt>
      <trkpt lat="45.46479" lon="-75.78485">
        <ele>126.2</ele>
      </trkpt>
      <trkpt lat="45.46491" lon="-75.78459">
        <ele>125.7</ele>
      </trkpt>
      <trkpt lat="45.46503" lon="-75.7844">
        <ele>126</ele>
      </trkpt>
      <trkpt lat="45.46537" lon="-75.78395">
        <ele>127.8</ele>
      </trkpt>
      <trkpt lat="45.46541" lon="-75.78387">
        <ele>128.1</ele>
      </trkpt>
      <trkpt lat="45.46543" lon="-75.78379">
        <ele>128.3</ele>
      </trkpt>
      <trkpt lat="45.46528" lon="-75.78317">
        <ele>127.5</ele>
      </trkpt>
      <trkpt lat="45.46507" lon="-75.78263">
        <ele>121.5</ele>
      </trkpt>
      <trkpt lat="45.46491" lon="-75.78211">
        <ele>118.8</ele>
      </trkpt>
      <trkpt lat="45.46476" lon="-75.78182">
        <ele>117.3</ele>
      </trkpt>
      <trkpt lat="45.46463" lon="-75.7814">
        <ele>115.6</ele>
      </trkpt>
      <trkpt lat="45.4645" lon="-75.78122">
        <ele>115.2</ele>
      </trkpt>
      <trkpt lat="45.46445" lon="-75.78109">
        <ele>114.6</ele>
      </trkpt>
      <trkpt lat="45.46442" lon="-75.78068">
        <ele>110.8</ele>
      </trkpt>
      <trkpt lat="45.46442" lon="-75.78028">
        <ele>108.5</ele>
      </trkpt>
      <trkpt lat="45.46438" lon="-75.78013">
        <ele>108.1</ele>
      </trkpt>
      <trkpt lat="45.46426" lon="-75.77988">
        <ele>107.3</ele>
      </trkpt>
      <trkpt lat="45.46419" lon="-75.77963">
        <ele>106.7</ele>
      </trkpt>
      <trkpt lat="45.46446" lon="-75.7795">
        <ele>106.7</ele>
      </trkpt>
      <trkpt lat="45.46475" lon="-75.77927">
        <ele>107.4</ele>
      </trkpt>
      <trkpt lat="45.46484" lon="-75.77923">
        <ele>107.7</ele>
      </trkpt>
      <trkpt lat="45.46495" lon="-75.77923">
        <ele>108.1</ele>
      </trkpt>
      <trkpt lat="45.46505" lon="-75.77928">
        <ele>108.7</ele>
      </trkpt>
      <trkpt lat="45.4651" lon="-75.77935">
        <ele>108.7</ele>
      </trkpt>
      <trkpt lat="45.46519" lon="-75.77957">
        <ele>108.8</ele>
      </trkpt>
      <trkpt lat="45.46524" lon="-75.77968">
        <ele>108.9</ele>
      </trkpt>
      <trkpt lat="45.46535" lon="-75.77981">
        <ele>109.4</ele>
      </trkpt>
      <trkpt lat="45.46541" lon="-75.77985">
        <ele>109.6</ele>
      </trkpt>
      <trkpt lat="45.46563" lon="-75.77986">
        <ele>109.9</ele>
      </trkpt>
      <trkpt lat="45.46596" lon="-75.78">
        <ele>112.1</ele>
      </trkpt>
      <trkpt lat="45.46624" lon="-75.78015">
        <ele>114.4</ele>
      </trkpt>
      <trkpt lat="45.46661" lon="-75.7804">
        <ele>113.4</ele>
      </trkpt>
      <trkpt lat="45.46691" lon="-75.7804">
        <ele>109.9</ele>
      </trkpt>
      <trkpt lat="45.46738" lon="-75.78029">
        <ele>107.1</ele>
      </trkpt>
      <trkpt lat="45.46748" lon="-75.78025">
        <ele>107</ele>
      </trkpt>
      <trkpt lat="45.46757" lon="-75.78018">
        <ele>107</ele>
      </trkpt>
      <trkpt lat="45.46764" lon="-75.78007">
        <ele>107</ele>
      </trkpt>
      <trkpt lat="45.46782" lon="-75.77963">
        <ele>107</ele>
      </trkpt>
      <trkpt lat="45.4679" lon="-75.7795">
        <ele>107</ele>
      </trkpt>
      <trkpt lat="45.46806" lon="-75.77931">
        <ele>106.5</ele>
      </trkpt>
      <trkpt lat="45.46822" lon="-75.7792">
        <ele>106</ele>
      </trkpt>
      <trkpt lat="45.46836" lon="-75.77911">
        <ele>106</ele>
      </trkpt>
      <trkpt lat="45.46852" lon="-75.77907">
        <ele>106</ele>
      </trkpt>
      <trkpt lat="45.46879" lon="-75.77913">
        <ele>106</ele>
      </trkpt>
      <trkpt lat="45.46889" lon="-75.77912">
        <ele>106</ele>
      </trkpt>
      <trkpt lat="45.46905" lon="-75.77902">
        <ele>105.8</ele>
      </trkpt>
      <trkpt lat="45.46912" lon="-75.77891">
        <ele>105.5</ele>
      </trkpt>
      <trkpt lat="45.46921" lon="-75.77872">
        <ele>105.1</ele>
      </trkpt>
      <trkpt lat="45.46978" lon="-75.77918">
        <ele>105.6</ele>
      </trkpt>
      <trkpt lat="45.47076" lon="-75.77998">
        <ele>106.7</ele>
      </trkpt>
      <trkpt lat="45.47112" lon="-75.78028">
        <ele>107.4</ele>
      </trkpt>
      <trkpt lat="45.47175" lon="-75.78098">
        <ele>105.4</ele>
      </trkpt>
      <trkpt lat="45.47192" lon="-75.78114">
        <ele>105.2</ele>
      </trkpt>
      <trkpt lat="45.47198" lon="-75.7812">
        <ele>105.1</ele>
      </trkpt>
      <trkpt lat="45.472" lon="-75.78117">
        <ele>105.1</ele>
      </trkpt>
      <trkpt lat="45.47205" lon="-75.78109">
        <ele>105.1</ele>
      </trkpt>
      <trkpt lat="45.47221" lon="-75.78127">
        <ele>105.6</ele>
      </trkpt>
      <trkpt lat="45.47229" lon="-75.78136">
        <ele>105.7</ele>
      </trkpt>
      <trkpt lat="45.47259" lon="-75.78173">
        <ele>106.6</ele>
      </trkpt>
      <trkpt lat="45.47283" lon="-75.78207">
        <ele>108.1</ele>
      </trkpt>
      <trkpt lat="45.47326" lon="-75.78278">
        <ele>108.7</ele>
      </trkpt>
      <trkpt lat="45.47328" lon="-75.78282">
        <ele>108.8</ele>
      </trkpt>
      <trkpt lat="45.47339" lon="-75.783">
        <ele>108.8</ele>
      </trkpt>
      <trkpt lat="45.47344" lon="-75.78293">
        <ele>108.5</ele>
      </trkpt>
      <trkpt lat="45.47361" lon="-75.78272">
        <ele>107</ele>
      </trkpt>
      <trkpt lat="45.47363" lon="-75.78265">
        <ele>106.6</ele>
      </trkpt>
      <trkpt lat="45.47364" lon="-75.7826">
        <ele>106.4</ele>
      </trkpt>
      <trkpt lat="45.47364" lon="-75.78229">
        <ele>105.7</ele>
      </trkpt>
      <trkpt lat="45.47361" lon="-75.7822">
        <ele>105.6</ele>
      </trkpt>
      <trkpt lat="45.47352" lon="-75.78207">
        <ele>105.6</ele>
      </trkpt>
      <trkpt lat="45.47317" lon="-75.78155">
        <ele>104.3</ele>
      </trkpt>
      <trkpt lat="45.47315" lon="-75.7815">
        <ele>104.1</ele>
      </trkpt>
      <trkpt lat="45.47313" lon="-75.78138">
        <ele>103.7</ele>
      </trkpt>
      <trkpt lat="45.47314" lon="-75.78098">
        <ele>102.2</ele>
      </trkpt>
      <trkpt lat="45.47351" lon="-75.78097">
        <ele>101.5</ele>
      </trkpt>
      <trkpt lat="45.47352" lon="-75.78096">
        <ele>101.4</ele>
      </trkpt>
      <trkpt lat="45.47399" lon="-75.78075">
        <ele>99.7</ele>
      </trkpt>
      <trkpt lat="45.47406" lon="-75.78072">
        <ele>99.4</ele>
      </trkpt>
      <trkpt lat="45.47411" lon="-75.78075">
        <ele>99.4</ele>
      </trkpt>
      <trkpt lat="45.47416" lon="-75.78086">
        <ele>99.6</ele>
      </trkpt>
      <trkpt lat="45.47432" lon="-75.78176">
        <ele>101.1</ele>
      </trkpt>
      <trkpt lat="45.47433" lon="-75.78196">
        <ele>101.6</ele>
      </trkpt>
      <trkpt lat="45.47431" lon="-75.78257">
        <ele>102.6</ele>
      </trkpt>
      <trkpt lat="45.47429" lon="-75.78301">
        <ele>103.1</ele>
      </trkpt>
      <trkpt lat="45.47431" lon="-75.7833">
        <ele>103.1</ele>
      </trkpt>
      <trkpt lat="45.47437" lon="-75.78345">
        <ele>102.7</ele>
      </trkpt>
      <trkpt lat="45.4745" lon="-75.78367">
        <ele>102.3</ele>
      </trkpt>
      <trkpt lat="45.47454" lon="-75.78374">
        <ele>102.2</ele>
      </trkpt>
      <trkpt lat="45.47458" lon="-75.78371">
        <ele>101.6</ele>
      </trkpt>
      <trkpt lat="45.47475" lon="-75.78362">
        <ele>100</ele>
      </trkpt>
      <trkpt lat="45.47489" lon="-75.78361">
        <ele>99.2</ele>
      </trkpt>
      <trkpt lat="45.47558" lon="-75.78373">
        <ele>99.6</ele>
      </trkpt>
      <trkpt lat="45.47615" lon="-75.78382">
        <ele>99</ele>
      </trkpt>
      <trkpt lat="45.47639" lon="-75.78388">
        <ele>98.9</ele>
      </trkpt>
      <trkpt lat="45.47645" lon="-75.7839">
        <ele>98.7</ele>
      </trkpt>
      <trkpt lat="45.47654" lon="-75.784">
        <ele>98.3</ele>
      </trkpt>
      <trkpt lat="45.47728" lon="-75.78534">
        <ele>97.2</ele>
      </trkpt>
      <trkpt lat="45.4774" lon="-75.78555">
        <ele>97</ele>
      </trkpt>
      <trkpt lat="45.47746" lon="-75.78575">
        <ele>97</ele>
      </trkpt>
      <trkpt lat="45.47747" lon="-75.78587">
        <ele>97</ele>
      </trkpt>
      <trkpt lat="45.47746" lon="-75.78612">
        <ele>97.4</ele>
      </trkpt>
      <trkpt lat="45.47737" lon="-75.78652">
        <ele>97.9</ele>
      </trkpt>
      <trkpt lat="45.47738" lon="-75.78675">
        <ele>98.4</ele>
      </trkpt>
      <trkpt lat="45.47741" lon="-75.78693">
        <ele>99</ele>
      </trkpt>
      <trkpt lat="45.47769" lon="-75.78755">
        <ele>100.3</ele>
      </trkpt>
      <trkpt lat="45.4779" lon="-75.788">
        <ele>101.9</ele>
      </trkpt>
      <trkpt lat="45.47806" lon="-75.78834">
        <ele>102.1</ele>
      </trkpt>
      <trkpt lat="45.47852" lon="-75.78784">
        <ele>99.7</ele>
      </trkpt>
      <trkpt lat="45.47859" lon="-75.78781">
        <ele>99.6</ele>
      </trkpt>
      <trkpt lat="45.47863" lon="-75.78782">
        <ele>99.6</ele>
      </trkpt>
      <trkpt lat="45.47868" lon="-75.78788">
        <ele>99.7</ele>
      </trkpt>
      <trkpt lat="45.47883" lon="-75.78815">
        <ele>100.5</ele>
      </trkpt>
    </trkseg>
  </trk>
</gpx>