<?xml version="1.0" encoding="UTF-8" standalone="yes"?>
<gpx version="1.1" creator="https://onthegomap.com" xmlns="http://www.topografix.com/GPX/1/1">
  <metadata>
    <name>11.3km route</name>
    <link href="https://onthegomap.com">
      <text>On The Go Map</text>
    </link>
    <time>2026-06-28T01:51:25.005Z</time>
    <copyright author="On The Go Map, OpenStreetMap Contributors">
      <year>2026</year>
    </copyright>
  </metadata>
  <trk>
    <name>11.3km route</name>
    <trkseg>
      <trkpt lat="45.47883" lon="-75.78816">
        <ele>100.5</ele>
      </trkpt>
      <trkpt lat="45.47928" lon="-75.78899">
        <ele>101.9</ele>
      </trkpt>
      <trkpt lat="45.47966" lon="-75.78969">
        <ele>102.9</ele>
      </trkpt>
      <trkpt lat="45.47968" lon="-75.78975">
        <ele>103</ele>
      </trkpt>
      <trkpt lat="45.47969" lon="-75.78981">
        <ele>103</ele>
      </trkpt>
      <trkpt lat="45.47969" lon="-75.78986">
        <ele>103</ele>
      </trkpt>
      <trkpt lat="45.47967" lon="-75.78992">
        <ele>103</ele>
      </trkpt>
      <trkpt lat="45.47964" lon="-75.78996">
        <ele>103</ele>
      </trkpt>
      <trkpt lat="45.47949" lon="-75.79011">
        <ele>103.2</ele>
      </trkpt>
      <trkpt lat="45.47945" lon="-75.79014">
        <ele>103.3</ele>
      </trkpt>
      <trkpt lat="45.47935" lon="-75.79017">
        <ele>103.3</ele>
      </trkpt>
      <trkpt lat="45.47919" lon="-75.79018">
        <ele>103.4</ele>
      </trkpt>
      <trkpt lat="45.47903" lon="-75.79021">
        <ele>103.6</ele>
      </trkpt>
      <trkpt lat="45.47904" lon="-75.79035">
        <ele>103.9</ele>
      </trkpt>
      <trkpt lat="45.47904" lon="-75.79059">
        <ele>104.6</ele>
      </trkpt>
      <trkpt lat="45.47908" lon="-75.79078">
        <ele>105</ele>
      </trkpt>
      <trkpt lat="45.47854" lon="-75.79099">
        <ele>105</ele>
      </trkpt>
      <trkpt lat="45.4785" lon="-75.79101">
        <ele>105.2</ele>
      </trkpt>
      <trkpt lat="45.47848" lon="-75.79105">
        <ele>105.3</ele>
      </trkpt>
      <trkpt lat="45.47847" lon="-75.79111">
        <ele>105.4</ele>
      </trkpt>
      <trkpt lat="45.47849" lon="-75.79123">
        <ele>105.6</ele>
      </trkpt>
      <trkpt lat="45.47898" lon="-75.79311">
        <ele>111.8</ele>
      </trkpt>
      <trkpt lat="45.47905" lon="-75.79335">
        <ele>112.6</ele>
      </trkpt>
      <trkpt lat="45.47899" lon="-75.79338">
        <ele>112.7</ele>
      </trkpt>
      <trkpt lat="45.47883" lon="-75.79347">
        <ele>113</ele>
      </trkpt>
      <trkpt lat="45.47875" lon="-75.79351">
        <ele>113.3</ele>
      </trkpt>
      <trkpt lat="45.47865" lon="-75.79358">
        <ele>113.7</ele>
      </trkpt>
      <trkpt lat="45.47833" lon="-75.79394">
        <ele>117.2</ele>
      </trkpt>
      <trkpt lat="45.47804" lon="-75.79392">
        <ele>120.9</ele>
      </trkpt>
      <trkpt lat="45.47759" lon="-75.79376">
        <ele>126.6</ele>
      </trkpt>
      <trkpt lat="45.47734" lon="-75.79371">
        <ele>129.3</ele>
      </trkpt>
      <trkpt lat="45.47715" lon="-75.79382">
        <ele>132.8</ele>
      </trkpt>
      <trkpt lat="45.47698" lon="-75.79399">
        <ele>136.6</ele>
      </trkpt>
      <trkpt lat="45.47689" lon="-75.79406">
        <ele>138.3</ele>
      </trkpt>
      <trkpt lat="45.47667" lon="-75.79414">
        <ele>139.8</ele>
      </trkpt>
      <trkpt lat="45.47651" lon="-75.79422">
        <ele>140.9</ele>
      </trkpt>
      <trkpt lat="45.47644" lon="-75.79428">
        <ele>141.3</ele>
      </trkpt>
      <trkpt lat="45.47636" lon="-75.79432">
        <ele>141.8</ele>
      </trkpt>
      <trkpt lat="45.47627" lon="-75.79432">
        <ele>141.9</ele>
      </trkpt>
      <trkpt lat="45.47604" lon="-75.7943">
        <ele>142.1</ele>
      </trkpt>
      <trkpt lat="45.47572" lon="-75.79434">
        <ele>143.4</ele>
      </trkpt>
      <trkpt lat="45.47565" lon="-75.79437">
        <ele>144.1</ele>
      </trkpt>
      <trkpt lat="45.47557" lon="-75.79442">
        <ele>145</ele>
      </trkpt>
      <trkpt lat="45.47532" lon="-75.79464">
        <ele>148.4</ele>
      </trkpt>
      <trkpt lat="45.47511" lon="-75.79489">
        <ele>150.1</ele>
      </trkpt>
      <trkpt lat="45.47506" lon="-75.7949">
        <ele>150.3</ele>
      </trkpt>
      <trkpt lat="45.4751" lon="-75.79498">
        <ele>150</ele>
      </trkpt>
      <trkpt lat="45.47511" lon="-75.79508">
        <ele>149.7</ele>
      </trkpt>
      <trkpt lat="45.47508" lon="-75.79528">
        <ele>150</ele>
      </trkpt>
      <trkpt lat="45.47492" lon="-75.79596">
        <ele>154.7</ele>
      </trkpt>
      <trkpt lat="45.47486" lon="-75.79652">
        <ele>160.5</ele>
      </trkpt>
      <trkpt lat="45.47481" lon="-75.79687">
        <ele>164</ele>
      </trkpt>
      <trkpt lat="45.47468" lon="-75.79735">
        <ele>166.9</ele>
      </trkpt>
      <trkpt lat="45.47456" lon="-75.7976">
        <ele>166.1</ele>
      </trkpt>
      <trkpt lat="45.47454" lon="-75.79776">
        <ele>166.5</ele>
      </trkpt>
      <trkpt lat="45.47449" lon="-75.79847">
        <ele>168.9</ele>
      </trkpt>
      <trkpt lat="45.47447" lon="-75.79898">
        <ele>169.1</ele>
      </trkpt>
      <trkpt lat="45.4745" lon="-75.79928">
        <ele>168.4</ele>
      </trkpt>
      <trkpt lat="45.47453" lon="-75.79937">
        <ele>168.2</ele>
      </trkpt>
      <trkpt lat="45.47458" lon="-75.79944">
        <ele>168</ele>
      </trkpt>
      <trkpt lat="45.47468" lon="-75.79949">
        <ele>168.2</ele>
      </trkpt>
      <trkpt lat="45.47476" lon="-75.7995">
        <ele>168.5</ele>
      </trkpt>
      <trkpt lat="45.47482" lon="-75.79947">
        <ele>168.9</ele>
      </trkpt>
      <trkpt lat="45.47499" lon="-75.79928">
        <ele>171.3</ele>
      </trkpt>
      <trkpt lat="45.47506" lon="-75.79924">
        <ele>171.9</ele>
      </trkpt>
      <trkpt lat="45.47517" lon="-75.79926">
        <ele>172.4</ele>
      </trkpt>
      <trkpt lat="45.47543" lon="-75.79943">
        <ele>172.2</ele>
      </trkpt>
      <trkpt lat="45.47555" lon="-75.79954">
        <ele>172.5</ele>
      </trkpt>
      <trkpt lat="45.47583" lon="-75.79987">
        <ele>175.1</ele>
      </trkpt>
      <trkpt lat="45.47589" lon="-75.79999">
        <ele>176.1</ele>
      </trkpt>
      <trkpt lat="45.47591" lon="-75.80009">
        <ele>176.8</ele>
      </trkpt>
      <trkpt lat="45.4759" lon="-75.80019">
        <ele>177.4</ele>
      </trkpt>
      <trkpt lat="45.47576" lon="-75.80055">
        <ele>179.8</ele>
      </trkpt>
      <trkpt lat="45.47568" lon="-75.80094">
        <ele>182.3</ele>
      </trkpt>
      <trkpt lat="45.47569" lon="-75.80145">
        <ele>183</ele>
      </trkpt>
      <trkpt lat="45.47557" lon="-75.80226">
        <ele>176.2</ele>
      </trkpt>
      <trkpt lat="45.47557" lon="-75.80246">
        <ele>174</ele>
      </trkpt>
      <trkpt lat="45.47558" lon="-75.80267">
        <ele>171.7</ele>
      </trkpt>
      <trkpt lat="45.4756" lon="-75.80271">
        <ele>171.1</ele>
      </trkpt>
      <trkpt lat="45.47568" lon="-75.80282">
        <ele>169.7</ele>
      </trkpt>
      <trkpt lat="45.47585" lon="-75.80301">
        <ele>168.3</ele>
      </trkpt>
      <trkpt lat="45.47611" lon="-75.80318">
        <ele>167.6</ele>
      </trkpt>
      <trkpt lat="45.47634" lon="-75.80329">
        <ele>167.2</ele>
      </trkpt>
      <trkpt lat="45.47647" lon="-75.8034">
        <ele>166.6</ele>
      </trkpt>
      <trkpt lat="45.47674" lon="-75.80351">
        <ele>166.4</ele>
      </trkpt>
      <trkpt lat="45.47686" lon="-75.80363">
        <ele>166.6</ele>
      </trkpt>
      <trkpt lat="45.47693" lon="-75.80374">
        <ele>166.8</ele>
      </trkpt>
      <trkpt lat="45.47695" lon="-75.80389">
        <ele>167</ele>
      </trkpt>
      <trkpt lat="45.47689" lon="-75.8044">
        <ele>169.6</ele>
      </trkpt>
      <trkpt lat="45.47687" lon="-75.80471">
        <ele>172.1</ele>
      </trkpt>
      <trkpt lat="45.47679" lon="-75.80505">
        <ele>175.4</ele>
      </trkpt>
      <trkpt lat="45.47677" lon="-75.80525">
        <ele>177.1</ele>
      </trkpt>
      <trkpt lat="45.47677" lon="-75.80587">
        <ele>181.6</ele>
      </trkpt>
      <trkpt lat="45.47679" lon="-75.80612">
        <ele>182.9</ele>
      </trkpt>
      <trkpt lat="45.47684" lon="-75.80632">
        <ele>183.8</ele>
      </trkpt>
      <trkpt lat="45.47705" lon="-75.80667">
        <ele>184.7</ele>
      </trkpt>
      <trkpt lat="45.47731" lon="-75.80714">
        <ele>181.9</ele>
      </trkpt>
      <trkpt lat="45.47738" lon="-75.80732">
        <ele>180.2</ele>
      </trkpt>
      <trkpt lat="45.47737" lon="-75.80753">
        <ele>179</ele>
      </trkpt>
      <trkpt lat="45.47722" lon="-75.80778">
        <ele>177.7</ele>
      </trkpt>
      <trkpt lat="45.47704" lon="-75.80802">
        <ele>175.7</ele>
      </trkpt>
      <trkpt lat="45.47691" lon="-75.80826">
        <ele>173.9</ele>
      </trkpt>
      <trkpt lat="45.47683" lon="-75.80837">
        <ele>173.1</ele>
      </trkpt>
      <trkpt lat="45.47652" lon="-75.80873">
        <ele>171.6</ele>
      </trkpt>
      <trkpt lat="45.47644" lon="-75.80886">
        <ele>171.1</ele>
      </trkpt>
      <trkpt lat="45.47643" lon="-75.809">
        <ele>170.8</ele>
      </trkpt>
      <trkpt lat="45.47642" lon="-75.8093">
        <ele>170.9</ele>
      </trkpt>
      <trkpt lat="45.47637" lon="-75.80936">
        <ele>171.2</ele>
      </trkpt>
      <trkpt lat="45.47599" lon="-75.80946">
        <ele>172.9</ele>
      </trkpt>
      <trkpt lat="45.47592" lon="-75.80943">
        <ele>173.3</ele>
      </trkpt>
      <trkpt lat="45.47575" lon="-75.80946">
        <ele>174.1</ele>
      </trkpt>
      <trkpt lat="45.47564" lon="-75.80943">
        <ele>174.5</ele>
      </trkpt>
      <trkpt lat="45.47521" lon="-75.80942">
        <ele>175.3</ele>
      </trkpt>
      <trkpt lat="45.4751" lon="-75.80943">
        <ele>175.6</ele>
      </trkpt>
      <trkpt lat="45.47475" lon="-75.80955">
        <ele>176.8</ele>
      </trkpt>
      <trkpt lat="45.47462" lon="-75.80964">
        <ele>177</ele>
      </trkpt>
      <trkpt lat="45.47446" lon="-75.80984">
        <ele>177.4</ele>
      </trkpt>
      <trkpt lat="45.47403" lon="-75.8101">
        <ele>180.6</ele>
      </trkpt>
      <trkpt lat="45.47372" lon="-75.81059">
        <ele>185.9</ele>
      </trkpt>
      <trkpt lat="45.47368" lon="-75.81068">
        <ele>186.8</ele>
      </trkpt>
      <trkpt lat="45.47363" lon="-75.81087">
        <ele>188.7</ele>
      </trkpt>
      <trkpt lat="45.4736" lon="-75.81112">
        <ele>191</ele>
      </trkpt>
      <trkpt lat="45.47354" lon="-75.81142">
        <ele>193.3</ele>
      </trkpt>
      <trkpt lat="45.47349" lon="-75.81183">
        <ele>196</ele>
      </trkpt>
      <trkpt lat="45.47333" lon="-75.81239">
        <ele>198.3</ele>
      </trkpt>
      <trkpt lat="45.47325" lon="-75.81272">
        <ele>198.3</ele>
      </trkpt>
      <trkpt lat="45.47322" lon="-75.81288">
        <ele>198.9</ele>
      </trkpt>
      <trkpt lat="45.47315" lon="-75.8136">
        <ele>206</ele>
      </trkpt>
      <trkpt lat="45.47314" lon="-75.81401">
        <ele>209.2</ele>
      </trkpt>
      <trkpt lat="45.47308" lon="-75.8143">
        <ele>209.3</ele>
      </trkpt>
      <trkpt lat="45.47301" lon="-75.81448">
        <ele>209.2</ele>
      </trkpt>
      <trkpt lat="45.47293" lon="-75.81458">
        <ele>209.3</ele>
      </trkpt>
      <trkpt lat="45.47284" lon="-75.81475">
        <ele>209.7</ele>
      </trkpt>
      <trkpt lat="45.47274" lon="-75.81513">
        <ele>208.6</ele>
      </trkpt>
      <trkpt lat="45.47266" lon="-75.8153">
        <ele>208.8</ele>
      </trkpt>
      <trkpt lat="45.47241" lon="-75.81574">
        <ele>210.7</ele>
      </trkpt>
      <trkpt lat="45.47217" lon="-75.81605">
        <ele>210.9</ele>
      </trkpt>
      <trkpt lat="45.47213" lon="-75.81619">
        <ele>210.4</ele>
      </trkpt>
      <trkpt lat="45.47213" lon="-75.81629">
        <ele>209.9</ele>
      </trkpt>
      <trkpt lat="45.47215" lon="-75.81639">
        <ele>209.4</ele>
      </trkpt>
      <trkpt lat="45.47239" lon="-75.81677">
        <ele>208.5</ele>
      </trkpt>
      <trkpt lat="45.47248" lon="-75.81699">
        <ele>208.8</ele>
      </trkpt>
      <trkpt lat="45.47252" lon="-75.81721">
        <ele>209.3</ele>
      </trkpt>
      <trkpt lat="45.47263" lon="-75.81741">
        <ele>209.7</ele>
      </trkpt>
      <trkpt lat="45.47271" lon="-75.81751">
        <ele>210</ele>
      </trkpt>
      <trkpt lat="45.47291" lon="-75.81765">
        <ele>210.1</ele>
      </trkpt>
      <trkpt lat="45.47305" lon="-75.8178">
        <ele>209.3</ele>
      </trkpt>
      <trkpt lat="45.47326" lon="-75.81808">
        <ele>208.6</ele>
      </trkpt>
      <trkpt lat="45.47343" lon="-75.81834">
        <ele>208.8</ele>
      </trkpt>
      <trkpt lat="45.47357" lon="-75.81864">
        <ele>209.1</ele>
      </trkpt>
      <trkpt lat="45.47393" lon="-75.81922">
        <ele>205.2</ele>
      </trkpt>
      <trkpt lat="45.47401" lon="-75.81939">
        <ele>203.1</ele>
      </trkpt>
      <trkpt lat="45.47405" lon="-75.81953">
        <ele>201.4</ele>
      </trkpt>
      <trkpt lat="45.47405" lon="-75.81957">
        <ele>201</ele>
      </trkpt>
      <trkpt lat="45.47407" lon="-75.81968">
        <ele>200.1</ele>
      </trkpt>
      <trkpt lat="45.47406" lon="-75.82009">
        <ele>196.9</ele>
      </trkpt>
      <trkpt lat="45.4741" lon="-75.82027">
        <ele>195.9</ele>
      </trkpt>
      <trkpt lat="45.47452" lon="-75.81994">
        <ele>194.3</ele>
      </trkpt>
      <trkpt lat="45.47482" lon="-75.81967">
        <ele>193.3</ele>
      </trkpt>
      <trkpt lat="45.4753" lon="-75.81918">
        <ele>193.3</ele>
      </trkpt>
      <trkpt lat="45.47609" lon="-75.81832">
        <ele>188.8</ele>
      </trkpt>
      <trkpt lat="45.47622" lon="-75.81818">
        <ele>188.8</ele>
      </trkpt>
      <trkpt lat="45.47637" lon="-75.81803">
        <ele>188.9</ele>
      </trkpt>
      <trkpt lat="45.47668" lon="-75.81783">
        <ele>188.8</ele>
      </trkpt>
      <trkpt lat="45.47689" lon="-75.81779">
        <ele>188.5</ele>
      </trkpt>
      <trkpt lat="45.4771" lon="-75.81778">
        <ele>187.7</ele>
      </trkpt>
      <trkpt lat="45.47741" lon="-75.81782">
        <ele>184.7</ele>
      </trkpt>
      <trkpt lat="45.47762" lon="-75.81781">
        <ele>182.2</ele>
      </trkpt>
      <trkpt lat="45.47787" lon="-75.81775">
        <ele>179.6</ele>
      </trkpt>
      <trkpt lat="45.47818" lon="-75.81754">
        <ele>176.7</ele>
      </trkpt>
      <trkpt lat="45.47857" lon="-75.8172">
        <ele>175</ele>
      </trkpt>
      <trkpt lat="45.47936" lon="-75.81643">
        <ele>172.9</ele>
      </trkpt>
      <trkpt lat="45.47857" lon="-75.8172">
        <ele>174.8</ele>
      </trkpt>
      <trkpt lat="45.47818" lon="-75.81754">
        <ele>176.9</ele>
      </trkpt>
      <trkpt lat="45.47787" lon="-75.81775">
        <ele>179.4</ele>
      </trkpt>
      <trkpt lat="45.47762" lon="-75.81781">
        <ele>182.3</ele>
      </trkpt>
      <trkpt lat="45.47741" lon="-75.81782">
        <ele>184.8</ele>
      </trkpt>
      <trkpt lat="45.4771" lon="-75.81778">
        <ele>188</ele>
      </trkpt>
      <trkpt lat="45.47689" lon="-75.81779">
        <ele>188.6</ele>
      </trkpt>
      <trkpt lat="45.47668" lon="-75.81783">
        <ele>189</ele>
      </trkpt>
      <trkpt lat="45.47667" lon="-75.81765">
        <ele>190.1</ele>
      </trkpt>
      <trkpt lat="45.47661" lon="-75.81738">
        <ele>192.1</ele>
      </trkpt>
      <trkpt lat="45.4767" lon="-75.8172">
        <ele>193.6</ele>
      </trkpt>
      <trkpt lat="45.47675" lon="-75.81703">
        <ele>194.9</ele>
      </trkpt>
      <trkpt lat="45.47675" lon="-75.81695">
        <ele>195.5</ele>
      </trkpt>
      <trkpt lat="45.47675" lon="-75.81675">
        <ele>196.9</ele>
      </trkpt>
      <trkpt lat="45.47663" lon="-75.81616">
        <ele>198.3</ele>
      </trkpt>
      <trkpt lat="45.47669" lon="-75.81626">
        <ele>198.5</ele>
      </trkpt>
      <trkpt lat="45.477" lon="-75.81658">
        <ele>199.9</ele>
      </trkpt>
      <trkpt lat="45.47707" lon="-75.8166">
        <ele>200.3</ele>
      </trkpt>
      <trkpt lat="45.47713" lon="-75.81655">
        <ele>201.5</ele>
      </trkpt>
      <trkpt lat="45.4772" lon="-75.81646">
        <ele>203.1</ele>
      </trkpt>
      <trkpt lat="45.47731" lon="-75.81637">
        <ele>205</ele>
      </trkpt>
      <trkpt lat="45.47744" lon="-75.8162">
        <ele>207.3</ele>
      </trkpt>
      <trkpt lat="45.47751" lon="-75.81616">
        <ele>208.1</ele>
      </trkpt>
      <trkpt lat="45.47766" lon="-75.81614">
        <ele>209.2</ele>
      </trkpt>
      <trkpt lat="45.47784" lon="-75.81603">
        <ele>210.1</ele>
      </trkpt>
      <trkpt lat="45.47794" lon="-75.816">
        <ele>210.5</ele>
      </trkpt>
      <trkpt lat="45.47831" lon="-75.81609">
        <ele>209.4</ele>
      </trkpt>
      <trkpt lat="45.47857" lon="-75.81606">
        <ele>205.1</ele>
      </trkpt>
      <trkpt lat="45.47869" lon="-75.81608">
        <ele>202.1</ele>
      </trkpt>
      <trkpt lat="45.4788" lon="-75.81604">
        <ele>200.3</ele>
      </trkpt>
      <trkpt lat="45.47887" lon="-75.81597">
        <ele>199.2</ele>
      </trkpt>
      <trkpt lat="45.47907" lon="-75.81564">
        <ele>199.9</ele>
      </trkpt>
      <trkpt lat="45.47912" lon="-75.81548">
        <ele>200.5</ele>
      </trkpt>
      <trkpt lat="45.47915" lon="-75.81514">
        <ele>204.7</ele>
      </trkpt>
      <trkpt lat="45.47913" lon="-75.81488">
        <ele>208.2</ele>
      </trkpt>
      <trkpt lat="45.47914" lon="-75.81473">
        <ele>209.6</ele>
      </trkpt>
      <trkpt lat="45.47918" lon="-75.8146">
        <ele>210.4</ele>
      </trkpt>
      <trkpt lat="45.47929" lon="-75.81436">
        <ele>210.5</ele>
      </trkpt>
      <trkpt lat="45.47937" lon="-75.81401">
        <ele>211.4</ele>
      </trkpt>
      <trkpt lat="45.4795" lon="-75.81354">
        <ele>210.9</ele>
      </trkpt>
      <trkpt lat="45.47953" lon="-75.81342">
        <ele>210.5</ele>
      </trkpt>
      <trkpt lat="45.47976" lon="-75.81308">
        <ele>208.1</ele>
      </trkpt>
      <trkpt lat="45.47994" lon="-75.8129">
        <ele>207.2</ele>
      </trkpt>
      <trkpt lat="45.48014" lon="-75.81276">
        <ele>206.4</ele>
      </trkpt>
      <trkpt lat="45.48023" lon="-75.81272">
        <ele>206.1</ele>
      </trkpt>
      <trkpt lat="45.48038" lon="-75.81271">
        <ele>206</ele>
      </trkpt>
      <trkpt lat="45.48095" lon="-75.81283">
        <ele>205.3</ele>
      </trkpt>
      <trkpt lat="45.48103" lon="-75.81281">
        <ele>205.1</ele>
      </trkpt>
      <trkpt lat="45.48121" lon="-75.81271">
        <ele>204.8</ele>
      </trkpt>
      <trkpt lat="45.48149" lon="-75.81273">
        <ele>203.1</ele>
      </trkpt>
      <trkpt lat="45.48157" lon="-75.8127">
        <ele>202.4</ele>
      </trkpt>
      <trkpt lat="45.48168" lon="-75.81263">
        <ele>201.1</ele>
      </trkpt>
      <trkpt lat="45.48186" lon="-75.81242">
        <ele>198.7</ele>
      </trkpt>
      <trkpt lat="45.48229" lon="-75.81201">
        <ele>191.6</ele>
      </trkpt>
      <trkpt lat="45.48238" lon="-75.81197">
        <ele>189.9</ele>
      </trkpt>
      <trkpt lat="45.48276" lon="-75.81188">
        <ele>180</ele>
      </trkpt>
      <trkpt lat="45.48285" lon="-75.81188">
        <ele>177.7</ele>
      </trkpt>
      <trkpt lat="45.48293" lon="-75.81185">
        <ele>175.7</ele>
      </trkpt>
      <trkpt lat="45.48299" lon="-75.8118">
        <ele>174.2</ele>
      </trkpt>
      <trkpt lat="45.4831" lon="-75.81166">
        <ele>172.8</ele>
      </trkpt>
      <trkpt lat="45.48316" lon="-75.81152">
        <ele>172.4</ele>
      </trkpt>
      <trkpt lat="45.48331" lon="-75.81106">
        <ele>171.1</ele>
      </trkpt>
      <trkpt lat="45.48342" lon="-75.81095">
        <ele>169.3</ele>
      </trkpt>
      <trkpt lat="45.48353" lon="-75.81077">
        <ele>167.3</ele>
      </trkpt>
      <trkpt lat="45.48373" lon="-75.81054">
        <ele>163.5</ele>
      </trkpt>
      <trkpt lat="45.48374" lon="-75.81044">
        <ele>162.9</ele>
      </trkpt>
      <trkpt lat="45.48383" lon="-75.81027">
        <ele>161.4</ele>
      </trkpt>
      <trkpt lat="45.4839" lon="-75.81024">
        <ele>160.4</ele>
      </trkpt>
      <trkpt lat="45.48395" lon="-75.81032">
        <ele>159.3</ele>
      </trkpt>
      <trkpt lat="45.48393" lon="-75.81043">
        <ele>158.6</ele>
      </trkpt>
      <trkpt lat="45.48396" lon="-75.81054">
        <ele>157.9</ele>
      </trkpt>
      <trkpt lat="45.48403" lon="-75.81056">
        <ele>157.4</ele>
      </trkpt>
      <trkpt lat="45.48408" lon="-75.81051">
        <ele>156.9</ele>
      </trkpt>
      <trkpt lat="45.4841" lon="-75.81037">
        <ele>156</ele>
      </trkpt>
      <trkpt lat="45.48407" lon="-75.81014">
        <ele>155.2</ele>
      </trkpt>
      <trkpt lat="45.48408" lon="-75.8099">
        <ele>154</ele>
      </trkpt>
      <trkpt lat="45.48405" lon="-75.80975">
        <ele>153</ele>
      </trkpt>
      <trkpt lat="45.48401" lon="-75.80963">
        <ele>152.3</ele>
      </trkpt>
      <trkpt lat="45.48405" lon="-75.80919">
        <ele>148.4</ele>
      </trkpt>
      <trkpt lat="45.48405" lon="-75.80917">
        <ele>148.3</ele>
      </trkpt>
      <trkpt lat="45.48403" lon="-75.80875">
        <ele>144.5</ele>
      </trkpt>
      <trkpt lat="45.484" lon="-75.80862">
        <ele>143.4</ele>
      </trkpt>
      <trkpt lat="45.48372" lon="-75.80786">
        <ele>140.6</ele>
      </trkpt>
      <trkpt lat="45.48366" lon="-75.80758">
        <ele>140.1</ele>
      </trkpt>
      <trkpt lat="45.48363" lon="-75.80753">
        <ele>140.2</ele>
      </trkpt>
      <trkpt lat="45.4836" lon="-75.80748">
        <ele>140.4</ele>
      </trkpt>
      <trkpt lat="45.48342" lon="-75.80733">
        <ele>143.7</ele>
      </trkpt>
      <trkpt lat="45.48337" lon="-75.8076">
        <ele>149.7</ele>
      </trkpt>
      <trkpt lat="45.48337" lon="-75.8078">
        <ele>153.3</ele>
      </trkpt>
      <trkpt lat="45.4834" lon="-75.80809">
        <ele>156.8</ele>
      </trkpt>
      <trkpt lat="45.48341" lon="-75.80818">
        <ele>157.5</ele>
      </trkpt>
      <trkpt lat="45.48341" lon="-75.80825">
        <ele>158.2</ele>
      </trkpt>
      <trkpt lat="45.48334" lon="-75.80834">
        <ele>160.2</ele>
      </trkpt>
      <trkpt lat="45.48327" lon="-75.80846">
        <ele>162.4</ele>
      </trkpt>
      <trkpt lat="45.48319" lon="-75.80896">
        <ele>164.5</ele>
      </trkpt>
      <trkpt lat="45.48318" lon="-75.80902">
        <ele>165</ele>
      </trkpt>
      <trkpt lat="45.48293" lon="-75.80941">
        <ele>173</ele>
      </trkpt>
      <trkpt lat="45.48283" lon="-75.8097">
        <ele>176.9</ele>
      </trkpt>
      <trkpt lat="45.4828" lon="-75.80976">
        <ele>178.2</ele>
      </trkpt>
      <trkpt lat="45.48255" lon="-75.80995">
        <ele>184.5</ele>
      </trkpt>
      <trkpt lat="45.4825" lon="-75.81009">
        <ele>186.1</ele>
      </trkpt>
      <trkpt lat="45.48247" lon="-75.81023">
        <ele>187.4</ele>
      </trkpt>
      <trkpt lat="45.48245" lon="-75.81078">
        <ele>190.3</ele>
      </trkpt>
      <trkpt lat="45.48245" lon="-75.81091">
        <ele>191.2</ele>
      </trkpt>
      <trkpt lat="45.4824" lon="-75.811">
        <ele>192.3</ele>
      </trkpt>
      <trkpt lat="45.48232" lon="-75.81101">
        <ele>193.4</ele>
      </trkpt>
      <trkpt lat="45.48217" lon="-75.81091">
        <ele>196.4</ele>
      </trkpt>
      <trkpt lat="45.48212" lon="-75.8109">
        <ele>197.1</ele>
      </trkpt>
      <trkpt lat="45.48207" lon="-75.8109">
        <ele>197.7</ele>
      </trkpt>
      <trkpt lat="45.48194" lon="-75.81096">
        <ele>199.4</ele>
      </trkpt>
      <trkpt lat="45.48163" lon="-75.81096">
        <ele>201.1</ele>
      </trkpt>
      <trkpt lat="45.48154" lon="-75.81092">
        <ele>201.3</ele>
      </trkpt>
      <trkpt lat="45.48146" lon="-75.8108">
        <ele>201.3</ele>
      </trkpt>
      <trkpt lat="45.48139" lon="-75.81078">
        <ele>201.3</ele>
      </trkpt>
      <trkpt lat="45.48128" lon="-75.81081">
        <ele>200.9</ele>
      </trkpt>
      <trkpt lat="45.48098" lon="-75.81164">
        <ele>202.5</ele>
      </trkpt>
      <trkpt lat="45.48096" lon="-75.81175">
        <ele>203.2</ele>
      </trkpt>
      <trkpt lat="45.48097" lon="-75.81198">
        <ele>204.5</ele>
      </trkpt>
      <trkpt lat="45.48095" lon="-75.81209">
        <ele>204.9</ele>
      </trkpt>
      <trkpt lat="45.48081" lon="-75.81233">
        <ele>205.8</ele>
      </trkpt>
      <trkpt lat="45.48069" lon="-75.81243">
        <ele>206</ele>
      </trkpt>
      <trkpt lat="45.48064" lon="-75.81243">
        <ele>206</ele>
      </trkpt>
      <trkpt lat="45.48027" lon="-75.81214">
        <ele>205.3</ele>
      </trkpt>
      <trkpt lat="45.48019" lon="-75.8121">
        <ele>205.3</ele>
      </trkpt>
      <trkpt lat="45.47991" lon="-75.81211">
        <ele>205.7</ele>
      </trkpt>
      <trkpt lat="45.47986" lon="-75.81208">
        <ele>205.9</ele>
      </trkpt>
      <trkpt lat="45.47981" lon="-75.81192">
        <ele>204.7</ele>
      </trkpt>
      <trkpt lat="45.47975" lon="-75.81179">
        <ele>203.6</ele>
      </trkpt>
      <trkpt lat="45.47968" lon="-75.81175">
        <ele>203.4</ele>
      </trkpt>
      <trkpt lat="45.47927" lon="-75.81161">
        <ele>203.1</ele>
      </trkpt>
      <trkpt lat="45.47918" lon="-75.81161">
        <ele>202.9</ele>
      </trkpt>
      <trkpt lat="45.47912" lon="-75.81165">
        <ele>203.1</ele>
      </trkpt>
      <trkpt lat="45.4789" lon="-75.81184">
        <ele>203</ele>
      </trkpt>
      <trkpt lat="45.47884" lon="-75.81186">
        <ele>202.8</ele>
      </trkpt>
      <trkpt lat="45.4787" lon="-75.81186">
        <ele>201.3</ele>
      </trkpt>
      <trkpt lat="45.47861" lon="-75.81192">
        <ele>200.6</ele>
      </trkpt>
      <trkpt lat="45.47855" lon="-75.81199">
        <ele>200.6</ele>
      </trkpt>
      <trkpt lat="45.47848" lon="-75.81204">
        <ele>200.5</ele>
      </trkpt>
      <trkpt lat="45.47837" lon="-75.81204">
        <ele>199.4</ele>
      </trkpt>
      <trkpt lat="45.47829" lon="-75.81208">
        <ele>198.5</ele>
      </trkpt>
      <trkpt lat="45.47821" lon="-75.8122">
        <ele>197.7</ele>
      </trkpt>
      <trkpt lat="45.47814" lon="-75.81223">
        <ele>197.2</ele>
      </trkpt>
      <trkpt lat="45.47777" lon="-75.81211">
        <ele>189.8</ele>
      </trkpt>
      <trkpt lat="45.47773" lon="-75.81211">
        <ele>189.2</ele>
      </trkpt>
      <trkpt lat="45.47768" lon="-75.81215">
        <ele>188.9</ele>
      </trkpt>
      <trkpt lat="45.47756" lon="-75.81243">
        <ele>187.9</ele>
      </trkpt>
      <trkpt lat="45.47748" lon="-75.81253">
        <ele>187.7</ele>
      </trkpt>
      <trkpt lat="45.47742" lon="-75.81255">
        <ele>187.2</ele>
      </trkpt>
      <trkpt lat="45.47725" lon="-75.81255">
        <ele>186.3</ele>
      </trkpt>
      <trkpt lat="45.47725" lon="-75.81272">
        <ele>187.2</ele>
      </trkpt>
      <trkpt lat="45.47724" lon="-75.81298">
        <ele>189</ele>
      </trkpt>
      <trkpt lat="45.47727" lon="-75.81327">
        <ele>191.3</ele>
      </trkpt>
      <trkpt lat="45.47728" lon="-75.81365">
        <ele>193.1</ele>
      </trkpt>
      <trkpt lat="45.47727" lon="-75.81377">
        <ele>193.2</ele>
      </trkpt>
      <trkpt lat="45.47722" lon="-75.8139">
        <ele>193.2</ele>
      </trkpt>
      <trkpt lat="45.47719" lon="-75.81395">
        <ele>193.2</ele>
      </trkpt>
      <trkpt lat="45.47711" lon="-75.81408">
        <ele>193.1</ele>
      </trkpt>
      <trkpt lat="45.47709" lon="-75.81416">
        <ele>193.2</ele>
      </trkpt>
      <trkpt lat="45.477" lon="-75.81471">
        <ele>194.8</ele>
      </trkpt>
      <trkpt lat="45.47697" lon="-75.81485">
        <ele>195.2</ele>
      </trkpt>
      <trkpt lat="45.47687" lon="-75.81507">
        <ele>195.8</ele>
      </trkpt>
      <trkpt lat="45.47671" lon="-75.81557">
        <ele>197.4</ele>
      </trkpt>
      <trkpt lat="45.47663" lon="-75.81578">
        <ele>197.8</ele>
      </trkpt>
      <trkpt lat="45.4766" lon="-75.81589">
        <ele>197.9</ele>
      </trkpt>
      <trkpt lat="45.4766" lon="-75.81599">
        <ele>198</ele>
      </trkpt>
      <trkpt lat="45.47663" lon="-75.81616">
        <ele>198.1</ele>
      </trkpt>
      <trkpt lat="45.47669" lon="-75.81626">
        <ele>198.4</ele>
      </trkpt>
      <trkpt lat="45.477" lon="-75.81658">
        <ele>200.1</ele>
      </trkpt>
      <trkpt lat="45.47707" lon="-75.8166">
        <ele>200.8</ele>
      </trkpt>
      <trkpt lat="45.47713" lon="-75.81655">
        <ele>201.4</ele>
      </trkpt>
      <trkpt lat="45.4772" lon="-75.81646">
        <ele>202.9</ele>
      </trkpt>
      <trkpt lat="45.47731" lon="-75.81637">
        <ele>205</ele>
      </trkpt>
      <trkpt lat="45.47744" lon="-75.8162">
        <ele>207.3</ele>
      </trkpt>
      <trkpt lat="45.47751" lon="-75.81616">
        <ele>208</ele>
      </trkpt>
      <trkpt lat="45.47766" lon="-75.81614">
        <ele>209.2</ele>
      </trkpt>
      <trkpt lat="45.47784" lon="-75.81603">
        <ele>210.2</ele>
      </trkpt>
      <trkpt lat="45.47794" lon="-75.816">
        <ele>210.4</ele>
      </trkpt>
      <trkpt lat="45.47831" lon="-75.81609">
        <ele>209</ele>
      </trkpt>
      <trkpt lat="45.47857" lon="-75.81606">
        <ele>205.2</ele>
      </trkpt>
      <trkpt lat="45.47869" lon="-75.81608">
        <ele>202.5</ele>
      </trkpt>
      <trkpt lat="45.4788" lon="-75.81604">
        <ele>199.8</ele>
      </trkpt>
      <trkpt lat="45.47887" lon="-75.81597">
        <ele>199.6</ele>
      </trkpt>
      <trkpt lat="45.47907" lon="-75.81564">
        <ele>199.4</ele>
      </trkpt>
      <trkpt lat="45.47909" lon="-75.81559">
        <ele>199.4</ele>
      </trkpt>
      <trkpt lat="45.47907" lon="-75.81564">
        <ele>199.4</ele>
      </trkpt>
      <trkpt lat="45.47887" lon="-75.81597">
        <ele>199</ele>
      </trkpt>
      <trkpt lat="45.4788" lon="-75.81604">
        <ele>200</ele>
      </trkpt>
      <trkpt lat="45.47869" lon="-75.81608">
        <ele>201.8</ele>
      </trkpt>
      <trkpt lat="45.47857" lon="-75.81606">
        <ele>204.6</ele>
      </trkpt>
      <trkpt lat="45.47831" lon="-75.81609">
        <ele>209.1</ele>
      </trkpt>
      <trkpt lat="45.47794" lon="-75.816">
        <ele>210.5</ele>
      </trkpt>
      <trkpt lat="45.47784" lon="-75.81603">
        <ele>210.2</ele>
      </trkpt>
      <trkpt lat="45.47766" lon="-75.81614">
        <ele>209.2</ele>
      </trkpt>
      <trkpt lat="45.47751" lon="-75.81616">
        <ele>208.3</ele>
      </trkpt>
      <trkpt lat="45.47744" lon="-75.8162">
        <ele>207.4</ele>
      </trkpt>
      <trkpt lat="45.47731" lon="-75.81637">
        <ele>205.3</ele>
      </trkpt>
      <trkpt lat="45.4772" lon="-75.81646">
        <ele>203.4</ele>
      </trkpt>
      <trkpt lat="45.47713" lon="-75.81655">
        <ele>201.9</ele>
      </trkpt>
      <trkpt lat="45.47707" lon="-75.8166">
        <ele>200.8</ele>
      </trkpt>
      <trkpt lat="45.477" lon="-75.81658">
        <ele>199.9</ele>
      </trkpt>
      <trkpt lat="45.47669" lon="-75.81626">
        <ele>198.5</ele>
      </trkpt>
      <trkpt lat="45.47663" lon="-75.81616">
        <ele>198.2</ele>
      </trkpt>
      <trkpt lat="45.4766" lon="-75.81599">
        <ele>197.9</ele>
      </trkpt>
      <trkpt lat="45.4766" lon="-75.81589">
        <ele>197.9</ele>
      </trkpt>
      <trkpt lat="45.47663" lon="-75.81578">
        <ele>198</ele>
      </trkpt>
      <trkpt lat="45.47671" lon="-75.81557">
        <ele>197.4</ele>
      </trkpt>
      <trkpt lat="45.47687" lon="-75.81507">
        <ele>195.8</ele>
      </trkpt>
      <trkpt lat="45.47697" lon="-75.81485">
        <ele>195.2</ele>
      </trkpt>
      <trkpt lat="45.477" lon="-75.81471">
        <ele>194.9</ele>
      </trkpt>
      <trkpt lat="45.47709" lon="-75.81416">
        <ele>193.3</ele>
      </trkpt>
      <trkpt lat="45.47711" lon="-75.81408">
        <ele>193.2</ele>
      </trkpt>
      <trkpt lat="45.47722" lon="-75.8139">
        <ele>193.2</ele>
      </trkpt>
      <trkpt lat="45.47727" lon="-75.81377">
        <ele>193.3</ele>
      </trkpt>
      <trkpt lat="45.47728" lon="-75.81365">
        <ele>193.2</ele>
      </trkpt>
      <trkpt lat="45.47727" lon="-75.81327">
        <ele>191.4</ele>
      </trkpt>
      <trkpt lat="45.47724" lon="-75.81298">
        <ele>189.2</ele>
      </trkpt>
      <trkpt lat="45.47725" lon="-75.81272">
        <ele>187.2</ele>
      </trkpt>
      <trkpt lat="45.47725" lon="-75.81255">
        <ele>186</ele>
      </trkpt>
      <trkpt lat="45.47724" lon="-75.81221">
        <ele>184.1</ele>
      </trkpt>
      <trkpt lat="45.47727" lon="-75.81197">
        <ele>183</ele>
      </trkpt>
      <trkpt lat="45.47724" lon="-75.81172">
        <ele>181.3</ele>
      </trkpt>
      <trkpt lat="45.47723" lon="-75.81145">
        <ele>179.1</ele>
      </trkpt>
      <trkpt lat="45.47723" lon="-75.81098">
        <ele>174.2</ele>
      </trkpt>
      <trkpt lat="45.47719" lon="-75.81054">
        <ele>170.9</ele>
      </trkpt>
      <trkpt lat="45.47721" lon="-75.81029">
        <ele>170.6</ele>
      </trkpt>
      <trkpt lat="45.47716" lon="-75.81028">
        <ele>170.6</ele>
      </trkpt>
      <trkpt lat="45.47708" lon="-75.81023">
        <ele>170.6</ele>
      </trkpt>
      <trkpt lat="45.47687" lon="-75.80991">
        <ele>170</ele>
      </trkpt>
      <trkpt lat="45.4767" lon="-75.80969">
        <ele>170</ele>
      </trkpt>
      <trkpt lat="45.47655" lon="-75.8095">
        <ele>170.4</ele>
      </trkpt>
      <trkpt lat="45.47642" lon="-75.8093">
        <ele>170.8</ele>
      </trkpt>
      <trkpt lat="45.47643" lon="-75.809">
        <ele>170.9</ele>
      </trkpt>
      <trkpt lat="45.47644" lon="-75.80886">
        <ele>171</ele>
      </trkpt>
      <trkpt lat="45.47652" lon="-75.80873">
        <ele>171.5</ele>
      </trkpt>
      <trkpt lat="45.47683" lon="-75.80837">
        <ele>173</ele>
      </trkpt>
      <trkpt lat="45.47691" lon="-75.80826">
        <ele>173.8</ele>
      </trkpt>
      <trkpt lat="45.47704" lon="-75.80802">
        <ele>175.7</ele>
      </trkpt>
      <trkpt lat="45.47722" lon="-75.80778">
        <ele>177.7</ele>
      </trkpt>
      <trkpt lat="45.47737" lon="-75.80753">
        <ele>178.9</ele>
      </trkpt>
      <trkpt lat="45.47738" lon="-75.80732">
        <ele>180.2</ele>
      </trkpt>
      <trkpt lat="45.47731" lon="-75.80714">
        <ele>181.8</ele>
      </trkpt>
      <trkpt lat="45.47705" lon="-75.80667">
        <ele>184.7</ele>
      </trkpt>
      <trkpt lat="45.47684" lon="-75.80632">
        <ele>184</ele>
      </trkpt>
      <trkpt lat="45.47679" lon="-75.80612">
        <ele>183</ele>
      </trkpt>
      <trkpt lat="45.47677" lon="-75.80587">
        <ele>181.6</ele>
      </trkpt>
      <trkpt lat="45.47677" lon="-75.80525">
        <ele>177.2</ele>
      </trkpt>
      <trkpt lat="45.47679" lon="-75.80505">
        <ele>175.4</ele>
      </trkpt>
      <trkpt lat="45.47687" lon="-75.80471">
        <ele>172.2</ele>
      </trkpt>
      <trkpt lat="45.47689" lon="-75.8044">
        <ele>169.7</ele>
      </trkpt>
      <trkpt lat="45.47695" lon="-75.80389">
        <ele>167</ele>
      </trkpt>
      <trkpt lat="45.47693" lon="-75.80374">
        <ele>166.8</ele>
      </trkpt>
      <trkpt lat="45.47686" lon="-75.80363">
        <ele>166.6</ele>
      </trkpt>
      <trkpt lat="45.47674" lon="-75.80351">
        <ele>166.4</ele>
      </trkpt>
      <trkpt lat="45.47647" lon="-75.8034">
        <ele>166.6</ele>
      </trkpt>
      <trkpt lat="45.47634" lon="-75.80329">
        <ele>167.2</ele>
      </trkpt>
      <trkpt lat="45.47611" lon="-75.80318">
        <ele>167.7</ele>
      </trkpt>
      <trkpt lat="45.47585" lon="-75.80301">
        <ele>168.3</ele>
      </trkpt>
      <trkpt lat="45.47568" lon="-75.80282">
        <ele>169.9</ele>
      </trkpt>
      <trkpt lat="45.4756" lon="-75.80271">
        <ele>171</ele>
      </trkpt>
      <trkpt lat="45.47558" lon="-75.80267">
        <ele>171.6</ele>
      </trkpt>
      <trkpt lat="45.47557" lon="-75.80246">
        <ele>173.9</ele>
      </trkpt>
      <trkpt lat="45.47557" lon="-75.80226">
        <ele>176</ele>
      </trkpt>
      <trkpt lat="45.47569" lon="-75.80145">
        <ele>183</ele>
      </trkpt>
      <trkpt lat="45.47568" lon="-75.80094">
        <ele>182.3</ele>
      </trkpt>
      <trkpt lat="45.47576" lon="-75.80055">
        <ele>179.7</ele>
      </trkpt>
      <trkpt lat="45.4759" lon="-75.80019">
        <ele>177.4</ele>
      </trkpt>
      <trkpt lat="45.47591" lon="-75.80009">
        <ele>176.6</ele>
      </trkpt>
      <trkpt lat="45.47589" lon="-75.79999">
        <ele>175.9</ele>
      </trkpt>
      <trkpt lat="45.47583" lon="-75.79987">
        <ele>175</ele>
      </trkpt>
      <trkpt lat="45.47555" lon="-75.79954">
        <ele>172.4</ele>
      </trkpt>
      <trkpt lat="45.47543" lon="-75.79943">
        <ele>172.1</ele>
      </trkpt>
      <trkpt lat="45.47517" lon="-75.79926">
        <ele>172.3</ele>
      </trkpt>
      <trkpt lat="45.47506" lon="-75.79924">
        <ele>172</ele>
      </trkpt>
      <trkpt lat="45.47499" lon="-75.79928">
        <ele>171.3</ele>
      </trkpt>
      <trkpt lat="45.47482" lon="-75.79947">
        <ele>169</ele>
      </trkpt>
      <trkpt lat="45.47476" lon="-75.7995">
        <ele>168.3</ele>
      </trkpt>
      <trkpt lat="45.47468" lon="-75.79949">
        <ele>168.1</ele>
      </trkpt>
      <trkpt lat="45.47458" lon="-75.79944">
        <ele>168</ele>
      </trkpt>
      <trkpt lat="45.47453" lon="-75.79937">
        <ele>168.2</ele>
      </trkpt>
      <trkpt lat="45.4745" lon="-75.79928">
        <ele>168.4</ele>
      </trkpt>
      <trkpt lat="45.47447" lon="-75.79898">
        <ele>169</ele>
      </trkpt>
      <trkpt lat="45.47449" lon="-75.79847">
        <ele>168.9</ele>
      </trkpt>
      <trkpt lat="45.47454" lon="-75.79776">
        <ele>166.3</ele>
      </trkpt>
      <trkpt lat="45.47456" lon="-75.7976">
        <ele>166.3</ele>
      </trkpt>
      <trkpt lat="45.47468" lon="-75.79735">
        <ele>166.8</ele>
      </trkpt>
      <trkpt lat="45.47481" lon="-75.79687">
        <ele>163.9</ele>
      </trkpt>
      <trkpt lat="45.47486" lon="-75.79652">
        <ele>160.3</ele>
      </trkpt>
      <trkpt lat="45.47492" lon="-75.79596">
        <ele>154.7</ele>
      </trkpt>
      <trkpt lat="45.47508" lon="-75.79528">
        <ele>150</ele>
      </trkpt>
      <trkpt lat="45.47511" lon="-75.79508">
        <ele>149.6</ele>
      </trkpt>
      <trkpt lat="45.4751" lon="-75.79498">
        <ele>149.8</ele>
      </trkpt>
      <trkpt lat="45.47506" lon="-75.7949">
        <ele>150</ele>
      </trkpt>
      <trkpt lat="45.47511" lon="-75.79489">
        <ele>150.2</ele>
      </trkpt>
      <trkpt lat="45.47532" lon="-75.79464">
        <ele>148.3</ele>
      </trkpt>
      <trkpt lat="45.47557" lon="-75.79442">
        <ele>144.9</ele>
      </trkpt>
      <trkpt lat="45.47565" lon="-75.79437">
        <ele>144</ele>
      </trkpt>
      <trkpt lat="45.47572" lon="-75.79434">
        <ele>143.5</ele>
      </trkpt>
      <trkpt lat="45.47604" lon="-75.7943">
        <ele>142.1</ele>
      </trkpt>
      <trkpt lat="45.47627" lon="-75.79432">
        <ele>141.9</ele>
      </trkpt>
      <trkpt lat="45.47636" lon="-75.79432">
        <ele>141.8</ele>
      </trkpt>
      <trkpt lat="45.47644" lon="-75.79428">
        <ele>141.4</ele>
      </trkpt>
      <trkpt lat="45.47651" lon="-75.79422">
        <ele>140.8</ele>
      </trkpt>
      <trkpt lat="45.47667" lon="-75.79414">
        <ele>139.8</ele>
      </trkpt>
      <trkpt lat="45.47689" lon="-75.79406">
        <ele>137.9</ele>
      </trkpt>
      <trkpt lat="45.47698" lon="-75.79399">
        <ele>136.5</ele>
      </trkpt>
      <trkpt lat="45.47715" lon="-75.79382">
        <ele>132.6</ele>
      </trkpt>
      <trkpt lat="45.47734" lon="-75.79371">
        <ele>129.2</ele>
      </trkpt>
      <trkpt lat="45.47759" lon="-75.79376">
        <ele>126.4</ele>
      </trkpt>
      <trkpt lat="45.47793" lon="-75.79388">
        <ele>122.1</ele>
      </trkpt>
      <trkpt lat="45.47804" lon="-75.79392">
        <ele>120.8</ele>
      </trkpt>
      <trkpt lat="45.47833" lon="-75.79394">
        <ele>117</ele>
      </trkpt>
      <trkpt lat="45.47865" lon="-75.79358">
        <ele>113.6</ele>
      </trkpt>
      <trkpt lat="45.47875" lon="-75.79351">
        <ele>113.2</ele>
      </trkpt>
      <trkpt lat="45.47899" lon="-75.79338">
        <ele>112.7</ele>
      </trkpt>
      <trkpt lat="45.47905" lon="-75.79335">
        <ele>112.5</ele>
      </trkpt>
      <trkpt lat="45.47898" lon="-75.79311">
        <ele>111.7</ele>
      </trkpt>
      <trkpt lat="45.47849" lon="-75.79123">
        <ele>105.6</ele>
      </trkpt>
      <trkpt lat="45.47847" lon="-75.79111">
        <ele>105.4</ele>
      </trkpt>
      <trkpt lat="45.47848" lon="-75.79105">
        <ele>105.3</ele>
      </trkpt>
      <trkpt lat="45.4785" lon="-75.79101">
        <ele>105.2</ele>
      </trkpt>
      <trkpt lat="45.47854" lon="-75.79099">
        <ele>105.1</ele>
      </trkpt>
      <trkpt lat="45.47908" lon="-75.79078">
        <ele>104.9</ele>
      </trkpt>
      <trkpt lat="45.47904" lon="-75.79059">
        <ele>104.6</ele>
      </trkpt>
      <trkpt lat="45.47904" lon="-75.79035">
        <ele>103.9</ele>
      </trkpt>
      <trkpt lat="45.47903" lon="-75.79021">
        <ele>103.7</ele>
      </trkpt>
      <trkpt lat="45.47919" lon="-75.79018">
        <ele>103.4</ele>
      </trkpt>
      <trkpt lat="45.47935" lon="-75.79017">
        <ele>103.3</ele>
      </trkpt>
      <trkpt lat="45.47945" lon="-75.79014">
        <ele>103.2</ele>
      </trkpt>
      <trkpt lat="45.47949" lon="-75.79011">
        <ele>103.2</ele>
      </trkpt>
      <trkpt lat="45.47964" lon="-75.78996">
        <ele>103</ele>
      </trkpt>
      <trkpt lat="45.47967" lon="-75.78992">
        <ele>103</ele>
      </trkpt>
      <trkpt lat="45.47969" lon="-75.78986">
        <ele>103</ele>
      </trkpt>
      <trkpt lat="45.47969" lon="-75.78981">
        <ele>103</ele>
      </trkpt>
      <trkpt lat="45.47968" lon="-75.78975">
        <ele>102.9</ele>
      </trkpt>
      <trkpt lat="45.47966" lon="-75.78969">
        <ele>102.9</ele>
      </trkpt>
      <trkpt lat="45.47928" lon="-75.78899">
        <ele>101.9</ele>
      </trkpt>
      <trkpt lat="45.4788" lon="-75.78811">
        <ele>100.4</ele>
      </trkpt>
    </trkseg>
  </trk>
</gpx>