<?xml version="1.0" encoding="UTF-8" standalone="yes"?>
<gpx version="1.1" creator="https://onthegomap.com" xmlns="http://www.topografix.com/GPX/1/1">
  <metadata>
    <name>8.8km route</name>
    <link href="https://onthegomap.com">
      <text>On The Go Map</text>
    </link>
    <time>2026-03-09T01:23:33.227Z</time>
    <copyright author="On The Go Map, OpenStreetMap Contributors">
      <year>2026</year>
    </copyright>
  </metadata>
  <trk>
    <name>8.8km route</name>
    <trkseg>
      <trkpt lat="45.47884" lon="-75.78817">
        <ele>100.5</ele>
      </trkpt>
      <trkpt lat="45.47868" lon="-75.78788">
        <ele>99.7</ele>
      </trkpt>
      <trkpt lat="45.47863" lon="-75.78782">
        <ele>99.6</ele>
      </trkpt>
      <trkpt lat="45.47859" lon="-75.78781">
        <ele>99.6</ele>
      </trkpt>
      <trkpt lat="45.47852" lon="-75.78784">
        <ele>99.7</ele>
      </trkpt>
      <trkpt lat="45.47806" lon="-75.78834">
        <ele>102.1</ele>
      </trkpt>
      <trkpt lat="45.47769" lon="-75.78755">
        <ele>100.3</ele>
      </trkpt>
      <trkpt lat="45.47741" lon="-75.78693">
        <ele>98.9</ele>
      </trkpt>
      <trkpt lat="45.47738" lon="-75.78675">
        <ele>98.3</ele>
      </trkpt>
      <trkpt lat="45.47737" lon="-75.78652">
        <ele>97.9</ele>
      </trkpt>
      <trkpt lat="45.47746" lon="-75.78612">
        <ele>97.3</ele>
      </trkpt>
      <trkpt lat="45.47747" lon="-75.78587">
        <ele>97</ele>
      </trkpt>
      <trkpt lat="45.47746" lon="-75.78575">
        <ele>97</ele>
      </trkpt>
      <trkpt lat="45.4774" lon="-75.78555">
        <ele>97</ele>
      </trkpt>
      <trkpt lat="45.47728" lon="-75.78534">
        <ele>97.3</ele>
      </trkpt>
      <trkpt lat="45.47726" lon="-75.7853">
        <ele>97.4</ele>
      </trkpt>
      <trkpt lat="45.47654" lon="-75.784">
        <ele>98.4</ele>
      </trkpt>
      <trkpt lat="45.47645" lon="-75.7839">
        <ele>98.7</ele>
      </trkpt>
      <trkpt lat="45.47639" lon="-75.78388">
        <ele>98.9</ele>
      </trkpt>
      <trkpt lat="45.47615" lon="-75.78382">
        <ele>99</ele>
      </trkpt>
      <trkpt lat="45.47489" lon="-75.78361">
        <ele>99.4</ele>
      </trkpt>
      <trkpt lat="45.47475" lon="-75.78362">
        <ele>100.2</ele>
      </trkpt>
      <trkpt lat="45.47458" lon="-75.78371">
        <ele>101.9</ele>
      </trkpt>
      <trkpt lat="45.47454" lon="-75.78374">
        <ele>102.5</ele>
      </trkpt>
      <trkpt lat="45.4745" lon="-75.7838">
        <ele>103.2</ele>
      </trkpt>
      <trkpt lat="45.47426" lon="-75.78417">
        <ele>107.3</ele>
      </trkpt>
      <trkpt lat="45.47421" lon="-75.78424">
        <ele>108.2</ele>
      </trkpt>
      <trkpt lat="45.47416" lon="-75.78416">
        <ele>108.2</ele>
      </trkpt>
      <trkpt lat="45.47384" lon="-75.7837">
        <ele>107.6</ele>
      </trkpt>
      <trkpt lat="45.47339" lon="-75.783">
        <ele>109.1</ele>
      </trkpt>
      <trkpt lat="45.47326" lon="-75.78278">
        <ele>108.7</ele>
      </trkpt>
      <trkpt lat="45.47283" lon="-75.78207">
        <ele>108.1</ele>
      </trkpt>
      <trkpt lat="45.47259" lon="-75.78173">
        <ele>106.6</ele>
      </trkpt>
      <trkpt lat="45.47229" lon="-75.78136">
        <ele>105.7</ele>
      </trkpt>
      <trkpt lat="45.47205" lon="-75.78109">
        <ele>104.9</ele>
      </trkpt>
      <trkpt lat="45.472" lon="-75.78103">
        <ele>104.8</ele>
      </trkpt>
      <trkpt lat="45.47191" lon="-75.78092">
        <ele>104.8</ele>
      </trkpt>
      <trkpt lat="45.47187" lon="-75.78089">
        <ele>104.8</ele>
      </trkpt>
      <trkpt lat="45.47184" lon="-75.78085">
        <ele>104.8</ele>
      </trkpt>
      <trkpt lat="45.4719" lon="-75.78075">
        <ele>104.6</ele>
      </trkpt>
      <trkpt lat="45.4719" lon="-75.78069">
        <ele>104.4</ele>
      </trkpt>
      <trkpt lat="45.47196" lon="-75.78066">
        <ele>104.1</ele>
      </trkpt>
      <trkpt lat="45.47202" lon="-75.78058">
        <ele>103.6</ele>
      </trkpt>
      <trkpt lat="45.47213" lon="-75.78039">
        <ele>102.7</ele>
      </trkpt>
      <trkpt lat="45.47255" lon="-75.77963">
        <ele>100.7</ele>
      </trkpt>
      <trkpt lat="45.47267" lon="-75.77941">
        <ele>98.6</ele>
      </trkpt>
      <trkpt lat="45.47322" lon="-75.77841">
        <ele>92.9</ele>
      </trkpt>
      <trkpt lat="45.47341" lon="-75.77801">
        <ele>93.5</ele>
      </trkpt>
      <trkpt lat="45.47352" lon="-75.7777">
        <ele>93.3</ele>
      </trkpt>
      <trkpt lat="45.47411" lon="-75.77585">
        <ele>94.6</ele>
      </trkpt>
      <trkpt lat="45.47419" lon="-75.77553">
        <ele>94</ele>
      </trkpt>
      <trkpt lat="45.47451" lon="-75.77451">
        <ele>94.8</ele>
      </trkpt>
      <trkpt lat="45.47454" lon="-75.77437">
        <ele>95.4</ele>
      </trkpt>
      <trkpt lat="45.47458" lon="-75.77426">
        <ele>96.1</ele>
      </trkpt>
      <trkpt lat="45.47463" lon="-75.7741">
        <ele>97</ele>
      </trkpt>
      <trkpt lat="45.47465" lon="-75.77402">
        <ele>97.5</ele>
      </trkpt>
      <trkpt lat="45.47467" lon="-75.77396">
        <ele>97.8</ele>
      </trkpt>
      <trkpt lat="45.47477" lon="-75.77351">
        <ele>100.6</ele>
      </trkpt>
      <trkpt lat="45.4748" lon="-75.77316">
        <ele>102</ele>
      </trkpt>
      <trkpt lat="45.47478" lon="-75.77285">
        <ele>102</ele>
      </trkpt>
      <trkpt lat="45.47471" lon="-75.77231">
        <ele>102</ele>
      </trkpt>
      <trkpt lat="45.4747" lon="-75.77224">
        <ele>102</ele>
      </trkpt>
      <trkpt lat="45.47469" lon="-75.77215">
        <ele>102</ele>
      </trkpt>
      <trkpt lat="45.47465" lon="-75.77179">
        <ele>102</ele>
      </trkpt>
      <trkpt lat="45.47463" lon="-75.7716">
        <ele>102</ele>
      </trkpt>
      <trkpt lat="45.47461" lon="-75.7715">
        <ele>102</ele>
      </trkpt>
      <trkpt lat="45.4746" lon="-75.77138">
        <ele>102</ele>
      </trkpt>
      <trkpt lat="45.47455" lon="-75.77099">
        <ele>102</ele>
      </trkpt>
      <trkpt lat="45.47446" lon="-75.77025">
        <ele>101</ele>
      </trkpt>
      <trkpt lat="45.4744" lon="-75.76974">
        <ele>100.6</ele>
      </trkpt>
      <trkpt lat="45.47433" lon="-75.76922">
        <ele>100</ele>
      </trkpt>
      <trkpt lat="45.47424" lon="-75.76851">
        <ele>99.3</ele>
      </trkpt>
      <trkpt lat="45.47417" lon="-75.76796">
        <ele>97.9</ele>
      </trkpt>
      <trkpt lat="45.47408" lon="-75.76728">
        <ele>95.4</ele>
      </trkpt>
      <trkpt lat="45.47401" lon="-75.76678">
        <ele>94</ele>
      </trkpt>
      <trkpt lat="45.47394" lon="-75.76643">
        <ele>94</ele>
      </trkpt>
      <trkpt lat="45.47382" lon="-75.76602">
        <ele>93</ele>
      </trkpt>
      <trkpt lat="45.47362" lon="-75.76553">
        <ele>93</ele>
      </trkpt>
      <trkpt lat="45.47345" lon="-75.7652">
        <ele>93</ele>
      </trkpt>
      <trkpt lat="45.47312" lon="-75.76469">
        <ele>93</ele>
      </trkpt>
      <trkpt lat="45.47304" lon="-75.76456">
        <ele>93</ele>
      </trkpt>
      <trkpt lat="45.47301" lon="-75.76452">
        <ele>93</ele>
      </trkpt>
      <trkpt lat="45.47227" lon="-75.76336">
        <ele>93</ele>
      </trkpt>
      <trkpt lat="45.47211" lon="-75.76307">
        <ele>93</ele>
      </trkpt>
      <trkpt lat="45.47191" lon="-75.76266">
        <ele>93</ele>
      </trkpt>
      <trkpt lat="45.47176" lon="-75.76223">
        <ele>92.9</ele>
      </trkpt>
      <trkpt lat="45.47171" lon="-75.76205">
        <ele>92.5</ele>
      </trkpt>
      <trkpt lat="45.47176" lon="-75.76201">
        <ele>92.3</ele>
      </trkpt>
      <trkpt lat="45.47187" lon="-75.76194">
        <ele>92.1</ele>
      </trkpt>
      <trkpt lat="45.47191" lon="-75.76192">
        <ele>92.1</ele>
      </trkpt>
      <trkpt lat="45.47169" lon="-75.76025">
        <ele>92.7</ele>
      </trkpt>
      <trkpt lat="45.47172" lon="-75.76025">
        <ele>92.7</ele>
      </trkpt>
      <trkpt lat="45.47167" lon="-75.75963">
        <ele>92.6</ele>
      </trkpt>
      <trkpt lat="45.47158" lon="-75.75691">
        <ele>89</ele>
      </trkpt>
      <trkpt lat="45.47158" lon="-75.75685">
        <ele>88.9</ele>
      </trkpt>
      <trkpt lat="45.47217" lon="-75.75679">
        <ele>88.4</ele>
      </trkpt>
      <trkpt lat="45.47219" lon="-75.75679">
        <ele>88.4</ele>
      </trkpt>
      <trkpt lat="45.47241" lon="-75.75689">
        <ele>89.2</ele>
      </trkpt>
      <trkpt lat="45.47272" lon="-75.75711">
        <ele>90.1</ele>
      </trkpt>
      <trkpt lat="45.47353" lon="-75.75773">
        <ele>83.3</ele>
      </trkpt>
      <trkpt lat="45.47363" lon="-75.75782">
        <ele>81.6</ele>
      </trkpt>
      <trkpt lat="45.47384" lon="-75.75808">
        <ele>78.5</ele>
      </trkpt>
      <trkpt lat="45.47393" lon="-75.75815">
        <ele>77.3</ele>
      </trkpt>
      <trkpt lat="45.47409" lon="-75.75836">
        <ele>75.1</ele>
      </trkpt>
      <trkpt lat="45.47426" lon="-75.75847">
        <ele>73.6</ele>
      </trkpt>
      <trkpt lat="45.47438" lon="-75.75849">
        <ele>72.7</ele>
      </trkpt>
      <trkpt lat="45.47448" lon="-75.7585">
        <ele>72.4</ele>
      </trkpt>
      <trkpt lat="45.4746" lon="-75.75854">
        <ele>72.3</ele>
      </trkpt>
      <trkpt lat="45.47466" lon="-75.75858">
        <ele>72.4</ele>
      </trkpt>
      <trkpt lat="45.47473" lon="-75.75864">
        <ele>72.3</ele>
      </trkpt>
      <trkpt lat="45.47492" lon="-75.75889">
        <ele>72</ele>
      </trkpt>
      <trkpt lat="45.47496" lon="-75.75895">
        <ele>72.1</ele>
      </trkpt>
      <trkpt lat="45.47499" lon="-75.75898">
        <ele>72.1</ele>
      </trkpt>
      <trkpt lat="45.47522" lon="-75.7593">
        <ele>72.1</ele>
      </trkpt>
      <trkpt lat="45.47536" lon="-75.7596">
        <ele>72.4</ele>
      </trkpt>
      <trkpt lat="45.4754" lon="-75.75968">
        <ele>72.3</ele>
      </trkpt>
      <trkpt lat="45.47572" lon="-75.76035">
        <ele>70.7</ele>
      </trkpt>
      <trkpt lat="45.47605" lon="-75.76153">
        <ele>74.7</ele>
      </trkpt>
      <trkpt lat="45.47605" lon="-75.76157">
        <ele>74.8</ele>
      </trkpt>
      <trkpt lat="45.47606" lon="-75.76178">
        <ele>75.3</ele>
      </trkpt>
      <trkpt lat="45.47605" lon="-75.76191">
        <ele>75.4</ele>
      </trkpt>
      <trkpt lat="45.47602" lon="-75.76206">
        <ele>75.3</ele>
      </trkpt>
      <trkpt lat="45.47596" lon="-75.76219">
        <ele>75</ele>
      </trkpt>
      <trkpt lat="45.47634" lon="-75.76279">
        <ele>73.4</ele>
      </trkpt>
      <trkpt lat="45.47656" lon="-75.76314">
        <ele>73</ele>
      </trkpt>
      <trkpt lat="45.47668" lon="-75.76327">
        <ele>72.7</ele>
      </trkpt>
      <trkpt lat="45.47684" lon="-75.76335">
        <ele>72.1</ele>
      </trkpt>
      <trkpt lat="45.47689" lon="-75.7634">
        <ele>71.9</ele>
      </trkpt>
      <trkpt lat="45.47693" lon="-75.76348">
        <ele>71.8</ele>
      </trkpt>
      <trkpt lat="45.47694" lon="-75.76359">
        <ele>71.7</ele>
      </trkpt>
      <trkpt lat="45.47702" lon="-75.76425">
        <ele>71.5</ele>
      </trkpt>
      <trkpt lat="45.47714" lon="-75.76512">
        <ele>74.7</ele>
      </trkpt>
      <trkpt lat="45.47714" lon="-75.76519">
        <ele>75.1</ele>
      </trkpt>
      <trkpt lat="45.47714" lon="-75.7652">
        <ele>75.2</ele>
      </trkpt>
      <trkpt lat="45.47711" lon="-75.76527">
        <ele>75.6</ele>
      </trkpt>
      <trkpt lat="45.47707" lon="-75.76532">
        <ele>75.8</ele>
      </trkpt>
      <trkpt lat="45.47702" lon="-75.76535">
        <ele>76.1</ele>
      </trkpt>
      <trkpt lat="45.47697" lon="-75.76535">
        <ele>76.2</ele>
      </trkpt>
      <trkpt lat="45.47663" lon="-75.7653">
        <ele>76.6</ele>
      </trkpt>
      <trkpt lat="45.47658" lon="-75.76528">
        <ele>76.6</ele>
      </trkpt>
      <trkpt lat="45.47649" lon="-75.76518">
        <ele>76.3</ele>
      </trkpt>
      <trkpt lat="45.47646" lon="-75.7651">
        <ele>76.1</ele>
      </trkpt>
      <trkpt lat="45.47634" lon="-75.76432">
        <ele>74.9</ele>
      </trkpt>
      <trkpt lat="45.47634" lon="-75.76431">
        <ele>74.9</ele>
      </trkpt>
      <trkpt lat="45.47629" lon="-75.76414">
        <ele>74.8</ele>
      </trkpt>
      <trkpt lat="45.47565" lon="-75.76314">
        <ele>76</ele>
      </trkpt>
      <trkpt lat="45.47561" lon="-75.76301">
        <ele>76.2</ele>
      </trkpt>
      <trkpt lat="45.47563" lon="-75.7629">
        <ele>76.1</ele>
      </trkpt>
      <trkpt lat="45.47587" lon="-75.76237">
        <ele>75.2</ele>
      </trkpt>
      <trkpt lat="45.47596" lon="-75.76219">
        <ele>75.1</ele>
      </trkpt>
      <trkpt lat="45.47602" lon="-75.76206">
        <ele>75.3</ele>
      </trkpt>
      <trkpt lat="45.47605" lon="-75.76191">
        <ele>75.6</ele>
      </trkpt>
      <trkpt lat="45.47606" lon="-75.76178">
        <ele>75.6</ele>
      </trkpt>
      <trkpt lat="45.47597" lon="-75.76158">
        <ele>75.4</ele>
      </trkpt>
      <trkpt lat="45.47565" lon="-75.76043">
        <ele>71.9</ele>
      </trkpt>
      <trkpt lat="45.47549" lon="-75.76008">
        <ele>72.7</ele>
      </trkpt>
      <trkpt lat="45.47534" lon="-75.75976">
        <ele>73.6</ele>
      </trkpt>
      <trkpt lat="45.47529" lon="-75.75967">
        <ele>73.6</ele>
      </trkpt>
      <trkpt lat="45.47516" lon="-75.75939">
        <ele>73.5</ele>
      </trkpt>
      <trkpt lat="45.47491" lon="-75.75906">
        <ele>73.5</ele>
      </trkpt>
      <trkpt lat="45.4749" lon="-75.75905">
        <ele>73.5</ele>
      </trkpt>
      <trkpt lat="45.47466" lon="-75.75873">
        <ele>72.9</ele>
      </trkpt>
      <trkpt lat="45.47457" lon="-75.75865">
        <ele>72.9</ele>
      </trkpt>
      <trkpt lat="45.47442" lon="-75.75861">
        <ele>73.2</ele>
      </trkpt>
      <trkpt lat="45.47433" lon="-75.75859">
        <ele>73.6</ele>
      </trkpt>
      <trkpt lat="45.47416" lon="-75.75855">
        <ele>74.6</ele>
      </trkpt>
      <trkpt lat="45.47404" lon="-75.75845">
        <ele>75.4</ele>
      </trkpt>
      <trkpt lat="45.47401" lon="-75.75853">
        <ele>75.7</ele>
      </trkpt>
      <trkpt lat="45.47392" lon="-75.75876">
        <ele>76.3</ele>
      </trkpt>
      <trkpt lat="45.47389" lon="-75.75954">
        <ele>78.2</ele>
      </trkpt>
      <trkpt lat="45.47388" lon="-75.75992">
        <ele>79.7</ele>
      </trkpt>
      <trkpt lat="45.47383" lon="-75.76005">
        <ele>80.5</ele>
      </trkpt>
      <trkpt lat="45.47379" lon="-75.76008">
        <ele>80.6</ele>
      </trkpt>
      <trkpt lat="45.47371" lon="-75.7601">
        <ele>80.3</ele>
      </trkpt>
      <trkpt lat="45.47319" lon="-75.76005">
        <ele>80.9</ele>
      </trkpt>
      <trkpt lat="45.47324" lon="-75.75878">
        <ele>80.3</ele>
      </trkpt>
      <trkpt lat="45.47324" lon="-75.75871">
        <ele>80.9</ele>
      </trkpt>
      <trkpt lat="45.47321" lon="-75.75864">
        <ele>82</ele>
      </trkpt>
      <trkpt lat="45.47315" lon="-75.75857">
        <ele>83.5</ele>
      </trkpt>
      <trkpt lat="45.473" lon="-75.75846">
        <ele>86.7</ele>
      </trkpt>
      <trkpt lat="45.47267" lon="-75.75819">
        <ele>90.9</ele>
      </trkpt>
      <trkpt lat="45.47263" lon="-75.75814">
        <ele>91.3</ele>
      </trkpt>
      <trkpt lat="45.47261" lon="-75.75808">
        <ele>91.6</ele>
      </trkpt>
      <trkpt lat="45.47258" lon="-75.75765">
        <ele>91.7</ele>
      </trkpt>
      <trkpt lat="45.47258" lon="-75.75755">
        <ele>91.5</ele>
      </trkpt>
      <trkpt lat="45.4726" lon="-75.75746">
        <ele>91.2</ele>
      </trkpt>
      <trkpt lat="45.47272" lon="-75.75711">
        <ele>90.2</ele>
      </trkpt>
      <trkpt lat="45.47241" lon="-75.75689">
        <ele>89.3</ele>
      </trkpt>
      <trkpt lat="45.47217" lon="-75.75679">
        <ele>88.4</ele>
      </trkpt>
      <trkpt lat="45.47158" lon="-75.75685">
        <ele>88.8</ele>
      </trkpt>
      <trkpt lat="45.4716" lon="-75.75733">
        <ele>90.6</ele>
      </trkpt>
      <trkpt lat="45.47167" lon="-75.75963">
        <ele>92.6</ele>
      </trkpt>
      <trkpt lat="45.47172" lon="-75.76025">
        <ele>92.7</ele>
      </trkpt>
      <trkpt lat="45.47169" lon="-75.76025">
        <ele>92.7</ele>
      </trkpt>
      <trkpt lat="45.47191" lon="-75.76192">
        <ele>92.1</ele>
      </trkpt>
      <trkpt lat="45.47187" lon="-75.76194">
        <ele>92.1</ele>
      </trkpt>
      <trkpt lat="45.47176" lon="-75.76201">
        <ele>92.3</ele>
      </trkpt>
      <trkpt lat="45.47171" lon="-75.76205">
        <ele>92.5</ele>
      </trkpt>
      <trkpt lat="45.47172" lon="-75.76209">
        <ele>92.6</ele>
      </trkpt>
      <trkpt lat="45.47176" lon="-75.76223">
        <ele>92.9</ele>
      </trkpt>
      <trkpt lat="45.47191" lon="-75.76266">
        <ele>93</ele>
      </trkpt>
      <trkpt lat="45.47211" lon="-75.76307">
        <ele>93</ele>
      </trkpt>
      <trkpt lat="45.47227" lon="-75.76336">
        <ele>93</ele>
      </trkpt>
      <trkpt lat="45.47301" lon="-75.76452">
        <ele>93</ele>
      </trkpt>
      <trkpt lat="45.47304" lon="-75.76456">
        <ele>93</ele>
      </trkpt>
      <trkpt lat="45.47312" lon="-75.76469">
        <ele>93</ele>
      </trkpt>
      <trkpt lat="45.47345" lon="-75.7652">
        <ele>93</ele>
      </trkpt>
      <trkpt lat="45.47362" lon="-75.76553">
        <ele>93</ele>
      </trkpt>
      <trkpt lat="45.47382" lon="-75.76602">
        <ele>93</ele>
      </trkpt>
      <trkpt lat="45.47394" lon="-75.76643">
        <ele>94</ele>
      </trkpt>
      <trkpt lat="45.47401" lon="-75.76678">
        <ele>94</ele>
      </trkpt>
      <trkpt lat="45.47408" lon="-75.76728">
        <ele>95.4</ele>
      </trkpt>
      <trkpt lat="45.47417" lon="-75.76796">
        <ele>97.9</ele>
      </trkpt>
      <trkpt lat="45.47424" lon="-75.76851">
        <ele>99.3</ele>
      </trkpt>
      <trkpt lat="45.47433" lon="-75.76922">
        <ele>100</ele>
      </trkpt>
      <trkpt lat="45.4744" lon="-75.76974">
        <ele>100.6</ele>
      </trkpt>
      <trkpt lat="45.47446" lon="-75.77025">
        <ele>101</ele>
      </trkpt>
      <trkpt lat="45.47455" lon="-75.77099">
        <ele>102</ele>
      </trkpt>
      <trkpt lat="45.4746" lon="-75.77138">
        <ele>102</ele>
      </trkpt>
      <trkpt lat="45.47461" lon="-75.7715">
        <ele>102</ele>
      </trkpt>
      <trkpt lat="45.47463" lon="-75.7716">
        <ele>102</ele>
      </trkpt>
      <trkpt lat="45.47465" lon="-75.77179">
        <ele>102</ele>
      </trkpt>
      <trkpt lat="45.47469" lon="-75.77215">
        <ele>102</ele>
      </trkpt>
      <trkpt lat="45.4747" lon="-75.77224">
        <ele>102</ele>
      </trkpt>
      <trkpt lat="45.47471" lon="-75.77231">
        <ele>102</ele>
      </trkpt>
      <trkpt lat="45.47478" lon="-75.77285">
        <ele>102</ele>
      </trkpt>
      <trkpt lat="45.4748" lon="-75.77316">
        <ele>102</ele>
      </trkpt>
      <trkpt lat="45.47477" lon="-75.77351">
        <ele>100.6</ele>
      </trkpt>
      <trkpt lat="45.47467" lon="-75.77396">
        <ele>97.8</ele>
      </trkpt>
      <trkpt lat="45.47465" lon="-75.77402">
        <ele>97.5</ele>
      </trkpt>
      <trkpt lat="45.47463" lon="-75.7741">
        <ele>97</ele>
      </trkpt>
      <trkpt lat="45.47458" lon="-75.77426">
        <ele>96.1</ele>
      </trkpt>
      <trkpt lat="45.47454" lon="-75.77437">
        <ele>95.4</ele>
      </trkpt>
      <trkpt lat="45.47451" lon="-75.77451">
        <ele>94.8</ele>
      </trkpt>
      <trkpt lat="45.47419" lon="-75.77553">
        <ele>94</ele>
      </trkpt>
      <trkpt lat="45.47411" lon="-75.77585">
        <ele>94.6</ele>
      </trkpt>
      <trkpt lat="45.47352" lon="-75.7777">
        <ele>93.3</ele>
      </trkpt>
      <trkpt lat="45.47341" lon="-75.77801">
        <ele>93.5</ele>
      </trkpt>
      <trkpt lat="45.47322" lon="-75.77841">
        <ele>92.9</ele>
      </trkpt>
      <trkpt lat="45.47267" lon="-75.77941">
        <ele>98.6</ele>
      </trkpt>
      <trkpt lat="45.47255" lon="-75.77963">
        <ele>100.7</ele>
      </trkpt>
      <trkpt lat="45.47202" lon="-75.78058">
        <ele>103.6</ele>
      </trkpt>
      <trkpt lat="45.47197" lon="-75.78064">
        <ele>104</ele>
      </trkpt>
      <trkpt lat="45.47196" lon="-75.78066">
        <ele>104.1</ele>
      </trkpt>
      <trkpt lat="45.4719" lon="-75.78069">
        <ele>104.3</ele>
      </trkpt>
      <trkpt lat="45.4719" lon="-75.78075">
        <ele>104.4</ele>
      </trkpt>
      <trkpt lat="45.47196" lon="-75.78081">
        <ele>104.5</ele>
      </trkpt>
      <trkpt lat="45.47199" lon="-75.78084">
        <ele>104.5</ele>
      </trkpt>
      <trkpt lat="45.47202" lon="-75.78087">
        <ele>104.5</ele>
      </trkpt>
      <trkpt lat="45.47205" lon="-75.78092">
        <ele>104.4</ele>
      </trkpt>
      <trkpt lat="45.4721" lon="-75.78098">
        <ele>104.6</ele>
      </trkpt>
      <trkpt lat="45.47205" lon="-75.78109">
        <ele>104.9</ele>
      </trkpt>
      <trkpt lat="45.47229" lon="-75.78136">
        <ele>105.7</ele>
      </trkpt>
      <trkpt lat="45.47259" lon="-75.78173">
        <ele>106.6</ele>
      </trkpt>
      <trkpt lat="45.47283" lon="-75.78207">
        <ele>108.1</ele>
      </trkpt>
      <trkpt lat="45.47326" lon="-75.78278">
        <ele>108.7</ele>
      </trkpt>
      <trkpt lat="45.47339" lon="-75.783">
        <ele>109.1</ele>
      </trkpt>
      <trkpt lat="45.47384" lon="-75.7837">
        <ele>107.6</ele>
      </trkpt>
      <trkpt lat="45.47421" lon="-75.78424">
        <ele>108.1</ele>
      </trkpt>
      <trkpt lat="45.4743" lon="-75.78429">
        <ele>107.2</ele>
      </trkpt>
      <trkpt lat="45.47433" lon="-75.78433">
        <ele>106.9</ele>
      </trkpt>
      <trkpt lat="45.47434" lon="-75.78431">
        <ele>106.7</ele>
      </trkpt>
      <trkpt lat="45.47441" lon="-75.7844">
        <ele>106.1</ele>
      </trkpt>
      <trkpt lat="45.47459" lon="-75.78467">
        <ele>105.2</ele>
      </trkpt>
      <trkpt lat="45.47505" lon="-75.78544">
        <ele>104</ele>
      </trkpt>
      <trkpt lat="45.47535" lon="-75.78621">
        <ele>106.4</ele>
      </trkpt>
      <trkpt lat="45.47545" lon="-75.78646">
        <ele>107.2</ele>
      </trkpt>
      <trkpt lat="45.47631" lon="-75.78788">
        <ele>107.8</ele>
      </trkpt>
      <trkpt lat="45.47662" lon="-75.78843">
        <ele>109.1</ele>
      </trkpt>
      <trkpt lat="45.4767" lon="-75.78859">
        <ele>109.2</ele>
      </trkpt>
      <trkpt lat="45.4769" lon="-75.78919">
        <ele>110.9</ele>
      </trkpt>
      <trkpt lat="45.47693" lon="-75.78927">
        <ele>110.6</ele>
      </trkpt>
      <trkpt lat="45.47705" lon="-75.78919">
        <ele>108.3</ele>
      </trkpt>
      <trkpt lat="45.47772" lon="-75.78863">
        <ele>104.8</ele>
      </trkpt>
      <trkpt lat="45.47806" lon="-75.78834">
        <ele>102.3</ele>
      </trkpt>
      <trkpt lat="45.47852" lon="-75.78784">
        <ele>99.8</ele>
      </trkpt>
      <trkpt lat="45.47859" lon="-75.78781">
        <ele>99.6</ele>
      </trkpt>
      <trkpt lat="45.47863" lon="-75.78782">
        <ele>99.5</ele>
      </trkpt>
      <trkpt lat="45.47868" lon="-75.78788">
        <ele>99.7</ele>
      </trkpt>
      <trkpt lat="45.47883" lon="-75.78815">
        <ele>100.5</ele>
      </trkpt>
    </trkseg>
  </trk>
</gpx>