<?xml version="1.0" encoding="UTF-8" standalone="yes"?>
<gpx version="1.1" creator="https://onthegomap.com" xmlns="http://www.topografix.com/GPX/1/1">
  <metadata>
    <name>7.3km route</name>
    <link href="https://onthegomap.com">
      <text>On The Go Map</text>
    </link>
    <time>2026-03-16T13:12:10.859Z</time>
    <copyright author="On The Go Map, OpenStreetMap Contributors">
      <year>2026</year>
    </copyright>
  </metadata>
  <trk>
    <name>7.3km route</name>
    <trkseg>
      <trkpt lat="45.43741" lon="-75.73187">
        <ele>63.8</ele>
      </trkpt>
      <trkpt lat="45.43741" lon="-75.73195">
        <ele>64.4</ele>
      </trkpt>
      <trkpt lat="45.43741" lon="-75.7322">
        <ele>66</ele>
      </trkpt>
      <trkpt lat="45.43739" lon="-75.73253">
        <ele>68</ele>
      </trkpt>
      <trkpt lat="45.43739" lon="-75.73287">
        <ele>69.5</ele>
      </trkpt>
      <trkpt lat="45.43739" lon="-75.73297">
        <ele>69.8</ele>
      </trkpt>
      <trkpt lat="45.43739" lon="-75.73307">
        <ele>70.1</ele>
      </trkpt>
      <trkpt lat="45.43739" lon="-75.73344">
        <ele>71.1</ele>
      </trkpt>
      <trkpt lat="45.43739" lon="-75.73392">
        <ele>72</ele>
      </trkpt>
      <trkpt lat="45.43739" lon="-75.73415">
        <ele>72</ele>
      </trkpt>
      <trkpt lat="45.43738" lon="-75.73504">
        <ele>73.1</ele>
      </trkpt>
      <trkpt lat="45.43738" lon="-75.73511">
        <ele>73.1</ele>
      </trkpt>
      <trkpt lat="45.43738" lon="-75.7352">
        <ele>73.3</ele>
      </trkpt>
      <trkpt lat="45.43736" lon="-75.73709">
        <ele>76</ele>
      </trkpt>
      <trkpt lat="45.43736" lon="-75.73718">
        <ele>76.1</ele>
      </trkpt>
      <trkpt lat="45.43736" lon="-75.73724">
        <ele>76.2</ele>
      </trkpt>
      <trkpt lat="45.43734" lon="-75.73911">
        <ele>78</ele>
      </trkpt>
      <trkpt lat="45.43734" lon="-75.73918">
        <ele>78</ele>
      </trkpt>
      <trkpt lat="45.43734" lon="-75.73926">
        <ele>78.1</ele>
      </trkpt>
      <trkpt lat="45.43734" lon="-75.74109">
        <ele>77.9</ele>
      </trkpt>
      <trkpt lat="45.43734" lon="-75.74116">
        <ele>77.9</ele>
      </trkpt>
      <trkpt lat="45.43734" lon="-75.74123">
        <ele>77.9</ele>
      </trkpt>
      <trkpt lat="45.4373" lon="-75.74328">
        <ele>78.7</ele>
      </trkpt>
      <trkpt lat="45.4373" lon="-75.74339">
        <ele>78.7</ele>
      </trkpt>
      <trkpt lat="45.4373" lon="-75.74351">
        <ele>78.7</ele>
      </trkpt>
      <trkpt lat="45.4373" lon="-75.74359">
        <ele>78.7</ele>
      </trkpt>
      <trkpt lat="45.43731" lon="-75.74447">
        <ele>78.8</ele>
      </trkpt>
      <trkpt lat="45.43731" lon="-75.74454">
        <ele>78.8</ele>
      </trkpt>
      <trkpt lat="45.43731" lon="-75.74462">
        <ele>78.7</ele>
      </trkpt>
      <trkpt lat="45.43719" lon="-75.74607">
        <ele>75.4</ele>
      </trkpt>
      <trkpt lat="45.43714" lon="-75.74671">
        <ele>73.4</ele>
      </trkpt>
      <trkpt lat="45.43713" lon="-75.7468">
        <ele>73.1</ele>
      </trkpt>
      <trkpt lat="45.43715" lon="-75.74711">
        <ele>72.1</ele>
      </trkpt>
      <trkpt lat="45.43724" lon="-75.74745">
        <ele>71.5</ele>
      </trkpt>
      <trkpt lat="45.43736" lon="-75.74764">
        <ele>71.5</ele>
      </trkpt>
      <trkpt lat="45.43751" lon="-75.74777">
        <ele>71.2</ele>
      </trkpt>
      <trkpt lat="45.43761" lon="-75.74782">
        <ele>71.3</ele>
      </trkpt>
      <trkpt lat="45.43782" lon="-75.74785">
        <ele>72.6</ele>
      </trkpt>
      <trkpt lat="45.43796" lon="-75.74785">
        <ele>73.4</ele>
      </trkpt>
      <trkpt lat="45.43901" lon="-75.74787">
        <ele>80.7</ele>
      </trkpt>
      <trkpt lat="45.43898" lon="-75.74861">
        <ele>78.8</ele>
      </trkpt>
      <trkpt lat="45.43899" lon="-75.74867">
        <ele>78.5</ele>
      </trkpt>
      <trkpt lat="45.43905" lon="-75.74876">
        <ele>78.5</ele>
      </trkpt>
      <trkpt lat="45.43923" lon="-75.74886">
        <ele>79.4</ele>
      </trkpt>
      <trkpt lat="45.4405" lon="-75.74962">
        <ele>80.8</ele>
      </trkpt>
      <trkpt lat="45.44096" lon="-75.7498">
        <ele>82.2</ele>
      </trkpt>
      <trkpt lat="45.44165" lon="-75.74994">
        <ele>86.6</ele>
      </trkpt>
      <trkpt lat="45.44229" lon="-75.75003">
        <ele>89.7</ele>
      </trkpt>
      <trkpt lat="45.4426" lon="-75.75006">
        <ele>90</ele>
      </trkpt>
      <trkpt lat="45.44284" lon="-75.75009">
        <ele>90.7</ele>
      </trkpt>
      <trkpt lat="45.44288" lon="-75.75009">
        <ele>90.8</ele>
      </trkpt>
      <trkpt lat="45.44295" lon="-75.7501">
        <ele>91</ele>
      </trkpt>
      <trkpt lat="45.44294" lon="-75.75026">
        <ele>90.8</ele>
      </trkpt>
      <trkpt lat="45.44293" lon="-75.75048">
        <ele>90.2</ele>
      </trkpt>
      <trkpt lat="45.44303" lon="-75.75048">
        <ele>90.2</ele>
      </trkpt>
      <trkpt lat="45.44308" lon="-75.75051">
        <ele>90.2</ele>
      </trkpt>
      <trkpt lat="45.44313" lon="-75.75052">
        <ele>90.2</ele>
      </trkpt>
      <trkpt lat="45.44402" lon="-75.75063">
        <ele>91</ele>
      </trkpt>
      <trkpt lat="45.44432" lon="-75.75066">
        <ele>91</ele>
      </trkpt>
      <trkpt lat="45.44517" lon="-75.75077">
        <ele>90.4</ele>
      </trkpt>
      <trkpt lat="45.44534" lon="-75.75079">
        <ele>90.3</ele>
      </trkpt>
      <trkpt lat="45.44564" lon="-75.75083">
        <ele>90.1</ele>
      </trkpt>
      <trkpt lat="45.44571" lon="-75.75084">
        <ele>90.1</ele>
      </trkpt>
      <trkpt lat="45.44578" lon="-75.75085">
        <ele>90</ele>
      </trkpt>
      <trkpt lat="45.44615" lon="-75.75082">
        <ele>90</ele>
      </trkpt>
      <trkpt lat="45.44622" lon="-75.75085">
        <ele>90</ele>
      </trkpt>
      <trkpt lat="45.44637" lon="-75.7509">
        <ele>90</ele>
      </trkpt>
      <trkpt lat="45.44645" lon="-75.75091">
        <ele>90</ele>
      </trkpt>
      <trkpt lat="45.44648" lon="-75.751">
        <ele>90</ele>
      </trkpt>
      <trkpt lat="45.44656" lon="-75.75106">
        <ele>90</ele>
      </trkpt>
      <trkpt lat="45.44686" lon="-75.75131">
        <ele>90</ele>
      </trkpt>
      <trkpt lat="45.44708" lon="-75.75161">
        <ele>90</ele>
      </trkpt>
      <trkpt lat="45.4473" lon="-75.75185">
        <ele>90</ele>
      </trkpt>
      <trkpt lat="45.44755" lon="-75.75227">
        <ele>89.7</ele>
      </trkpt>
      <trkpt lat="45.44762" lon="-75.75238">
        <ele>89.4</ele>
      </trkpt>
      <trkpt lat="45.44774" lon="-75.75258">
        <ele>89</ele>
      </trkpt>
      <trkpt lat="45.4479" lon="-75.75291">
        <ele>89</ele>
      </trkpt>
      <trkpt lat="45.44805" lon="-75.75318">
        <ele>89</ele>
      </trkpt>
      <trkpt lat="45.44813" lon="-75.75333">
        <ele>89</ele>
      </trkpt>
      <trkpt lat="45.44875" lon="-75.75437">
        <ele>89.9</ele>
      </trkpt>
      <trkpt lat="45.44881" lon="-75.75447">
        <ele>90</ele>
      </trkpt>
      <trkpt lat="45.44887" lon="-75.75456">
        <ele>90</ele>
      </trkpt>
      <trkpt lat="45.44889" lon="-75.75463">
        <ele>90</ele>
      </trkpt>
      <trkpt lat="45.44908" lon="-75.75493">
        <ele>90</ele>
      </trkpt>
      <trkpt lat="45.44927" lon="-75.7552">
        <ele>90</ele>
      </trkpt>
      <trkpt lat="45.4497" lon="-75.75582">
        <ele>91</ele>
      </trkpt>
      <trkpt lat="45.44987" lon="-75.75603">
        <ele>91</ele>
      </trkpt>
      <trkpt lat="45.45044" lon="-75.75673">
        <ele>91</ele>
      </trkpt>
      <trkpt lat="45.45066" lon="-75.75697">
        <ele>91</ele>
      </trkpt>
      <trkpt lat="45.45076" lon="-75.75711">
        <ele>91.1</ele>
      </trkpt>
      <trkpt lat="45.45086" lon="-75.75724">
        <ele>91.3</ele>
      </trkpt>
      <trkpt lat="45.45153" lon="-75.75801">
        <ele>91.7</ele>
      </trkpt>
      <trkpt lat="45.45182" lon="-75.75829">
        <ele>91.5</ele>
      </trkpt>
      <trkpt lat="45.45208" lon="-75.75845">
        <ele>90.9</ele>
      </trkpt>
      <trkpt lat="45.45249" lon="-75.75855">
        <ele>90.2</ele>
      </trkpt>
      <trkpt lat="45.45313" lon="-75.75852">
        <ele>88.5</ele>
      </trkpt>
      <trkpt lat="45.4536" lon="-75.75856">
        <ele>85.6</ele>
      </trkpt>
      <trkpt lat="45.4537" lon="-75.75858">
        <ele>85.2</ele>
      </trkpt>
      <trkpt lat="45.45371" lon="-75.75858">
        <ele>85.2</ele>
      </trkpt>
      <trkpt lat="45.45377" lon="-75.75861">
        <ele>85</ele>
      </trkpt>
      <trkpt lat="45.45374" lon="-75.75867">
        <ele>85.1</ele>
      </trkpt>
      <trkpt lat="45.45369" lon="-75.75871">
        <ele>85.2</ele>
      </trkpt>
      <trkpt lat="45.45368" lon="-75.75883">
        <ele>85.3</ele>
      </trkpt>
      <trkpt lat="45.45368" lon="-75.75894">
        <ele>85.2</ele>
      </trkpt>
      <trkpt lat="45.45375" lon="-75.75898">
        <ele>85.1</ele>
      </trkpt>
      <trkpt lat="45.45386" lon="-75.75906">
        <ele>85</ele>
      </trkpt>
      <trkpt lat="45.45395" lon="-75.75917">
        <ele>85.1</ele>
      </trkpt>
      <trkpt lat="45.45416" lon="-75.75949">
        <ele>86</ele>
      </trkpt>
      <trkpt lat="45.45427" lon="-75.75976">
        <ele>86.9</ele>
      </trkpt>
      <trkpt lat="45.4544" lon="-75.75999">
        <ele>87.7</ele>
      </trkpt>
      <trkpt lat="45.45466" lon="-75.76033">
        <ele>89.6</ele>
      </trkpt>
      <trkpt lat="45.45552" lon="-75.76183">
        <ele>90</ele>
      </trkpt>
      <trkpt lat="45.45566" lon="-75.76214">
        <ele>90.7</ele>
      </trkpt>
      <trkpt lat="45.45594" lon="-75.76287">
        <ele>94.4</ele>
      </trkpt>
      <trkpt lat="45.45605" lon="-75.76329">
        <ele>96.4</ele>
      </trkpt>
      <trkpt lat="45.45621" lon="-75.76364">
        <ele>96.9</ele>
      </trkpt>
      <trkpt lat="45.45654" lon="-75.76444">
        <ele>99.6</ele>
      </trkpt>
      <trkpt lat="45.45661" lon="-75.76481">
        <ele>99.9</ele>
      </trkpt>
      <trkpt lat="45.45668" lon="-75.76506">
        <ele>100</ele>
      </trkpt>
      <trkpt lat="45.45682" lon="-75.76535">
        <ele>100</ele>
      </trkpt>
      <trkpt lat="45.45693" lon="-75.76564">
        <ele>100.1</ele>
      </trkpt>
      <trkpt lat="45.45696" lon="-75.76572">
        <ele>100.2</ele>
      </trkpt>
      <trkpt lat="45.457" lon="-75.76582">
        <ele>100.4</ele>
      </trkpt>
      <trkpt lat="45.45704" lon="-75.76591">
        <ele>100.7</ele>
      </trkpt>
      <trkpt lat="45.45724" lon="-75.7664">
        <ele>101.1</ele>
      </trkpt>
      <trkpt lat="45.45729" lon="-75.76648">
        <ele>101.1</ele>
      </trkpt>
      <trkpt lat="45.45765" lon="-75.76676">
        <ele>101</ele>
      </trkpt>
      <trkpt lat="45.45787" lon="-75.76685">
        <ele>101</ele>
      </trkpt>
      <trkpt lat="45.45848" lon="-75.76698">
        <ele>101.2</ele>
      </trkpt>
      <trkpt lat="45.45855" lon="-75.767">
        <ele>101.1</ele>
      </trkpt>
      <trkpt lat="45.45866" lon="-75.76703">
        <ele>101</ele>
      </trkpt>
      <trkpt lat="45.4587" lon="-75.76706">
        <ele>101</ele>
      </trkpt>
      <trkpt lat="45.45952" lon="-75.76719">
        <ele>102</ele>
      </trkpt>
      <trkpt lat="45.4599" lon="-75.76727">
        <ele>102</ele>
      </trkpt>
      <trkpt lat="45.4601" lon="-75.76733">
        <ele>102.1</ele>
      </trkpt>
      <trkpt lat="45.46025" lon="-75.76744">
        <ele>102.1</ele>
      </trkpt>
      <trkpt lat="45.46046" lon="-75.76766">
        <ele>102.1</ele>
      </trkpt>
      <trkpt lat="45.46051" lon="-75.76771">
        <ele>102</ele>
      </trkpt>
      <trkpt lat="45.46057" lon="-75.76779">
        <ele>102</ele>
      </trkpt>
      <trkpt lat="45.46063" lon="-75.76787">
        <ele>102</ele>
      </trkpt>
      <trkpt lat="45.46072" lon="-75.76798">
        <ele>102</ele>
      </trkpt>
      <trkpt lat="45.46099" lon="-75.76822">
        <ele>101.9</ele>
      </trkpt>
      <trkpt lat="45.46116" lon="-75.76843">
        <ele>101.3</ele>
      </trkpt>
      <trkpt lat="45.46179" lon="-75.76913">
        <ele>100</ele>
      </trkpt>
      <trkpt lat="45.46222" lon="-75.76964">
        <ele>99.9</ele>
      </trkpt>
      <trkpt lat="45.46227" lon="-75.76972">
        <ele>99.7</ele>
      </trkpt>
      <trkpt lat="45.46255" lon="-75.77005">
        <ele>99</ele>
      </trkpt>
      <trkpt lat="45.46258" lon="-75.77009">
        <ele>99</ele>
      </trkpt>
      <trkpt lat="45.46265" lon="-75.77024">
        <ele>99</ele>
      </trkpt>
      <trkpt lat="45.46296" lon="-75.77065">
        <ele>99</ele>
      </trkpt>
      <trkpt lat="45.46305" lon="-75.77072">
        <ele>99</ele>
      </trkpt>
      <trkpt lat="45.46315" lon="-75.77088">
        <ele>99</ele>
      </trkpt>
      <trkpt lat="45.46363" lon="-75.77157">
        <ele>99</ele>
      </trkpt>
      <trkpt lat="45.4638" lon="-75.77177">
        <ele>99</ele>
      </trkpt>
      <trkpt lat="45.46394" lon="-75.77201">
        <ele>99.5</ele>
      </trkpt>
      <trkpt lat="45.46464" lon="-75.77307">
        <ele>101</ele>
      </trkpt>
      <trkpt lat="45.46473" lon="-75.77317">
        <ele>101</ele>
      </trkpt>
      <trkpt lat="45.46484" lon="-75.77322">
        <ele>101</ele>
      </trkpt>
      <trkpt lat="45.46501" lon="-75.77347">
        <ele>101</ele>
      </trkpt>
      <trkpt lat="45.4656" lon="-75.7743">
        <ele>100.8</ele>
      </trkpt>
      <trkpt lat="45.46571" lon="-75.77441">
        <ele>100.7</ele>
      </trkpt>
      <trkpt lat="45.46594" lon="-75.77474">
        <ele>100.6</ele>
      </trkpt>
      <trkpt lat="45.466" lon="-75.77487">
        <ele>100.8</ele>
      </trkpt>
      <trkpt lat="45.46651" lon="-75.7756">
        <ele>102.1</ele>
      </trkpt>
      <trkpt lat="45.46786" lon="-75.77747">
        <ele>104.1</ele>
      </trkpt>
      <trkpt lat="45.46836" lon="-75.77798">
        <ele>104</ele>
      </trkpt>
      <trkpt lat="45.46921" lon="-75.77872">
        <ele>105</ele>
      </trkpt>
      <trkpt lat="45.46923" lon="-75.77874">
        <ele>105.1</ele>
      </trkpt>
      <trkpt lat="45.46978" lon="-75.77918">
        <ele>105.7</ele>
      </trkpt>
      <trkpt lat="45.47076" lon="-75.77998">
        <ele>106.7</ele>
      </trkpt>
      <trkpt lat="45.47112" lon="-75.78028">
        <ele>107.4</ele>
      </trkpt>
      <trkpt lat="45.47175" lon="-75.78098">
        <ele>105.5</ele>
      </trkpt>
      <trkpt lat="45.47188" lon="-75.78111">
        <ele>105</ele>
      </trkpt>
      <trkpt lat="45.47198" lon="-75.7812">
        <ele>105.5</ele>
      </trkpt>
      <trkpt lat="45.472" lon="-75.78117">
        <ele>105.4</ele>
      </trkpt>
      <trkpt lat="45.47205" lon="-75.78109">
        <ele>105.1</ele>
      </trkpt>
      <trkpt lat="45.47217" lon="-75.78123">
        <ele>105.5</ele>
      </trkpt>
      <trkpt lat="45.47229" lon="-75.78136">
        <ele>105.7</ele>
      </trkpt>
      <trkpt lat="45.47259" lon="-75.78173">
        <ele>106.6</ele>
      </trkpt>
      <trkpt lat="45.47283" lon="-75.78207">
        <ele>108.1</ele>
      </trkpt>
      <trkpt lat="45.47326" lon="-75.78278">
        <ele>108.7</ele>
      </trkpt>
      <trkpt lat="45.47339" lon="-75.783">
        <ele>109.1</ele>
      </trkpt>
      <trkpt lat="45.47384" lon="-75.7837">
        <ele>107.6</ele>
      </trkpt>
      <trkpt lat="45.47421" lon="-75.78424">
        <ele>108.2</ele>
      </trkpt>
      <trkpt lat="45.47424" lon="-75.78435">
        <ele>107.9</ele>
      </trkpt>
      <trkpt lat="45.47428" lon="-75.7844">
        <ele>107.7</ele>
      </trkpt>
      <trkpt lat="45.4743" lon="-75.78444">
        <ele>107.6</ele>
      </trkpt>
      <trkpt lat="45.47454" lon="-75.78472">
        <ele>105.8</ele>
      </trkpt>
      <trkpt lat="45.47466" lon="-75.78488">
        <ele>105.3</ele>
      </trkpt>
      <trkpt lat="45.47493" lon="-75.78537">
        <ele>104.9</ele>
      </trkpt>
      <trkpt lat="45.47509" lon="-75.7857">
        <ele>105.2</ele>
      </trkpt>
      <trkpt lat="45.4753" lon="-75.78625">
        <ele>107.3</ele>
      </trkpt>
      <trkpt lat="45.47548" lon="-75.78664">
        <ele>108.3</ele>
      </trkpt>
      <trkpt lat="45.47651" lon="-75.78833">
        <ele>110.4</ele>
      </trkpt>
      <trkpt lat="45.47662" lon="-75.78855">
        <ele>110</ele>
      </trkpt>
      <trkpt lat="45.47674" lon="-75.78886">
        <ele>111</ele>
      </trkpt>
      <trkpt lat="45.47684" lon="-75.78915">
        <ele>111.6</ele>
      </trkpt>
      <trkpt lat="45.4769" lon="-75.78929">
        <ele>111</ele>
      </trkpt>
      <trkpt lat="45.47693" lon="-75.78927">
        <ele>110.7</ele>
      </trkpt>
      <trkpt lat="45.47705" lon="-75.78919">
        <ele>108.5</ele>
      </trkpt>
      <trkpt lat="45.47806" lon="-75.78834">
        <ele>102.1</ele>
      </trkpt>
      <trkpt lat="45.47852" lon="-75.78784">
        <ele>99.8</ele>
      </trkpt>
      <trkpt lat="45.47859" lon="-75.78781">
        <ele>99.5</ele>
      </trkpt>
      <trkpt lat="45.47863" lon="-75.78782">
        <ele>99.6</ele>
      </trkpt>
      <trkpt lat="45.47868" lon="-75.78788">
        <ele>99.7</ele>
      </trkpt>
      <trkpt lat="45.47885" lon="-75.7882">
        <ele>100.6</ele>
      </trkpt>
    </trkseg>
  </trk>
</gpx>