<?xml version="1.0" encoding="UTF-8" standalone="yes"?>
<gpx version="1.1" creator="https://onthegomap.com" xmlns="http://www.topografix.com/GPX/1/1">
  <metadata>
    <name>9.2km route</name>
    <link href="https://onthegomap.com">
      <text>On The Go Map</text>
    </link>
    <time>2026-04-17T17:53:10.837Z</time>
    <copyright author="On The Go Map, OpenStreetMap Contributors">
      <year>2026</year>
    </copyright>
  </metadata>
  <trk>
    <name>9.2km route</name>
    <trkseg>
      <trkpt lat="45.47884" lon="-75.78816">
        <ele>100.5</ele>
      </trkpt>
      <trkpt lat="45.47928" lon="-75.78899">
        <ele>101.9</ele>
      </trkpt>
      <trkpt lat="45.47966" lon="-75.78969">
        <ele>102.9</ele>
      </trkpt>
      <trkpt lat="45.47969" lon="-75.78981">
        <ele>103</ele>
      </trkpt>
      <trkpt lat="45.47995" lon="-75.78984">
        <ele>103</ele>
      </trkpt>
      <trkpt lat="45.48038" lon="-75.79067">
        <ele>105.4</ele>
      </trkpt>
      <trkpt lat="45.4804" lon="-75.79073">
        <ele>105.5</ele>
      </trkpt>
      <trkpt lat="45.48039" lon="-75.79086">
        <ele>105.7</ele>
      </trkpt>
      <trkpt lat="45.48037" lon="-75.79094">
        <ele>105.8</ele>
      </trkpt>
      <trkpt lat="45.48033" lon="-75.791">
        <ele>105.9</ele>
      </trkpt>
      <trkpt lat="45.48035" lon="-75.79103">
        <ele>106</ele>
      </trkpt>
      <trkpt lat="45.48044" lon="-75.79158">
        <ele>107.4</ele>
      </trkpt>
      <trkpt lat="45.48049" lon="-75.79163">
        <ele>107.4</ele>
      </trkpt>
      <trkpt lat="45.48067" lon="-75.79153">
        <ele>107.4</ele>
      </trkpt>
      <trkpt lat="45.48077" lon="-75.79152">
        <ele>107.4</ele>
      </trkpt>
      <trkpt lat="45.48084" lon="-75.79153">
        <ele>107.4</ele>
      </trkpt>
      <trkpt lat="45.48087" lon="-75.79161">
        <ele>107.5</ele>
      </trkpt>
      <trkpt lat="45.48088" lon="-75.79165">
        <ele>107.7</ele>
      </trkpt>
      <trkpt lat="45.481" lon="-75.79217">
        <ele>109.2</ele>
      </trkpt>
      <trkpt lat="45.4811" lon="-75.79252">
        <ele>110</ele>
      </trkpt>
      <trkpt lat="45.48127" lon="-75.79304">
        <ele>110.5</ele>
      </trkpt>
      <trkpt lat="45.48139" lon="-75.79329">
        <ele>111</ele>
      </trkpt>
      <trkpt lat="45.48154" lon="-75.79345">
        <ele>111.4</ele>
      </trkpt>
      <trkpt lat="45.48207" lon="-75.79383">
        <ele>111</ele>
      </trkpt>
      <trkpt lat="45.48315" lon="-75.79503">
        <ele>112.5</ele>
      </trkpt>
      <trkpt lat="45.48321" lon="-75.79513">
        <ele>112.2</ele>
      </trkpt>
      <trkpt lat="45.48323" lon="-75.79525">
        <ele>112.1</ele>
      </trkpt>
      <trkpt lat="45.48319" lon="-75.79538">
        <ele>112</ele>
      </trkpt>
      <trkpt lat="45.48284" lon="-75.79577">
        <ele>111.5</ele>
      </trkpt>
      <trkpt lat="45.48266" lon="-75.79598">
        <ele>111.8</ele>
      </trkpt>
      <trkpt lat="45.48245" lon="-75.79621">
        <ele>112</ele>
      </trkpt>
      <trkpt lat="45.48235" lon="-75.79626">
        <ele>112.3</ele>
      </trkpt>
      <trkpt lat="45.48223" lon="-75.79626">
        <ele>112.7</ele>
      </trkpt>
      <trkpt lat="45.48179" lon="-75.79617">
        <ele>114.5</ele>
      </trkpt>
      <trkpt lat="45.48174" lon="-75.79615">
        <ele>114.7</ele>
      </trkpt>
      <trkpt lat="45.48052" lon="-75.79507">
        <ele>117.4</ele>
      </trkpt>
      <trkpt lat="45.48038" lon="-75.79495">
        <ele>117.7</ele>
      </trkpt>
      <trkpt lat="45.48019" lon="-75.79478">
        <ele>117.9</ele>
      </trkpt>
      <trkpt lat="45.48012" lon="-75.7947">
        <ele>118</ele>
      </trkpt>
      <trkpt lat="45.48007" lon="-75.79456">
        <ele>117.8</ele>
      </trkpt>
      <trkpt lat="45.47992" lon="-75.79398">
        <ele>116</ele>
      </trkpt>
      <trkpt lat="45.47972" lon="-75.79319">
        <ele>113.1</ele>
      </trkpt>
      <trkpt lat="45.47969" lon="-75.79307">
        <ele>112.6</ele>
      </trkpt>
      <trkpt lat="45.47957" lon="-75.79312">
        <ele>112.2</ele>
      </trkpt>
      <trkpt lat="45.47937" lon="-75.79321">
        <ele>112.2</ele>
      </trkpt>
      <trkpt lat="45.47905" lon="-75.79335">
        <ele>112.6</ele>
      </trkpt>
      <trkpt lat="45.47899" lon="-75.79338">
        <ele>112.7</ele>
      </trkpt>
      <trkpt lat="45.47865" lon="-75.79358">
        <ele>113.6</ele>
      </trkpt>
      <trkpt lat="45.47833" lon="-75.79394">
        <ele>117.1</ele>
      </trkpt>
      <trkpt lat="45.47855" lon="-75.79437">
        <ele>119.4</ele>
      </trkpt>
      <trkpt lat="45.47874" lon="-75.79468">
        <ele>120.5</ele>
      </trkpt>
      <trkpt lat="45.4791" lon="-75.79522">
        <ele>122</ele>
      </trkpt>
      <trkpt lat="45.47934" lon="-75.79553">
        <ele>121.8</ele>
      </trkpt>
      <trkpt lat="45.47952" lon="-75.7958">
        <ele>120.3</ele>
      </trkpt>
      <trkpt lat="45.4797" lon="-75.79616">
        <ele>120.5</ele>
      </trkpt>
      <trkpt lat="45.47991" lon="-75.79664">
        <ele>121</ele>
      </trkpt>
      <trkpt lat="45.48028" lon="-75.79719">
        <ele>119.3</ele>
      </trkpt>
      <trkpt lat="45.48037" lon="-75.79736">
        <ele>119.2</ele>
      </trkpt>
      <trkpt lat="45.48048" lon="-75.79764">
        <ele>119.4</ele>
      </trkpt>
      <trkpt lat="45.48086" lon="-75.79898">
        <ele>120.3</ele>
      </trkpt>
      <trkpt lat="45.48102" lon="-75.79947">
        <ele>119.7</ele>
      </trkpt>
      <trkpt lat="45.48164" lon="-75.80134">
        <ele>118.7</ele>
      </trkpt>
      <trkpt lat="45.4817" lon="-75.8016">
        <ele>118.5</ele>
      </trkpt>
      <trkpt lat="45.48172" lon="-75.80176">
        <ele>118.8</ele>
      </trkpt>
      <trkpt lat="45.48171" lon="-75.80194">
        <ele>119.3</ele>
      </trkpt>
      <trkpt lat="45.48153" lon="-75.80267">
        <ele>127.5</ele>
      </trkpt>
      <trkpt lat="45.48149" lon="-75.80289">
        <ele>129</ele>
      </trkpt>
      <trkpt lat="45.48148" lon="-75.80318">
        <ele>128.2</ele>
      </trkpt>
      <trkpt lat="45.4815" lon="-75.80337">
        <ele>126.5</ele>
      </trkpt>
      <trkpt lat="45.48156" lon="-75.80355">
        <ele>124.2</ele>
      </trkpt>
      <trkpt lat="45.482" lon="-75.80447">
        <ele>119.2</ele>
      </trkpt>
      <trkpt lat="45.48225" lon="-75.80516">
        <ele>123.9</ele>
      </trkpt>
      <trkpt lat="45.48239" lon="-75.80534">
        <ele>124.7</ele>
      </trkpt>
      <trkpt lat="45.48264" lon="-75.80554">
        <ele>123.9</ele>
      </trkpt>
      <trkpt lat="45.48293" lon="-75.80578">
        <ele>122.4</ele>
      </trkpt>
      <trkpt lat="45.4841" lon="-75.8071">
        <ele>123.4</ele>
      </trkpt>
      <trkpt lat="45.48443" lon="-75.80749">
        <ele>125.1</ele>
      </trkpt>
      <trkpt lat="45.48462" lon="-75.80781">
        <ele>126.3</ele>
      </trkpt>
      <trkpt lat="45.48497" lon="-75.80853">
        <ele>127.4</ele>
      </trkpt>
      <trkpt lat="45.48519" lon="-75.80882">
        <ele>128.9</ele>
      </trkpt>
      <trkpt lat="45.48534" lon="-75.80896">
        <ele>129.4</ele>
      </trkpt>
      <trkpt lat="45.48565" lon="-75.80908">
        <ele>131.8</ele>
      </trkpt>
      <trkpt lat="45.48596" lon="-75.80907">
        <ele>133.4</ele>
      </trkpt>
      <trkpt lat="45.48667" lon="-75.80886">
        <ele>135</ele>
      </trkpt>
      <trkpt lat="45.48685" lon="-75.80889">
        <ele>134.5</ele>
      </trkpt>
      <trkpt lat="45.48698" lon="-75.80898">
        <ele>133.6</ele>
      </trkpt>
      <trkpt lat="45.48712" lon="-75.80918">
        <ele>132.8</ele>
      </trkpt>
      <trkpt lat="45.48747" lon="-75.80971">
        <ele>135.5</ele>
      </trkpt>
      <trkpt lat="45.48763" lon="-75.80998">
        <ele>138.6</ele>
      </trkpt>
      <trkpt lat="45.48776" lon="-75.81032">
        <ele>140.4</ele>
      </trkpt>
      <trkpt lat="45.48786" lon="-75.81068">
        <ele>140.3</ele>
      </trkpt>
      <trkpt lat="45.48788" lon="-75.81099">
        <ele>139.1</ele>
      </trkpt>
      <trkpt lat="45.48783" lon="-75.81159">
        <ele>135.4</ele>
      </trkpt>
      <trkpt lat="45.48776" lon="-75.81281">
        <ele>131.6</ele>
      </trkpt>
      <trkpt lat="45.49023" lon="-75.81322">
        <ele>133</ele>
      </trkpt>
      <trkpt lat="45.49045" lon="-75.81325">
        <ele>132.3</ele>
      </trkpt>
      <trkpt lat="45.49252" lon="-75.81355">
        <ele>128.9</ele>
      </trkpt>
      <trkpt lat="45.49453" lon="-75.81384">
        <ele>125.3</ele>
      </trkpt>
      <trkpt lat="45.49549" lon="-75.81397">
        <ele>126.3</ele>
      </trkpt>
      <trkpt lat="45.49716" lon="-75.81421">
        <ele>126.4</ele>
      </trkpt>
      <trkpt lat="45.49791" lon="-75.81433">
        <ele>129.2</ele>
      </trkpt>
      <trkpt lat="45.49906" lon="-75.8145">
        <ele>132</ele>
      </trkpt>
      <trkpt lat="45.49998" lon="-75.81464">
        <ele>134.8</ele>
      </trkpt>
      <trkpt lat="45.50062" lon="-75.81372">
        <ele>133.7</ele>
      </trkpt>
      <trkpt lat="45.50095" lon="-75.8133">
        <ele>132.4</ele>
      </trkpt>
      <trkpt lat="45.50101" lon="-75.81324">
        <ele>132.4</ele>
      </trkpt>
      <trkpt lat="45.50109" lon="-75.81318">
        <ele>132.5</ele>
      </trkpt>
      <trkpt lat="45.50109" lon="-75.81316">
        <ele>132.5</ele>
      </trkpt>
      <trkpt lat="45.50109" lon="-75.81318">
        <ele>132.5</ele>
      </trkpt>
      <trkpt lat="45.50101" lon="-75.81324">
        <ele>132.4</ele>
      </trkpt>
      <trkpt lat="45.50095" lon="-75.8133">
        <ele>132.4</ele>
      </trkpt>
      <trkpt lat="45.50062" lon="-75.81372">
        <ele>133.6</ele>
      </trkpt>
      <trkpt lat="45.49998" lon="-75.81464">
        <ele>134.8</ele>
      </trkpt>
      <trkpt lat="45.49906" lon="-75.8145">
        <ele>131.9</ele>
      </trkpt>
      <trkpt lat="45.49791" lon="-75.81433">
        <ele>129.2</ele>
      </trkpt>
      <trkpt lat="45.49716" lon="-75.81421">
        <ele>126.5</ele>
      </trkpt>
      <trkpt lat="45.49549" lon="-75.81397">
        <ele>126.3</ele>
      </trkpt>
      <trkpt lat="45.49453" lon="-75.81384">
        <ele>125.3</ele>
      </trkpt>
      <trkpt lat="45.49252" lon="-75.81355">
        <ele>128.9</ele>
      </trkpt>
      <trkpt lat="45.49045" lon="-75.81325">
        <ele>132.2</ele>
      </trkpt>
      <trkpt lat="45.49023" lon="-75.81322">
        <ele>133</ele>
      </trkpt>
      <trkpt lat="45.48776" lon="-75.81281">
        <ele>131.6</ele>
      </trkpt>
      <trkpt lat="45.48783" lon="-75.81159">
        <ele>135.4</ele>
      </trkpt>
      <trkpt lat="45.48788" lon="-75.81099">
        <ele>138.9</ele>
      </trkpt>
      <trkpt lat="45.48786" lon="-75.81068">
        <ele>140.3</ele>
      </trkpt>
      <trkpt lat="45.48776" lon="-75.81032">
        <ele>140.3</ele>
      </trkpt>
      <trkpt lat="45.48763" lon="-75.80998">
        <ele>138.8</ele>
      </trkpt>
      <trkpt lat="45.48747" lon="-75.80971">
        <ele>135.6</ele>
      </trkpt>
      <trkpt lat="45.48712" lon="-75.80918">
        <ele>132.8</ele>
      </trkpt>
      <trkpt lat="45.48698" lon="-75.80898">
        <ele>133.5</ele>
      </trkpt>
      <trkpt lat="45.48685" lon="-75.80889">
        <ele>134.5</ele>
      </trkpt>
      <trkpt lat="45.48667" lon="-75.80886">
        <ele>135.2</ele>
      </trkpt>
      <trkpt lat="45.48596" lon="-75.80907">
        <ele>133.5</ele>
      </trkpt>
      <trkpt lat="45.48565" lon="-75.80908">
        <ele>132</ele>
      </trkpt>
      <trkpt lat="45.48534" lon="-75.80896">
        <ele>129.6</ele>
      </trkpt>
      <trkpt lat="45.48519" lon="-75.80882">
        <ele>128.9</ele>
      </trkpt>
      <trkpt lat="45.48497" lon="-75.80853">
        <ele>127.5</ele>
      </trkpt>
      <trkpt lat="45.48462" lon="-75.80781">
        <ele>126.3</ele>
      </trkpt>
      <trkpt lat="45.48443" lon="-75.80749">
        <ele>125.1</ele>
      </trkpt>
      <trkpt lat="45.4841" lon="-75.8071">
        <ele>123.4</ele>
      </trkpt>
      <trkpt lat="45.48293" lon="-75.80578">
        <ele>122.4</ele>
      </trkpt>
      <trkpt lat="45.48264" lon="-75.80554">
        <ele>123.8</ele>
      </trkpt>
      <trkpt lat="45.48239" lon="-75.80534">
        <ele>124.7</ele>
      </trkpt>
      <trkpt lat="45.48225" lon="-75.80516">
        <ele>123.9</ele>
      </trkpt>
      <trkpt lat="45.482" lon="-75.80447">
        <ele>119</ele>
      </trkpt>
      <trkpt lat="45.48156" lon="-75.80355">
        <ele>124</ele>
      </trkpt>
      <trkpt lat="45.4815" lon="-75.80337">
        <ele>126.4</ele>
      </trkpt>
      <trkpt lat="45.48148" lon="-75.80318">
        <ele>128.2</ele>
      </trkpt>
      <trkpt lat="45.48149" lon="-75.80289">
        <ele>129.1</ele>
      </trkpt>
      <trkpt lat="45.48153" lon="-75.80267">
        <ele>127.6</ele>
      </trkpt>
      <trkpt lat="45.48171" lon="-75.80194">
        <ele>119.3</ele>
      </trkpt>
      <trkpt lat="45.48172" lon="-75.80176">
        <ele>118.8</ele>
      </trkpt>
      <trkpt lat="45.4817" lon="-75.8016">
        <ele>118.5</ele>
      </trkpt>
      <trkpt lat="45.48164" lon="-75.80134">
        <ele>118.6</ele>
      </trkpt>
      <trkpt lat="45.48086" lon="-75.79898">
        <ele>120.2</ele>
      </trkpt>
      <trkpt lat="45.48048" lon="-75.79764">
        <ele>119.6</ele>
      </trkpt>
      <trkpt lat="45.48037" lon="-75.79736">
        <ele>119.2</ele>
      </trkpt>
      <trkpt lat="45.48028" lon="-75.79719">
        <ele>119.2</ele>
      </trkpt>
      <trkpt lat="45.47991" lon="-75.79664">
        <ele>121.1</ele>
      </trkpt>
      <trkpt lat="45.4797" lon="-75.79616">
        <ele>120.5</ele>
      </trkpt>
      <trkpt lat="45.47952" lon="-75.7958">
        <ele>120.3</ele>
      </trkpt>
      <trkpt lat="45.47934" lon="-75.79553">
        <ele>121.8</ele>
      </trkpt>
      <trkpt lat="45.4791" lon="-75.79522">
        <ele>122</ele>
      </trkpt>
      <trkpt lat="45.47874" lon="-75.79468">
        <ele>120.5</ele>
      </trkpt>
      <trkpt lat="45.47855" lon="-75.79437">
        <ele>119.4</ele>
      </trkpt>
      <trkpt lat="45.47837" lon="-75.79402">
        <ele>117.7</ele>
      </trkpt>
      <trkpt lat="45.47833" lon="-75.79394">
        <ele>117.1</ele>
      </trkpt>
      <trkpt lat="45.47865" lon="-75.79358">
        <ele>113.7</ele>
      </trkpt>
      <trkpt lat="45.47899" lon="-75.79338">
        <ele>112.7</ele>
      </trkpt>
      <trkpt lat="45.47905" lon="-75.79335">
        <ele>112.5</ele>
      </trkpt>
      <trkpt lat="45.47884" lon="-75.79257">
        <ele>110.3</ele>
      </trkpt>
      <trkpt lat="45.47849" lon="-75.79123">
        <ele>105.6</ele>
      </trkpt>
      <trkpt lat="45.47847" lon="-75.79111">
        <ele>105.4</ele>
      </trkpt>
      <trkpt lat="45.47848" lon="-75.79105">
        <ele>105.3</ele>
      </trkpt>
      <trkpt lat="45.47854" lon="-75.79099">
        <ele>105.1</ele>
      </trkpt>
      <trkpt lat="45.47908" lon="-75.79078">
        <ele>105</ele>
      </trkpt>
      <trkpt lat="45.47904" lon="-75.79059">
        <ele>104.6</ele>
      </trkpt>
      <trkpt lat="45.47903" lon="-75.79021">
        <ele>103.6</ele>
      </trkpt>
      <trkpt lat="45.47945" lon="-75.79014">
        <ele>103.3</ele>
      </trkpt>
      <trkpt lat="45.47952" lon="-75.79007">
        <ele>103.1</ele>
      </trkpt>
      <trkpt lat="45.47964" lon="-75.78996">
        <ele>103</ele>
      </trkpt>
      <trkpt lat="45.47967" lon="-75.78992">
        <ele>103</ele>
      </trkpt>
      <trkpt lat="45.47969" lon="-75.78981">
        <ele>103</ele>
      </trkpt>
      <trkpt lat="45.47966" lon="-75.78969">
        <ele>102.8</ele>
      </trkpt>
      <trkpt lat="45.47928" lon="-75.78899">
        <ele>101.9</ele>
      </trkpt>
      <trkpt lat="45.47883" lon="-75.78816">
        <ele>100.5</ele>
      </trkpt>
    </trkseg>
  </trk>
</gpx>