<?xml version="1.0" encoding="UTF-8" standalone="yes"?>
<gpx version="1.1" creator="https://onthegomap.com" xmlns="http://www.topografix.com/GPX/1/1">
  <metadata>
    <name>10.2km route</name>
    <link href="https://onthegomap.com">
      <text>On The Go Map</text>
    </link>
    <time>2026-04-20T13:25:55.667Z</time>
    <copyright author="On The Go Map, OpenStreetMap Contributors">
      <year>2026</year>
    </copyright>
  </metadata>
  <trk>
    <name>10.2km route</name>
    <trkseg>
      <trkpt lat="45.47884" lon="-75.78817">
        <ele>100.5</ele>
      </trkpt>
      <trkpt lat="45.47868" lon="-75.78788">
        <ele>99.8</ele>
      </trkpt>
      <trkpt lat="45.47863" lon="-75.78782">
        <ele>99.6</ele>
      </trkpt>
      <trkpt lat="45.47859" lon="-75.78781">
        <ele>99.5</ele>
      </trkpt>
      <trkpt lat="45.47852" lon="-75.78784">
        <ele>99.8</ele>
      </trkpt>
      <trkpt lat="45.47806" lon="-75.78834">
        <ele>102.3</ele>
      </trkpt>
      <trkpt lat="45.47705" lon="-75.78919">
        <ele>108.3</ele>
      </trkpt>
      <trkpt lat="45.47693" lon="-75.78927">
        <ele>110.7</ele>
      </trkpt>
      <trkpt lat="45.47698" lon="-75.78946">
        <ele>111.9</ele>
      </trkpt>
      <trkpt lat="45.47694" lon="-75.78948">
        <ele>112.2</ele>
      </trkpt>
      <trkpt lat="45.47689" lon="-75.7895">
        <ele>112.6</ele>
      </trkpt>
      <trkpt lat="45.47697" lon="-75.78997">
        <ele>112.9</ele>
      </trkpt>
      <trkpt lat="45.47699" lon="-75.79038">
        <ele>111.9</ele>
      </trkpt>
      <trkpt lat="45.47701" lon="-75.79052">
        <ele>111.3</ele>
      </trkpt>
      <trkpt lat="45.47713" lon="-75.79072">
        <ele>110.1</ele>
      </trkpt>
      <trkpt lat="45.47713" lon="-75.79086">
        <ele>109.9</ele>
      </trkpt>
      <trkpt lat="45.47713" lon="-75.79124">
        <ele>109.4</ele>
      </trkpt>
      <trkpt lat="45.47714" lon="-75.7914">
        <ele>109</ele>
      </trkpt>
      <trkpt lat="45.47718" lon="-75.7915">
        <ele>108.7</ele>
      </trkpt>
      <trkpt lat="45.47724" lon="-75.79162">
        <ele>108.5</ele>
      </trkpt>
      <trkpt lat="45.47734" lon="-75.79185">
        <ele>108.3</ele>
      </trkpt>
      <trkpt lat="45.47743" lon="-75.79218">
        <ele>108.8</ele>
      </trkpt>
      <trkpt lat="45.47735" lon="-75.79228">
        <ele>109</ele>
      </trkpt>
      <trkpt lat="45.47705" lon="-75.79264">
        <ele>110.5</ele>
      </trkpt>
      <trkpt lat="45.47699" lon="-75.7927">
        <ele>110.6</ele>
      </trkpt>
      <trkpt lat="45.47687" lon="-75.79276">
        <ele>110.8</ele>
      </trkpt>
      <trkpt lat="45.47608" lon="-75.79295">
        <ele>113</ele>
      </trkpt>
      <trkpt lat="45.47581" lon="-75.79298">
        <ele>113.6</ele>
      </trkpt>
      <trkpt lat="45.47462" lon="-75.79307">
        <ele>118.6</ele>
      </trkpt>
      <trkpt lat="45.47441" lon="-75.79305">
        <ele>118.7</ele>
      </trkpt>
      <trkpt lat="45.47414" lon="-75.7929">
        <ele>118.5</ele>
      </trkpt>
      <trkpt lat="45.47342" lon="-75.79248">
        <ele>115.2</ele>
      </trkpt>
      <trkpt lat="45.47315" lon="-75.79239">
        <ele>115.1</ele>
      </trkpt>
      <trkpt lat="45.47304" lon="-75.79237">
        <ele>115.4</ele>
      </trkpt>
      <trkpt lat="45.47287" lon="-75.79241">
        <ele>116.3</ele>
      </trkpt>
      <trkpt lat="45.47235" lon="-75.79273">
        <ele>119.1</ele>
      </trkpt>
      <trkpt lat="45.47202" lon="-75.79289">
        <ele>119.9</ele>
      </trkpt>
      <trkpt lat="45.47061" lon="-75.79349">
        <ele>125.9</ele>
      </trkpt>
      <trkpt lat="45.47046" lon="-75.7935">
        <ele>125.6</ele>
      </trkpt>
      <trkpt lat="45.47006" lon="-75.79344">
        <ele>124.7</ele>
      </trkpt>
      <trkpt lat="45.46965" lon="-75.79348">
        <ele>125</ele>
      </trkpt>
      <trkpt lat="45.46956" lon="-75.79347">
        <ele>124.8</ele>
      </trkpt>
      <trkpt lat="45.46952" lon="-75.79344">
        <ele>124.6</ele>
      </trkpt>
      <trkpt lat="45.46948" lon="-75.7933">
        <ele>123.9</ele>
      </trkpt>
      <trkpt lat="45.46946" lon="-75.79289">
        <ele>121.5</ele>
      </trkpt>
      <trkpt lat="45.46941" lon="-75.7925">
        <ele>120.9</ele>
      </trkpt>
      <trkpt lat="45.46931" lon="-75.79224">
        <ele>120.9</ele>
      </trkpt>
      <trkpt lat="45.469" lon="-75.79175">
        <ele>119.1</ele>
      </trkpt>
      <trkpt lat="45.4688" lon="-75.79155">
        <ele>118.5</ele>
      </trkpt>
      <trkpt lat="45.46834" lon="-75.79133">
        <ele>118.2</ele>
      </trkpt>
      <trkpt lat="45.46792" lon="-75.79117">
        <ele>118.5</ele>
      </trkpt>
      <trkpt lat="45.46786" lon="-75.79113">
        <ele>118.5</ele>
      </trkpt>
      <trkpt lat="45.46762" lon="-75.79077">
        <ele>119</ele>
      </trkpt>
      <trkpt lat="45.46753" lon="-75.79054">
        <ele>119.5</ele>
      </trkpt>
      <trkpt lat="45.46735" lon="-75.78978">
        <ele>123.2</ele>
      </trkpt>
      <trkpt lat="45.46677" lon="-75.79003">
        <ele>122.9</ele>
      </trkpt>
      <trkpt lat="45.46652" lon="-75.79009">
        <ele>123.1</ele>
      </trkpt>
      <trkpt lat="45.46623" lon="-75.79011">
        <ele>124.2</ele>
      </trkpt>
      <trkpt lat="45.46616" lon="-75.79013">
        <ele>124.5</ele>
      </trkpt>
      <trkpt lat="45.46611" lon="-75.79017">
        <ele>124.9</ele>
      </trkpt>
      <trkpt lat="45.466" lon="-75.79032">
        <ele>126.3</ele>
      </trkpt>
      <trkpt lat="45.46586" lon="-75.79024">
        <ele>126.4</ele>
      </trkpt>
      <trkpt lat="45.46539" lon="-75.78995">
        <ele>125.2</ele>
      </trkpt>
      <trkpt lat="45.46491" lon="-75.78978">
        <ele>124.7</ele>
      </trkpt>
      <trkpt lat="45.46448" lon="-75.78972">
        <ele>122.7</ele>
      </trkpt>
      <trkpt lat="45.46391" lon="-75.78972">
        <ele>118.6</ele>
      </trkpt>
      <trkpt lat="45.46333" lon="-75.7898">
        <ele>117.4</ele>
      </trkpt>
      <trkpt lat="45.46285" lon="-75.79">
        <ele>120.7</ele>
      </trkpt>
      <trkpt lat="45.46225" lon="-75.79039">
        <ele>126</ele>
      </trkpt>
      <trkpt lat="45.46113" lon="-75.79116">
        <ele>127.4</ele>
      </trkpt>
      <trkpt lat="45.46064" lon="-75.79128">
        <ele>128.7</ele>
      </trkpt>
      <trkpt lat="45.46009" lon="-75.79128">
        <ele>128.2</ele>
      </trkpt>
      <trkpt lat="45.45948" lon="-75.79119">
        <ele>127.2</ele>
      </trkpt>
      <trkpt lat="45.45901" lon="-75.79107">
        <ele>128.4</ele>
      </trkpt>
      <trkpt lat="45.45867" lon="-75.79089">
        <ele>129.8</ele>
      </trkpt>
      <trkpt lat="45.45832" lon="-75.7906">
        <ele>129.3</ele>
      </trkpt>
      <trkpt lat="45.45804" lon="-75.79026">
        <ele>129.3</ele>
      </trkpt>
      <trkpt lat="45.45773" lon="-75.78966">
        <ele>129.3</ele>
      </trkpt>
      <trkpt lat="45.45725" lon="-75.78833">
        <ele>138.2</ele>
      </trkpt>
      <trkpt lat="45.45706" lon="-75.78797">
        <ele>137.3</ele>
      </trkpt>
      <trkpt lat="45.4568" lon="-75.78763">
        <ele>136.3</ele>
      </trkpt>
      <trkpt lat="45.4565" lon="-75.78738">
        <ele>136.9</ele>
      </trkpt>
      <trkpt lat="45.45623" lon="-75.7872">
        <ele>136.7</ele>
      </trkpt>
      <trkpt lat="45.45567" lon="-75.7869">
        <ele>135</ele>
      </trkpt>
      <trkpt lat="45.45481" lon="-75.78645">
        <ele>131.4</ele>
      </trkpt>
      <trkpt lat="45.45439" lon="-75.78609">
        <ele>128.4</ele>
      </trkpt>
      <trkpt lat="45.45411" lon="-75.7857">
        <ele>129.6</ele>
      </trkpt>
      <trkpt lat="45.45394" lon="-75.78542">
        <ele>130.4</ele>
      </trkpt>
      <trkpt lat="45.45379" lon="-75.78508">
        <ele>131.1</ele>
      </trkpt>
      <trkpt lat="45.45368" lon="-75.78477">
        <ele>132.6</ele>
      </trkpt>
      <trkpt lat="45.45359" lon="-75.78441">
        <ele>134.2</ele>
      </trkpt>
      <trkpt lat="45.45352" lon="-75.7836">
        <ele>137.8</ele>
      </trkpt>
      <trkpt lat="45.45349" lon="-75.78143">
        <ele>138.4</ele>
      </trkpt>
      <trkpt lat="45.45348" lon="-75.77962">
        <ele>141.2</ele>
      </trkpt>
      <trkpt lat="45.45366" lon="-75.77766">
        <ele>141.2</ele>
      </trkpt>
      <trkpt lat="45.45368" lon="-75.77723">
        <ele>142.5</ele>
      </trkpt>
      <trkpt lat="45.45364" lon="-75.77681">
        <ele>146.6</ele>
      </trkpt>
      <trkpt lat="45.45356" lon="-75.7764">
        <ele>149.1</ele>
      </trkpt>
      <trkpt lat="45.45344" lon="-75.77603">
        <ele>148.6</ele>
      </trkpt>
      <trkpt lat="45.45317" lon="-75.7756">
        <ele>146.1</ele>
      </trkpt>
      <trkpt lat="45.45267" lon="-75.7751">
        <ele>142.4</ele>
      </trkpt>
      <trkpt lat="45.45246" lon="-75.77489">
        <ele>143.5</ele>
      </trkpt>
      <trkpt lat="45.45204" lon="-75.7744">
        <ele>140.9</ele>
      </trkpt>
      <trkpt lat="45.45177" lon="-75.77395">
        <ele>138.2</ele>
      </trkpt>
      <trkpt lat="45.45153" lon="-75.77332">
        <ele>130.9</ele>
      </trkpt>
      <trkpt lat="45.45131" lon="-75.77264">
        <ele>129</ele>
      </trkpt>
      <trkpt lat="45.45067" lon="-75.77103">
        <ele>117.9</ele>
      </trkpt>
      <trkpt lat="45.45052" lon="-75.77051">
        <ele>114.7</ele>
      </trkpt>
      <trkpt lat="45.45033" lon="-75.76953">
        <ele>108.6</ele>
      </trkpt>
      <trkpt lat="45.45027" lon="-75.76919">
        <ele>108.3</ele>
      </trkpt>
      <trkpt lat="45.45039" lon="-75.76914">
        <ele>108.4</ele>
      </trkpt>
      <trkpt lat="45.45049" lon="-75.76915">
        <ele>109.5</ele>
      </trkpt>
      <trkpt lat="45.45064" lon="-75.7692">
        <ele>111.7</ele>
      </trkpt>
      <trkpt lat="45.45066" lon="-75.76921">
        <ele>112</ele>
      </trkpt>
      <trkpt lat="45.45079" lon="-75.76929">
        <ele>114.2</ele>
      </trkpt>
      <trkpt lat="45.45118" lon="-75.76957">
        <ele>118.4</ele>
      </trkpt>
      <trkpt lat="45.45134" lon="-75.76977">
        <ele>119</ele>
      </trkpt>
      <trkpt lat="45.45154" lon="-75.76999">
        <ele>119.2</ele>
      </trkpt>
      <trkpt lat="45.45173" lon="-75.77014">
        <ele>118.5</ele>
      </trkpt>
      <trkpt lat="45.45178" lon="-75.77021">
        <ele>117.8</ele>
      </trkpt>
      <trkpt lat="45.45186" lon="-75.77038">
        <ele>115.7</ele>
      </trkpt>
      <trkpt lat="45.45189" lon="-75.77047">
        <ele>114.7</ele>
      </trkpt>
      <trkpt lat="45.45193" lon="-75.77067">
        <ele>112.8</ele>
      </trkpt>
      <trkpt lat="45.45192" lon="-75.77088">
        <ele>111.8</ele>
      </trkpt>
      <trkpt lat="45.45196" lon="-75.77118">
        <ele>112</ele>
      </trkpt>
      <trkpt lat="45.45199" lon="-75.77127">
        <ele>112.4</ele>
      </trkpt>
      <trkpt lat="45.45208" lon="-75.77143">
        <ele>112.8</ele>
      </trkpt>
      <trkpt lat="45.45219" lon="-75.77157">
        <ele>112.6</ele>
      </trkpt>
      <trkpt lat="45.45244" lon="-75.77178">
        <ele>111.6</ele>
      </trkpt>
      <trkpt lat="45.45261" lon="-75.77197">
        <ele>111.6</ele>
      </trkpt>
      <trkpt lat="45.45288" lon="-75.77221">
        <ele>111.1</ele>
      </trkpt>
      <trkpt lat="45.45312" lon="-75.77253">
        <ele>111.1</ele>
      </trkpt>
      <trkpt lat="45.45318" lon="-75.7726">
        <ele>111</ele>
      </trkpt>
      <trkpt lat="45.45325" lon="-75.77264">
        <ele>110.7</ele>
      </trkpt>
      <trkpt lat="45.45356" lon="-75.77269">
        <ele>109.7</ele>
      </trkpt>
      <trkpt lat="45.45372" lon="-75.7728">
        <ele>109.7</ele>
      </trkpt>
      <trkpt lat="45.45396" lon="-75.77291">
        <ele>109.5</ele>
      </trkpt>
      <trkpt lat="45.45405" lon="-75.773">
        <ele>109.7</ele>
      </trkpt>
      <trkpt lat="45.45422" lon="-75.77326">
        <ele>110.7</ele>
      </trkpt>
      <trkpt lat="45.45431" lon="-75.77336">
        <ele>111</ele>
      </trkpt>
      <trkpt lat="45.45474" lon="-75.77362">
        <ele>114</ele>
      </trkpt>
      <trkpt lat="45.45482" lon="-75.77372">
        <ele>116.7</ele>
      </trkpt>
      <trkpt lat="45.45503" lon="-75.77413">
        <ele>125.9</ele>
      </trkpt>
      <trkpt lat="45.45535" lon="-75.77448">
        <ele>131.8</ele>
      </trkpt>
      <trkpt lat="45.45559" lon="-75.77499">
        <ele>138.7</ele>
      </trkpt>
      <trkpt lat="45.45585" lon="-75.77534">
        <ele>141.2</ele>
      </trkpt>
      <trkpt lat="45.4561" lon="-75.77564">
        <ele>139.7</ele>
      </trkpt>
      <trkpt lat="45.45629" lon="-75.77594">
        <ele>140.8</ele>
      </trkpt>
      <trkpt lat="45.4564" lon="-75.77622">
        <ele>143.2</ele>
      </trkpt>
      <trkpt lat="45.45645" lon="-75.77641">
        <ele>144.3</ele>
      </trkpt>
      <trkpt lat="45.45655" lon="-75.77695">
        <ele>145.5</ele>
      </trkpt>
      <trkpt lat="45.45665" lon="-75.77723">
        <ele>145.6</ele>
      </trkpt>
      <trkpt lat="45.45675" lon="-75.77738">
        <ele>145.9</ele>
      </trkpt>
      <trkpt lat="45.45694" lon="-75.7776">
        <ele>146</ele>
      </trkpt>
      <trkpt lat="45.4571" lon="-75.77781">
        <ele>146</ele>
      </trkpt>
      <trkpt lat="45.45731" lon="-75.77817">
        <ele>146.5</ele>
      </trkpt>
      <trkpt lat="45.4575" lon="-75.77883">
        <ele>149.3</ele>
      </trkpt>
      <trkpt lat="45.45773" lon="-75.77936">
        <ele>146.6</ele>
      </trkpt>
      <trkpt lat="45.45784" lon="-75.77968">
        <ele>143.8</ele>
      </trkpt>
      <trkpt lat="45.45791" lon="-75.7798">
        <ele>142.3</ele>
      </trkpt>
      <trkpt lat="45.4581" lon="-75.78004">
        <ele>138.8</ele>
      </trkpt>
      <trkpt lat="45.45835" lon="-75.78054">
        <ele>137</ele>
      </trkpt>
      <trkpt lat="45.45843" lon="-75.78064">
        <ele>136.5</ele>
      </trkpt>
      <trkpt lat="45.45878" lon="-75.78077">
        <ele>135.2</ele>
      </trkpt>
      <trkpt lat="45.45894" lon="-75.7809">
        <ele>135.3</ele>
      </trkpt>
      <trkpt lat="45.45902" lon="-75.781">
        <ele>135.6</ele>
      </trkpt>
      <trkpt lat="45.45924" lon="-75.7814">
        <ele>136.9</ele>
      </trkpt>
      <trkpt lat="45.45952" lon="-75.7818">
        <ele>138.9</ele>
      </trkpt>
      <trkpt lat="45.45972" lon="-75.78202">
        <ele>139.7</ele>
      </trkpt>
      <trkpt lat="45.45989" lon="-75.78213">
        <ele>139.9</ele>
      </trkpt>
      <trkpt lat="45.46021" lon="-75.78223">
        <ele>138.5</ele>
      </trkpt>
      <trkpt lat="45.46036" lon="-75.78235">
        <ele>138</ele>
      </trkpt>
      <trkpt lat="45.46044" lon="-75.78246">
        <ele>138</ele>
      </trkpt>
      <trkpt lat="45.46058" lon="-75.78276">
        <ele>137.5</ele>
      </trkpt>
      <trkpt lat="45.4609" lon="-75.78311">
        <ele>137</ele>
      </trkpt>
      <trkpt lat="45.46103" lon="-75.78334">
        <ele>136.2</ele>
      </trkpt>
      <trkpt lat="45.46114" lon="-75.78362">
        <ele>135</ele>
      </trkpt>
      <trkpt lat="45.46116" lon="-75.78387">
        <ele>134.3</ele>
      </trkpt>
      <trkpt lat="45.46114" lon="-75.78403">
        <ele>133.9</ele>
      </trkpt>
      <trkpt lat="45.46107" lon="-75.78423">
        <ele>133.2</ele>
      </trkpt>
      <trkpt lat="45.46096" lon="-75.78448">
        <ele>130.7</ele>
      </trkpt>
      <trkpt lat="45.46096" lon="-75.78453">
        <ele>130.3</ele>
      </trkpt>
      <trkpt lat="45.46086" lon="-75.78515">
        <ele>128.5</ele>
      </trkpt>
      <trkpt lat="45.46077" lon="-75.78565">
        <ele>127.9</ele>
      </trkpt>
      <trkpt lat="45.46078" lon="-75.78571">
        <ele>127.6</ele>
      </trkpt>
      <trkpt lat="45.46082" lon="-75.78575">
        <ele>127.1</ele>
      </trkpt>
      <trkpt lat="45.46088" lon="-75.78575">
        <ele>126.5</ele>
      </trkpt>
      <trkpt lat="45.46098" lon="-75.78554">
        <ele>126</ele>
      </trkpt>
      <trkpt lat="45.46103" lon="-75.78542">
        <ele>125.9</ele>
      </trkpt>
      <trkpt lat="45.46107" lon="-75.78537">
        <ele>125.8</ele>
      </trkpt>
      <trkpt lat="45.46115" lon="-75.78531">
        <ele>125.6</ele>
      </trkpt>
      <trkpt lat="45.46127" lon="-75.78529">
        <ele>125.1</ele>
      </trkpt>
      <trkpt lat="45.46174" lon="-75.78541">
        <ele>121.2</ele>
      </trkpt>
      <trkpt lat="45.46181" lon="-75.78545">
        <ele>120.7</ele>
      </trkpt>
      <trkpt lat="45.46193" lon="-75.78555">
        <ele>119.8</ele>
      </trkpt>
      <trkpt lat="45.462" lon="-75.78567">
        <ele>119.1</ele>
      </trkpt>
      <trkpt lat="45.46232" lon="-75.78658">
        <ele>116.9</ele>
      </trkpt>
      <trkpt lat="45.46243" lon="-75.78681">
        <ele>117</ele>
      </trkpt>
      <trkpt lat="45.46254" lon="-75.78695">
        <ele>117</ele>
      </trkpt>
      <trkpt lat="45.46265" lon="-75.78708">
        <ele>117</ele>
      </trkpt>
      <trkpt lat="45.463" lon="-75.78735">
        <ele>117</ele>
      </trkpt>
      <trkpt lat="45.46321" lon="-75.78745">
        <ele>117.3</ele>
      </trkpt>
      <trkpt lat="45.46357" lon="-75.78752">
        <ele>119.4</ele>
      </trkpt>
      <trkpt lat="45.46389" lon="-75.78754">
        <ele>121.3</ele>
      </trkpt>
      <trkpt lat="45.46411" lon="-75.78752">
        <ele>122</ele>
      </trkpt>
      <trkpt lat="45.46452" lon="-75.78743">
        <ele>122.9</ele>
      </trkpt>
      <trkpt lat="45.46463" lon="-75.78732">
        <ele>123.4</ele>
      </trkpt>
      <trkpt lat="45.4647" lon="-75.78718">
        <ele>124</ele>
      </trkpt>
      <trkpt lat="45.46466" lon="-75.78684">
        <ele>125.8</ele>
      </trkpt>
      <trkpt lat="45.46454" lon="-75.78625">
        <ele>127.2</ele>
      </trkpt>
      <trkpt lat="45.46452" lon="-75.78597">
        <ele>127.3</ele>
      </trkpt>
      <trkpt lat="45.46456" lon="-75.78567">
        <ele>127.8</ele>
      </trkpt>
      <trkpt lat="45.46468" lon="-75.78517">
        <ele>127.4</ele>
      </trkpt>
      <trkpt lat="45.46479" lon="-75.78485">
        <ele>126.3</ele>
      </trkpt>
      <trkpt lat="45.46491" lon="-75.78459">
        <ele>125.6</ele>
      </trkpt>
      <trkpt lat="45.46503" lon="-75.7844">
        <ele>126</ele>
      </trkpt>
      <trkpt lat="45.46537" lon="-75.78395">
        <ele>127.8</ele>
      </trkpt>
      <trkpt lat="45.46541" lon="-75.78387">
        <ele>128</ele>
      </trkpt>
      <trkpt lat="45.46543" lon="-75.78379">
        <ele>128.3</ele>
      </trkpt>
      <trkpt lat="45.46528" lon="-75.78317">
        <ele>127.5</ele>
      </trkpt>
      <trkpt lat="45.46507" lon="-75.78263">
        <ele>121.6</ele>
      </trkpt>
      <trkpt lat="45.46491" lon="-75.78211">
        <ele>118.7</ele>
      </trkpt>
      <trkpt lat="45.46476" lon="-75.78182">
        <ele>117.3</ele>
      </trkpt>
      <trkpt lat="45.46463" lon="-75.7814">
        <ele>115.7</ele>
      </trkpt>
      <trkpt lat="45.4645" lon="-75.78122">
        <ele>115.2</ele>
      </trkpt>
      <trkpt lat="45.46445" lon="-75.78109">
        <ele>114.6</ele>
      </trkpt>
      <trkpt lat="45.46442" lon="-75.78068">
        <ele>110.9</ele>
      </trkpt>
      <trkpt lat="45.46442" lon="-75.78028">
        <ele>108.5</ele>
      </trkpt>
      <trkpt lat="45.46438" lon="-75.78013">
        <ele>108.1</ele>
      </trkpt>
      <trkpt lat="45.46426" lon="-75.77988">
        <ele>107.4</ele>
      </trkpt>
      <trkpt lat="45.46419" lon="-75.77963">
        <ele>106.7</ele>
      </trkpt>
      <trkpt lat="45.46446" lon="-75.7795">
        <ele>106.7</ele>
      </trkpt>
      <trkpt lat="45.46475" lon="-75.77927">
        <ele>107.4</ele>
      </trkpt>
      <trkpt lat="45.46484" lon="-75.77923">
        <ele>107.7</ele>
      </trkpt>
      <trkpt lat="45.46495" lon="-75.77923">
        <ele>108.1</ele>
      </trkpt>
      <trkpt lat="45.46505" lon="-75.77928">
        <ele>108.5</ele>
      </trkpt>
      <trkpt lat="45.4651" lon="-75.77935">
        <ele>108.7</ele>
      </trkpt>
      <trkpt lat="45.46524" lon="-75.77968">
        <ele>109</ele>
      </trkpt>
      <trkpt lat="45.46527" lon="-75.77972">
        <ele>109.1</ele>
      </trkpt>
      <trkpt lat="45.46535" lon="-75.77981">
        <ele>109.4</ele>
      </trkpt>
      <trkpt lat="45.46541" lon="-75.77985">
        <ele>109.5</ele>
      </trkpt>
      <trkpt lat="45.46563" lon="-75.77986">
        <ele>110</ele>
      </trkpt>
      <trkpt lat="45.46596" lon="-75.78">
        <ele>112.1</ele>
      </trkpt>
      <trkpt lat="45.46624" lon="-75.78015">
        <ele>114.3</ele>
      </trkpt>
      <trkpt lat="45.46661" lon="-75.7804">
        <ele>113.3</ele>
      </trkpt>
      <trkpt lat="45.46691" lon="-75.7804">
        <ele>110</ele>
      </trkpt>
      <trkpt lat="45.46738" lon="-75.78029">
        <ele>107.1</ele>
      </trkpt>
      <trkpt lat="45.46748" lon="-75.78025">
        <ele>107.1</ele>
      </trkpt>
      <trkpt lat="45.46757" lon="-75.78018">
        <ele>107</ele>
      </trkpt>
      <trkpt lat="45.46764" lon="-75.78007">
        <ele>107</ele>
      </trkpt>
      <trkpt lat="45.46782" lon="-75.77963">
        <ele>107</ele>
      </trkpt>
      <trkpt lat="45.4679" lon="-75.7795">
        <ele>106.9</ele>
      </trkpt>
      <trkpt lat="45.46806" lon="-75.77931">
        <ele>106.5</ele>
      </trkpt>
      <trkpt lat="45.46822" lon="-75.7792">
        <ele>106.1</ele>
      </trkpt>
      <trkpt lat="45.46836" lon="-75.77911">
        <ele>106</ele>
      </trkpt>
      <trkpt lat="45.46852" lon="-75.77907">
        <ele>106</ele>
      </trkpt>
      <trkpt lat="45.46879" lon="-75.77913">
        <ele>106</ele>
      </trkpt>
      <trkpt lat="45.46889" lon="-75.77912">
        <ele>106</ele>
      </trkpt>
      <trkpt lat="45.46905" lon="-75.77902">
        <ele>105.8</ele>
      </trkpt>
      <trkpt lat="45.46912" lon="-75.77891">
        <ele>105.5</ele>
      </trkpt>
      <trkpt lat="45.46921" lon="-75.77872">
        <ele>105.2</ele>
      </trkpt>
      <trkpt lat="45.46978" lon="-75.77918">
        <ele>105.7</ele>
      </trkpt>
      <trkpt lat="45.47076" lon="-75.77998">
        <ele>106.7</ele>
      </trkpt>
      <trkpt lat="45.47112" lon="-75.78028">
        <ele>107.4</ele>
      </trkpt>
      <trkpt lat="45.47125" lon="-75.78043">
        <ele>107.3</ele>
      </trkpt>
      <trkpt lat="45.47175" lon="-75.78098">
        <ele>105.5</ele>
      </trkpt>
      <trkpt lat="45.47198" lon="-75.7812">
        <ele>105.6</ele>
      </trkpt>
      <trkpt lat="45.47216" lon="-75.7814">
        <ele>106.3</ele>
      </trkpt>
      <trkpt lat="45.47227" lon="-75.78156">
        <ele>106.8</ele>
      </trkpt>
      <trkpt lat="45.47234" lon="-75.78169">
        <ele>107.2</ele>
      </trkpt>
      <trkpt lat="45.47243" lon="-75.78191">
        <ele>109.2</ele>
      </trkpt>
      <trkpt lat="45.47248" lon="-75.78201">
        <ele>110.2</ele>
      </trkpt>
      <trkpt lat="45.47342" lon="-75.78332">
        <ele>110.1</ele>
      </trkpt>
      <trkpt lat="45.47369" lon="-75.78384">
        <ele>109.6</ele>
      </trkpt>
      <trkpt lat="45.47376" lon="-75.78404">
        <ele>110.4</ele>
      </trkpt>
      <trkpt lat="45.47379" lon="-75.78409">
        <ele>110.5</ele>
      </trkpt>
      <trkpt lat="45.47397" lon="-75.78427">
        <ele>110.2</ele>
      </trkpt>
      <trkpt lat="45.4741" lon="-75.78435">
        <ele>109.7</ele>
      </trkpt>
      <trkpt lat="45.4742" lon="-75.78457">
        <ele>109.2</ele>
      </trkpt>
      <trkpt lat="45.47434" lon="-75.78478">
        <ele>108.3</ele>
      </trkpt>
      <trkpt lat="45.47466" lon="-75.78521">
        <ele>107.3</ele>
      </trkpt>
      <trkpt lat="45.47484" lon="-75.78555">
        <ele>107.3</ele>
      </trkpt>
      <trkpt lat="45.47502" lon="-75.7858">
        <ele>107</ele>
      </trkpt>
      <trkpt lat="45.47524" lon="-75.78629">
        <ele>108.5</ele>
      </trkpt>
      <trkpt lat="45.47543" lon="-75.7867">
        <ele>109.8</ele>
      </trkpt>
      <trkpt lat="45.47587" lon="-75.7874">
        <ele>109</ele>
      </trkpt>
      <trkpt lat="45.47647" lon="-75.78845">
        <ele>112.5</ele>
      </trkpt>
      <trkpt lat="45.47658" lon="-75.78867">
        <ele>112.3</ele>
      </trkpt>
      <trkpt lat="45.47668" lon="-75.78892">
        <ele>112.9</ele>
      </trkpt>
      <trkpt lat="45.47686" lon="-75.78943">
        <ele>113.1</ele>
      </trkpt>
      <trkpt lat="45.47689" lon="-75.7895">
        <ele>112.7</ele>
      </trkpt>
      <trkpt lat="45.47694" lon="-75.78948">
        <ele>112.3</ele>
      </trkpt>
      <trkpt lat="45.47698" lon="-75.78946">
        <ele>112</ele>
      </trkpt>
      <trkpt lat="45.47693" lon="-75.78927">
        <ele>110.5</ele>
      </trkpt>
      <trkpt lat="45.47705" lon="-75.78919">
        <ele>108.3</ele>
      </trkpt>
      <trkpt lat="45.47806" lon="-75.78834">
        <ele>102.4</ele>
      </trkpt>
      <trkpt lat="45.47852" lon="-75.78784">
        <ele>99.8</ele>
      </trkpt>
      <trkpt lat="45.47859" lon="-75.78781">
        <ele>99.5</ele>
      </trkpt>
      <trkpt lat="45.47863" lon="-75.78782">
        <ele>99.6</ele>
      </trkpt>
      <trkpt lat="45.47868" lon="-75.78788">
        <ele>99.8</ele>
      </trkpt>
      <trkpt lat="45.47883" lon="-75.78816">
        <ele>100.5</ele>
      </trkpt>
    </trkseg>
  </trk>
</gpx>