<?xml version="1.0" encoding="UTF-8" standalone="yes"?>
<gpx version="1.1" creator="https://onthegomap.com" xmlns="http://www.topografix.com/GPX/1/1">
  <metadata>
    <name>10.7km route</name>
    <link href="https://onthegomap.com">
      <text>On The Go Map</text>
    </link>
    <time>2026-04-11T16:06:32.414Z</time>
    <copyright author="On The Go Map, OpenStreetMap Contributors">
      <year>2026</year>
    </copyright>
  </metadata>
  <trk>
    <name>10.7km route</name>
    <trkseg>
      <trkpt lat="45.47883" lon="-75.78816">
        <ele>100.5</ele>
      </trkpt>
      <trkpt lat="45.47868" lon="-75.78788">
        <ele>99.8</ele>
      </trkpt>
      <trkpt lat="45.47863" lon="-75.78782">
        <ele>99.7</ele>
      </trkpt>
      <trkpt lat="45.47859" lon="-75.78781">
        <ele>99.6</ele>
      </trkpt>
      <trkpt lat="45.47852" lon="-75.78784">
        <ele>99.8</ele>
      </trkpt>
      <trkpt lat="45.47806" lon="-75.78834">
        <ele>102</ele>
      </trkpt>
      <trkpt lat="45.47769" lon="-75.78755">
        <ele>100.4</ele>
      </trkpt>
      <trkpt lat="45.47741" lon="-75.78693">
        <ele>98.9</ele>
      </trkpt>
      <trkpt lat="45.47738" lon="-75.78675">
        <ele>98.4</ele>
      </trkpt>
      <trkpt lat="45.47737" lon="-75.78652">
        <ele>97.9</ele>
      </trkpt>
      <trkpt lat="45.47744" lon="-75.78625">
        <ele>97.6</ele>
      </trkpt>
      <trkpt lat="45.47748" lon="-75.78598">
        <ele>97.1</ele>
      </trkpt>
      <trkpt lat="45.47746" lon="-75.78575">
        <ele>97</ele>
      </trkpt>
      <trkpt lat="45.4774" lon="-75.78555">
        <ele>97</ele>
      </trkpt>
      <trkpt lat="45.47728" lon="-75.78534">
        <ele>97.3</ele>
      </trkpt>
      <trkpt lat="45.47654" lon="-75.784">
        <ele>98.4</ele>
      </trkpt>
      <trkpt lat="45.47645" lon="-75.7839">
        <ele>98.7</ele>
      </trkpt>
      <trkpt lat="45.47639" lon="-75.78388">
        <ele>98.9</ele>
      </trkpt>
      <trkpt lat="45.47615" lon="-75.78382">
        <ele>99</ele>
      </trkpt>
      <trkpt lat="45.47538" lon="-75.78369">
        <ele>99.4</ele>
      </trkpt>
      <trkpt lat="45.47489" lon="-75.78361">
        <ele>99.3</ele>
      </trkpt>
      <trkpt lat="45.47475" lon="-75.78362">
        <ele>100</ele>
      </trkpt>
      <trkpt lat="45.47458" lon="-75.78371">
        <ele>101.9</ele>
      </trkpt>
      <trkpt lat="45.47454" lon="-75.78374">
        <ele>102.4</ele>
      </trkpt>
      <trkpt lat="45.4745" lon="-75.7838">
        <ele>103.1</ele>
      </trkpt>
      <trkpt lat="45.47426" lon="-75.78417">
        <ele>107.1</ele>
      </trkpt>
      <trkpt lat="45.47421" lon="-75.78424">
        <ele>107.7</ele>
      </trkpt>
      <trkpt lat="45.47412" lon="-75.78411">
        <ele>108.2</ele>
      </trkpt>
      <trkpt lat="45.47384" lon="-75.7837">
        <ele>107.6</ele>
      </trkpt>
      <trkpt lat="45.47339" lon="-75.783">
        <ele>109.1</ele>
      </trkpt>
      <trkpt lat="45.47326" lon="-75.78278">
        <ele>108.7</ele>
      </trkpt>
      <trkpt lat="45.47283" lon="-75.78207">
        <ele>108.1</ele>
      </trkpt>
      <trkpt lat="45.47259" lon="-75.78173">
        <ele>106.6</ele>
      </trkpt>
      <trkpt lat="45.47229" lon="-75.78136">
        <ele>105.6</ele>
      </trkpt>
      <trkpt lat="45.47205" lon="-75.78109">
        <ele>105</ele>
      </trkpt>
      <trkpt lat="45.472" lon="-75.78117">
        <ele>105</ele>
      </trkpt>
      <trkpt lat="45.47198" lon="-75.7812">
        <ele>105.1</ele>
      </trkpt>
      <trkpt lat="45.47191" lon="-75.78113">
        <ele>105.1</ele>
      </trkpt>
      <trkpt lat="45.47175" lon="-75.78098">
        <ele>105.5</ele>
      </trkpt>
      <trkpt lat="45.47112" lon="-75.78028">
        <ele>107.4</ele>
      </trkpt>
      <trkpt lat="45.47076" lon="-75.77998">
        <ele>106.7</ele>
      </trkpt>
      <trkpt lat="45.46978" lon="-75.77918">
        <ele>105.7</ele>
      </trkpt>
      <trkpt lat="45.46921" lon="-75.77872">
        <ele>105</ele>
      </trkpt>
      <trkpt lat="45.46836" lon="-75.77798">
        <ele>104</ele>
      </trkpt>
      <trkpt lat="45.46786" lon="-75.77747">
        <ele>104.1</ele>
      </trkpt>
      <trkpt lat="45.46651" lon="-75.7756">
        <ele>102.1</ele>
      </trkpt>
      <trkpt lat="45.466" lon="-75.77487">
        <ele>100.9</ele>
      </trkpt>
      <trkpt lat="45.46594" lon="-75.77474">
        <ele>100.7</ele>
      </trkpt>
      <trkpt lat="45.46571" lon="-75.77441">
        <ele>100.7</ele>
      </trkpt>
      <trkpt lat="45.4656" lon="-75.7743">
        <ele>100.8</ele>
      </trkpt>
      <trkpt lat="45.46501" lon="-75.77347">
        <ele>101</ele>
      </trkpt>
      <trkpt lat="45.46484" lon="-75.77322">
        <ele>101</ele>
      </trkpt>
      <trkpt lat="45.46473" lon="-75.77317">
        <ele>101</ele>
      </trkpt>
      <trkpt lat="45.46464" lon="-75.77307">
        <ele>101</ele>
      </trkpt>
      <trkpt lat="45.46394" lon="-75.77201">
        <ele>99.4</ele>
      </trkpt>
      <trkpt lat="45.4638" lon="-75.77177">
        <ele>99</ele>
      </trkpt>
      <trkpt lat="45.46363" lon="-75.77157">
        <ele>99</ele>
      </trkpt>
      <trkpt lat="45.46315" lon="-75.77088">
        <ele>99</ele>
      </trkpt>
      <trkpt lat="45.46305" lon="-75.77072">
        <ele>99</ele>
      </trkpt>
      <trkpt lat="45.46296" lon="-75.77065">
        <ele>99</ele>
      </trkpt>
      <trkpt lat="45.46265" lon="-75.77024">
        <ele>99</ele>
      </trkpt>
      <trkpt lat="45.46258" lon="-75.77009">
        <ele>99</ele>
      </trkpt>
      <trkpt lat="45.46255" lon="-75.77005">
        <ele>99</ele>
      </trkpt>
      <trkpt lat="45.46227" lon="-75.76972">
        <ele>99.7</ele>
      </trkpt>
      <trkpt lat="45.46222" lon="-75.76964">
        <ele>99.8</ele>
      </trkpt>
      <trkpt lat="45.46179" lon="-75.76913">
        <ele>100.1</ele>
      </trkpt>
      <trkpt lat="45.46116" lon="-75.76843">
        <ele>101.4</ele>
      </trkpt>
      <trkpt lat="45.46099" lon="-75.76822">
        <ele>101.9</ele>
      </trkpt>
      <trkpt lat="45.46072" lon="-75.76798">
        <ele>102</ele>
      </trkpt>
      <trkpt lat="45.46063" lon="-75.76787">
        <ele>102</ele>
      </trkpt>
      <trkpt lat="45.46057" lon="-75.76779">
        <ele>102.1</ele>
      </trkpt>
      <trkpt lat="45.46051" lon="-75.76771">
        <ele>102.1</ele>
      </trkpt>
      <trkpt lat="45.46046" lon="-75.76766">
        <ele>102.1</ele>
      </trkpt>
      <trkpt lat="45.46025" lon="-75.76744">
        <ele>102.1</ele>
      </trkpt>
      <trkpt lat="45.4601" lon="-75.76733">
        <ele>102</ele>
      </trkpt>
      <trkpt lat="45.4599" lon="-75.76727">
        <ele>102</ele>
      </trkpt>
      <trkpt lat="45.45952" lon="-75.76719">
        <ele>102</ele>
      </trkpt>
      <trkpt lat="45.4587" lon="-75.76706">
        <ele>101</ele>
      </trkpt>
      <trkpt lat="45.45866" lon="-75.76703">
        <ele>101</ele>
      </trkpt>
      <trkpt lat="45.45855" lon="-75.767">
        <ele>101.1</ele>
      </trkpt>
      <trkpt lat="45.45848" lon="-75.76698">
        <ele>101.2</ele>
      </trkpt>
      <trkpt lat="45.45787" lon="-75.76685">
        <ele>101</ele>
      </trkpt>
      <trkpt lat="45.45765" lon="-75.76676">
        <ele>101</ele>
      </trkpt>
      <trkpt lat="45.45729" lon="-75.76648">
        <ele>101.1</ele>
      </trkpt>
      <trkpt lat="45.45724" lon="-75.7664">
        <ele>101.1</ele>
      </trkpt>
      <trkpt lat="45.45704" lon="-75.76591">
        <ele>100.7</ele>
      </trkpt>
      <trkpt lat="45.457" lon="-75.76582">
        <ele>100.4</ele>
      </trkpt>
      <trkpt lat="45.45696" lon="-75.76572">
        <ele>100.2</ele>
      </trkpt>
      <trkpt lat="45.45693" lon="-75.76564">
        <ele>100.1</ele>
      </trkpt>
      <trkpt lat="45.45682" lon="-75.76535">
        <ele>100</ele>
      </trkpt>
      <trkpt lat="45.45668" lon="-75.76506">
        <ele>100</ele>
      </trkpt>
      <trkpt lat="45.45661" lon="-75.76481">
        <ele>99.9</ele>
      </trkpt>
      <trkpt lat="45.45654" lon="-75.76444">
        <ele>99.5</ele>
      </trkpt>
      <trkpt lat="45.45621" lon="-75.76364">
        <ele>96.9</ele>
      </trkpt>
      <trkpt lat="45.45605" lon="-75.76329">
        <ele>96.3</ele>
      </trkpt>
      <trkpt lat="45.45594" lon="-75.76287">
        <ele>94.4</ele>
      </trkpt>
      <trkpt lat="45.45566" lon="-75.76214">
        <ele>90.7</ele>
      </trkpt>
      <trkpt lat="45.45552" lon="-75.76183">
        <ele>90.1</ele>
      </trkpt>
      <trkpt lat="45.45466" lon="-75.76033">
        <ele>89.5</ele>
      </trkpt>
      <trkpt lat="45.4544" lon="-75.75999">
        <ele>87.7</ele>
      </trkpt>
      <trkpt lat="45.45427" lon="-75.75976">
        <ele>86.8</ele>
      </trkpt>
      <trkpt lat="45.45416" lon="-75.75949">
        <ele>86</ele>
      </trkpt>
      <trkpt lat="45.45395" lon="-75.75917">
        <ele>85.1</ele>
      </trkpt>
      <trkpt lat="45.45386" lon="-75.75906">
        <ele>85</ele>
      </trkpt>
      <trkpt lat="45.4538" lon="-75.75902">
        <ele>85.1</ele>
      </trkpt>
      <trkpt lat="45.45368" lon="-75.75894">
        <ele>85.1</ele>
      </trkpt>
      <trkpt lat="45.45368" lon="-75.75883">
        <ele>85</ele>
      </trkpt>
      <trkpt lat="45.45375" lon="-75.75883">
        <ele>85</ele>
      </trkpt>
      <trkpt lat="45.45382" lon="-75.75866">
        <ele>84.8</ele>
      </trkpt>
      <trkpt lat="45.45404" lon="-75.75809">
        <ele>84.8</ele>
      </trkpt>
      <trkpt lat="45.45406" lon="-75.75793">
        <ele>84.7</ele>
      </trkpt>
      <trkpt lat="45.45409" lon="-75.75754">
        <ele>85.2</ele>
      </trkpt>
      <trkpt lat="45.45421" lon="-75.75552">
        <ele>86</ele>
      </trkpt>
      <trkpt lat="45.45433" lon="-75.7535">
        <ele>85.2</ele>
      </trkpt>
      <trkpt lat="45.45439" lon="-75.75252">
        <ele>84.9</ele>
      </trkpt>
      <trkpt lat="45.45442" lon="-75.7519">
        <ele>84.3</ele>
      </trkpt>
      <trkpt lat="45.45443" lon="-75.75186">
        <ele>84.3</ele>
      </trkpt>
      <trkpt lat="45.45443" lon="-75.75181">
        <ele>84.2</ele>
      </trkpt>
      <trkpt lat="45.4545" lon="-75.75182">
        <ele>84</ele>
      </trkpt>
      <trkpt lat="45.45473" lon="-75.75185">
        <ele>83.8</ele>
      </trkpt>
      <trkpt lat="45.45485" lon="-75.75186">
        <ele>83.3</ele>
      </trkpt>
      <trkpt lat="45.4552" lon="-75.75186">
        <ele>82.8</ele>
      </trkpt>
      <trkpt lat="45.45596" lon="-75.75173">
        <ele>80.9</ele>
      </trkpt>
      <trkpt lat="45.45616" lon="-75.75165">
        <ele>80.6</ele>
      </trkpt>
      <trkpt lat="45.45632" lon="-75.75155">
        <ele>79.6</ele>
      </trkpt>
      <trkpt lat="45.45653" lon="-75.75125">
        <ele>77.7</ele>
      </trkpt>
      <trkpt lat="45.45657" lon="-75.75119">
        <ele>77.2</ele>
      </trkpt>
      <trkpt lat="45.45662" lon="-75.75112">
        <ele>76.7</ele>
      </trkpt>
      <trkpt lat="45.45705" lon="-75.7504">
        <ele>74.5</ele>
      </trkpt>
      <trkpt lat="45.45707" lon="-75.75035">
        <ele>74.4</ele>
      </trkpt>
      <trkpt lat="45.45716" lon="-75.75023">
        <ele>74.3</ele>
      </trkpt>
      <trkpt lat="45.45721" lon="-75.75029">
        <ele>74.3</ele>
      </trkpt>
      <trkpt lat="45.45749" lon="-75.7506">
        <ele>75.3</ele>
      </trkpt>
      <trkpt lat="45.45755" lon="-75.75067">
        <ele>75.5</ele>
      </trkpt>
      <trkpt lat="45.45758" lon="-75.75062">
        <ele>75.2</ele>
      </trkpt>
      <trkpt lat="45.45799" lon="-75.7499">
        <ele>73</ele>
      </trkpt>
      <trkpt lat="45.45844" lon="-75.74909">
        <ele>70.7</ele>
      </trkpt>
      <trkpt lat="45.45858" lon="-75.74882">
        <ele>70.6</ele>
      </trkpt>
      <trkpt lat="45.45868" lon="-75.74862">
        <ele>69.8</ele>
      </trkpt>
      <trkpt lat="45.45891" lon="-75.74828">
        <ele>68.1</ele>
      </trkpt>
      <trkpt lat="45.45919" lon="-75.748">
        <ele>65.5</ele>
      </trkpt>
      <trkpt lat="45.45951" lon="-75.74774">
        <ele>61</ele>
      </trkpt>
      <trkpt lat="45.46011" lon="-75.74722">
        <ele>58.6</ele>
      </trkpt>
      <trkpt lat="45.46016" lon="-75.74718">
        <ele>58.5</ele>
      </trkpt>
      <trkpt lat="45.46021" lon="-75.74714">
        <ele>58.3</ele>
      </trkpt>
      <trkpt lat="45.46068" lon="-75.74673">
        <ele>58</ele>
      </trkpt>
      <trkpt lat="45.46071" lon="-75.74668">
        <ele>58</ele>
      </trkpt>
      <trkpt lat="45.46073" lon="-75.74664">
        <ele>58</ele>
      </trkpt>
      <trkpt lat="45.46074" lon="-75.7466">
        <ele>58</ele>
      </trkpt>
      <trkpt lat="45.46078" lon="-75.74668">
        <ele>58</ele>
      </trkpt>
      <trkpt lat="45.46089" lon="-75.74691">
        <ele>58</ele>
      </trkpt>
      <trkpt lat="45.46136" lon="-75.74789">
        <ele>59</ele>
      </trkpt>
      <trkpt lat="45.46138" lon="-75.74801">
        <ele>59</ele>
      </trkpt>
      <trkpt lat="45.46135" lon="-75.74832">
        <ele>59</ele>
      </trkpt>
      <trkpt lat="45.46134" lon="-75.74842">
        <ele>59</ele>
      </trkpt>
      <trkpt lat="45.46147" lon="-75.74844">
        <ele>59</ele>
      </trkpt>
      <trkpt lat="45.46182" lon="-75.74849">
        <ele>59</ele>
      </trkpt>
      <trkpt lat="45.46186" lon="-75.74849">
        <ele>59</ele>
      </trkpt>
      <trkpt lat="45.462" lon="-75.7484">
        <ele>59</ele>
      </trkpt>
      <trkpt lat="45.46204" lon="-75.7484">
        <ele>59</ele>
      </trkpt>
      <trkpt lat="45.46271" lon="-75.74848">
        <ele>59</ele>
      </trkpt>
      <trkpt lat="45.46272" lon="-75.74833">
        <ele>59</ele>
      </trkpt>
      <trkpt lat="45.46293" lon="-75.74845">
        <ele>59</ele>
      </trkpt>
      <trkpt lat="45.463" lon="-75.74849">
        <ele>59</ele>
      </trkpt>
      <trkpt lat="45.46311" lon="-75.74857">
        <ele>59</ele>
      </trkpt>
      <trkpt lat="45.46327" lon="-75.74866">
        <ele>59</ele>
      </trkpt>
      <trkpt lat="45.46344" lon="-75.74877">
        <ele>59</ele>
      </trkpt>
      <trkpt lat="45.46358" lon="-75.74886">
        <ele>59</ele>
      </trkpt>
      <trkpt lat="45.46374" lon="-75.74896">
        <ele>59</ele>
      </trkpt>
      <trkpt lat="45.46413" lon="-75.74921">
        <ele>59.1</ele>
      </trkpt>
      <trkpt lat="45.46421" lon="-75.74926">
        <ele>59.2</ele>
      </trkpt>
      <trkpt lat="45.46436" lon="-75.74935">
        <ele>59.5</ele>
      </trkpt>
      <trkpt lat="45.46452" lon="-75.74945">
        <ele>59.7</ele>
      </trkpt>
      <trkpt lat="45.46465" lon="-75.74953">
        <ele>59.7</ele>
      </trkpt>
      <trkpt lat="45.46467" lon="-75.74955">
        <ele>59.6</ele>
      </trkpt>
      <trkpt lat="45.46481" lon="-75.74964">
        <ele>59.4</ele>
      </trkpt>
      <trkpt lat="45.46511" lon="-75.74982">
        <ele>59.1</ele>
      </trkpt>
      <trkpt lat="45.46518" lon="-75.74986">
        <ele>59</ele>
      </trkpt>
      <trkpt lat="45.46518" lon="-75.74978">
        <ele>59</ele>
      </trkpt>
      <trkpt lat="45.4652" lon="-75.74943">
        <ele>59</ele>
      </trkpt>
      <trkpt lat="45.46522" lon="-75.7492">
        <ele>59</ele>
      </trkpt>
      <trkpt lat="45.46523" lon="-75.74888">
        <ele>59</ele>
      </trkpt>
      <trkpt lat="45.46524" lon="-75.74878">
        <ele>59</ele>
      </trkpt>
      <trkpt lat="45.46538" lon="-75.74887">
        <ele>59</ele>
      </trkpt>
      <trkpt lat="45.46559" lon="-75.749">
        <ele>59</ele>
      </trkpt>
      <trkpt lat="45.46575" lon="-75.74916">
        <ele>59</ele>
      </trkpt>
      <trkpt lat="45.46585" lon="-75.74754">
        <ele>58.2</ele>
      </trkpt>
      <trkpt lat="45.46588" lon="-75.74732">
        <ele>58</ele>
      </trkpt>
      <trkpt lat="45.46592" lon="-75.74725">
        <ele>58</ele>
      </trkpt>
      <trkpt lat="45.46598" lon="-75.7472">
        <ele>58</ele>
      </trkpt>
      <trkpt lat="45.4661" lon="-75.74717">
        <ele>58</ele>
      </trkpt>
      <trkpt lat="45.4662" lon="-75.74718">
        <ele>58.1</ele>
      </trkpt>
      <trkpt lat="45.46625" lon="-75.74718">
        <ele>58.1</ele>
      </trkpt>
      <trkpt lat="45.46688" lon="-75.74725">
        <ele>58.2</ele>
      </trkpt>
      <trkpt lat="45.46702" lon="-75.74728">
        <ele>58</ele>
      </trkpt>
      <trkpt lat="45.46712" lon="-75.7473">
        <ele>58</ele>
      </trkpt>
      <trkpt lat="45.46722" lon="-75.7474">
        <ele>58</ele>
      </trkpt>
      <trkpt lat="45.46728" lon="-75.7475">
        <ele>58</ele>
      </trkpt>
      <trkpt lat="45.46729" lon="-75.74759">
        <ele>58</ele>
      </trkpt>
      <trkpt lat="45.46733" lon="-75.74759">
        <ele>58</ele>
      </trkpt>
      <trkpt lat="45.4675" lon="-75.74765">
        <ele>58</ele>
      </trkpt>
      <trkpt lat="45.46757" lon="-75.74769">
        <ele>58</ele>
      </trkpt>
      <trkpt lat="45.46765" lon="-75.7479">
        <ele>58.3</ele>
      </trkpt>
      <trkpt lat="45.4679" lon="-75.74829">
        <ele>58.6</ele>
      </trkpt>
      <trkpt lat="45.46809" lon="-75.74846">
        <ele>58.9</ele>
      </trkpt>
      <trkpt lat="45.46816" lon="-75.74855">
        <ele>59</ele>
      </trkpt>
      <trkpt lat="45.4682" lon="-75.74866">
        <ele>59</ele>
      </trkpt>
      <trkpt lat="45.46826" lon="-75.74888">
        <ele>59.1</ele>
      </trkpt>
      <trkpt lat="45.46839" lon="-75.74897">
        <ele>59.3</ele>
      </trkpt>
      <trkpt lat="45.46849" lon="-75.749">
        <ele>59.4</ele>
      </trkpt>
      <trkpt lat="45.46874" lon="-75.74887">
        <ele>59.1</ele>
      </trkpt>
      <trkpt lat="45.46882" lon="-75.74886">
        <ele>59.1</ele>
      </trkpt>
      <trkpt lat="45.46893" lon="-75.7489">
        <ele>59.3</ele>
      </trkpt>
      <trkpt lat="45.46904" lon="-75.74903">
        <ele>59.8</ele>
      </trkpt>
      <trkpt lat="45.46936" lon="-75.74955">
        <ele>60.8</ele>
      </trkpt>
      <trkpt lat="45.4695" lon="-75.74939">
        <ele>61</ele>
      </trkpt>
      <trkpt lat="45.46979" lon="-75.74909">
        <ele>61.4</ele>
      </trkpt>
      <trkpt lat="45.47" lon="-75.74887">
        <ele>61.2</ele>
      </trkpt>
      <trkpt lat="45.47025" lon="-75.74924">
        <ele>62.7</ele>
      </trkpt>
      <trkpt lat="45.47031" lon="-75.74931">
        <ele>63.1</ele>
      </trkpt>
      <trkpt lat="45.47041" lon="-75.74938">
        <ele>63.4</ele>
      </trkpt>
      <trkpt lat="45.47052" lon="-75.74939">
        <ele>63.7</ele>
      </trkpt>
      <trkpt lat="45.47057" lon="-75.74965">
        <ele>64.4</ele>
      </trkpt>
      <trkpt lat="45.47092" lon="-75.75074">
        <ele>68.4</ele>
      </trkpt>
      <trkpt lat="45.47119" lon="-75.75176">
        <ele>70</ele>
      </trkpt>
      <trkpt lat="45.47126" lon="-75.75215">
        <ele>71.9</ele>
      </trkpt>
      <trkpt lat="45.47144" lon="-75.75345">
        <ele>79</ele>
      </trkpt>
      <trkpt lat="45.47145" lon="-75.75352">
        <ele>79.2</ele>
      </trkpt>
      <trkpt lat="45.47145" lon="-75.75362">
        <ele>79.4</ele>
      </trkpt>
      <trkpt lat="45.47148" lon="-75.75428">
        <ele>80.2</ele>
      </trkpt>
      <trkpt lat="45.47157" lon="-75.75651">
        <ele>87.3</ele>
      </trkpt>
      <trkpt lat="45.47158" lon="-75.75659">
        <ele>87.6</ele>
      </trkpt>
      <trkpt lat="45.47158" lon="-75.75685">
        <ele>88.7</ele>
      </trkpt>
      <trkpt lat="45.47167" lon="-75.75963">
        <ele>92.6</ele>
      </trkpt>
      <trkpt lat="45.47172" lon="-75.76025">
        <ele>92.7</ele>
      </trkpt>
      <trkpt lat="45.47169" lon="-75.76025">
        <ele>92.7</ele>
      </trkpt>
      <trkpt lat="45.4718" lon="-75.76114">
        <ele>92.9</ele>
      </trkpt>
      <trkpt lat="45.47191" lon="-75.76192">
        <ele>92.1</ele>
      </trkpt>
      <trkpt lat="45.47187" lon="-75.76194">
        <ele>92.1</ele>
      </trkpt>
      <trkpt lat="45.47176" lon="-75.76201">
        <ele>92.4</ele>
      </trkpt>
      <trkpt lat="45.47171" lon="-75.76205">
        <ele>92.5</ele>
      </trkpt>
      <trkpt lat="45.47176" lon="-75.76223">
        <ele>92.9</ele>
      </trkpt>
      <trkpt lat="45.47183" lon="-75.76242">
        <ele>93</ele>
      </trkpt>
      <trkpt lat="45.47191" lon="-75.76266">
        <ele>93</ele>
      </trkpt>
      <trkpt lat="45.47211" lon="-75.76307">
        <ele>93</ele>
      </trkpt>
      <trkpt lat="45.47227" lon="-75.76336">
        <ele>93</ele>
      </trkpt>
      <trkpt lat="45.47301" lon="-75.76452">
        <ele>93</ele>
      </trkpt>
      <trkpt lat="45.47304" lon="-75.76456">
        <ele>93</ele>
      </trkpt>
      <trkpt lat="45.47312" lon="-75.76469">
        <ele>93</ele>
      </trkpt>
      <trkpt lat="45.47345" lon="-75.7652">
        <ele>93</ele>
      </trkpt>
      <trkpt lat="45.47362" lon="-75.76553">
        <ele>93</ele>
      </trkpt>
      <trkpt lat="45.47382" lon="-75.76602">
        <ele>93.1</ele>
      </trkpt>
      <trkpt lat="45.47394" lon="-75.76643">
        <ele>93.9</ele>
      </trkpt>
      <trkpt lat="45.47401" lon="-75.76678">
        <ele>94.1</ele>
      </trkpt>
      <trkpt lat="45.47408" lon="-75.76728">
        <ele>95.5</ele>
      </trkpt>
      <trkpt lat="45.47417" lon="-75.76796">
        <ele>98</ele>
      </trkpt>
      <trkpt lat="45.47424" lon="-75.76851">
        <ele>99.3</ele>
      </trkpt>
      <trkpt lat="45.47433" lon="-75.76922">
        <ele>100</ele>
      </trkpt>
      <trkpt lat="45.4744" lon="-75.76974">
        <ele>100.7</ele>
      </trkpt>
      <trkpt lat="45.47446" lon="-75.77025">
        <ele>101</ele>
      </trkpt>
      <trkpt lat="45.47455" lon="-75.77099">
        <ele>102</ele>
      </trkpt>
      <trkpt lat="45.4746" lon="-75.77138">
        <ele>102</ele>
      </trkpt>
      <trkpt lat="45.47461" lon="-75.7715">
        <ele>102</ele>
      </trkpt>
      <trkpt lat="45.47463" lon="-75.7716">
        <ele>102</ele>
      </trkpt>
      <trkpt lat="45.47465" lon="-75.77179">
        <ele>102</ele>
      </trkpt>
      <trkpt lat="45.47469" lon="-75.77215">
        <ele>102</ele>
      </trkpt>
      <trkpt lat="45.4747" lon="-75.77224">
        <ele>102</ele>
      </trkpt>
      <trkpt lat="45.47471" lon="-75.77231">
        <ele>102</ele>
      </trkpt>
      <trkpt lat="45.47478" lon="-75.77285">
        <ele>102</ele>
      </trkpt>
      <trkpt lat="45.4748" lon="-75.77316">
        <ele>102</ele>
      </trkpt>
      <trkpt lat="45.47477" lon="-75.77351">
        <ele>100.5</ele>
      </trkpt>
      <trkpt lat="45.47467" lon="-75.77396">
        <ele>97.7</ele>
      </trkpt>
      <trkpt lat="45.47465" lon="-75.77402">
        <ele>97.4</ele>
      </trkpt>
      <trkpt lat="45.47463" lon="-75.7741">
        <ele>96.9</ele>
      </trkpt>
      <trkpt lat="45.47458" lon="-75.77426">
        <ele>96</ele>
      </trkpt>
      <trkpt lat="45.47454" lon="-75.77437">
        <ele>95.4</ele>
      </trkpt>
      <trkpt lat="45.47451" lon="-75.77451">
        <ele>94.8</ele>
      </trkpt>
      <trkpt lat="45.47419" lon="-75.77553">
        <ele>94.1</ele>
      </trkpt>
      <trkpt lat="45.47411" lon="-75.77585">
        <ele>94.7</ele>
      </trkpt>
      <trkpt lat="45.47352" lon="-75.7777">
        <ele>93.3</ele>
      </trkpt>
      <trkpt lat="45.47341" lon="-75.77801">
        <ele>93.4</ele>
      </trkpt>
      <trkpt lat="45.47322" lon="-75.77841">
        <ele>92.9</ele>
      </trkpt>
      <trkpt lat="45.47267" lon="-75.77941">
        <ele>98.7</ele>
      </trkpt>
      <trkpt lat="45.47255" lon="-75.77963">
        <ele>100.8</ele>
      </trkpt>
      <trkpt lat="45.47202" lon="-75.78058">
        <ele>103.6</ele>
      </trkpt>
      <trkpt lat="45.47196" lon="-75.78066">
        <ele>104.1</ele>
      </trkpt>
      <trkpt lat="45.4719" lon="-75.78069">
        <ele>104.4</ele>
      </trkpt>
      <trkpt lat="45.4719" lon="-75.78075">
        <ele>104.6</ele>
      </trkpt>
      <trkpt lat="45.47184" lon="-75.78085">
        <ele>104.9</ele>
      </trkpt>
      <trkpt lat="45.47183" lon="-75.78086">
        <ele>104.9</ele>
      </trkpt>
      <trkpt lat="45.47184" lon="-75.78085">
        <ele>104.9</ele>
      </trkpt>
      <trkpt lat="45.47191" lon="-75.78092">
        <ele>104.9</ele>
      </trkpt>
      <trkpt lat="45.472" lon="-75.78103">
        <ele>104.8</ele>
      </trkpt>
      <trkpt lat="45.47205" lon="-75.78109">
        <ele>105</ele>
      </trkpt>
      <trkpt lat="45.47229" lon="-75.78136">
        <ele>105.7</ele>
      </trkpt>
      <trkpt lat="45.47259" lon="-75.78173">
        <ele>106.6</ele>
      </trkpt>
      <trkpt lat="45.47283" lon="-75.78207">
        <ele>108.1</ele>
      </trkpt>
      <trkpt lat="45.47326" lon="-75.78278">
        <ele>108.8</ele>
      </trkpt>
      <trkpt lat="45.47339" lon="-75.783">
        <ele>109</ele>
      </trkpt>
      <trkpt lat="45.47384" lon="-75.7837">
        <ele>107.6</ele>
      </trkpt>
      <trkpt lat="45.47421" lon="-75.78424">
        <ele>108</ele>
      </trkpt>
      <trkpt lat="45.4743" lon="-75.78429">
        <ele>107.4</ele>
      </trkpt>
      <trkpt lat="45.47433" lon="-75.78433">
        <ele>107.1</ele>
      </trkpt>
      <trkpt lat="45.47434" lon="-75.78431">
        <ele>106.9</ele>
      </trkpt>
      <trkpt lat="45.47434" lon="-75.7843">
        <ele>106.9</ele>
      </trkpt>
      <trkpt lat="45.47434" lon="-75.78431">
        <ele>106.8</ele>
      </trkpt>
      <trkpt lat="45.47459" lon="-75.78467">
        <ele>105.3</ele>
      </trkpt>
      <trkpt lat="45.47505" lon="-75.78544">
        <ele>104</ele>
      </trkpt>
      <trkpt lat="45.47535" lon="-75.78621">
        <ele>106.4</ele>
      </trkpt>
      <trkpt lat="45.47545" lon="-75.78646">
        <ele>107.1</ele>
      </trkpt>
      <trkpt lat="45.47631" lon="-75.78788">
        <ele>107.7</ele>
      </trkpt>
      <trkpt lat="45.47662" lon="-75.78843">
        <ele>109.2</ele>
      </trkpt>
      <trkpt lat="45.4767" lon="-75.78859">
        <ele>109.1</ele>
      </trkpt>
      <trkpt lat="45.47693" lon="-75.78927">
        <ele>110.5</ele>
      </trkpt>
      <trkpt lat="45.47705" lon="-75.78919">
        <ele>108.7</ele>
      </trkpt>
      <trkpt lat="45.47735" lon="-75.78894">
        <ele>105.3</ele>
      </trkpt>
      <trkpt lat="45.47806" lon="-75.78834">
        <ele>102.3</ele>
      </trkpt>
      <trkpt lat="45.47852" lon="-75.78784">
        <ele>99.7</ele>
      </trkpt>
      <trkpt lat="45.47859" lon="-75.78781">
        <ele>99.6</ele>
      </trkpt>
      <trkpt lat="45.47863" lon="-75.78782">
        <ele>99.7</ele>
      </trkpt>
      <trkpt lat="45.47868" lon="-75.78788">
        <ele>99.8</ele>
      </trkpt>
      <trkpt lat="45.47882" lon="-75.78814">
        <ele>100.5</ele>
      </trkpt>
    </trkseg>
  </trk>
</gpx>