<?xml version="1.0" encoding="UTF-8" standalone="yes"?>
<gpx version="1.1" creator="https://onthegomap.com" xmlns="http://www.topografix.com/GPX/1/1">
  <metadata>
    <name>5.4km route</name>
    <link href="https://onthegomap.com">
      <text>On The Go Map</text>
    </link>
    <time>2026-04-28T01:28:13.494Z</time>
    <copyright author="On The Go Map, OpenStreetMap Contributors">
      <year>2026</year>
    </copyright>
  </metadata>
  <trk>
    <name>5.4km route</name>
    <trkseg>
      <trkpt lat="45.47884" lon="-75.78817">
        <ele>100.5</ele>
      </trkpt>
      <trkpt lat="45.47928" lon="-75.78899">
        <ele>101.9</ele>
      </trkpt>
      <trkpt lat="45.47966" lon="-75.78969">
        <ele>102.9</ele>
      </trkpt>
      <trkpt lat="45.47969" lon="-75.78981">
        <ele>103</ele>
      </trkpt>
      <trkpt lat="45.47967" lon="-75.78992">
        <ele>103</ele>
      </trkpt>
      <trkpt lat="45.47964" lon="-75.78996">
        <ele>103</ele>
      </trkpt>
      <trkpt lat="45.47945" lon="-75.79014">
        <ele>103.3</ele>
      </trkpt>
      <trkpt lat="45.47903" lon="-75.79021">
        <ele>103.5</ele>
      </trkpt>
      <trkpt lat="45.47904" lon="-75.79059">
        <ele>104.6</ele>
      </trkpt>
      <trkpt lat="45.47908" lon="-75.79078">
        <ele>105</ele>
      </trkpt>
      <trkpt lat="45.47854" lon="-75.79099">
        <ele>105.1</ele>
      </trkpt>
      <trkpt lat="45.47848" lon="-75.79105">
        <ele>105.3</ele>
      </trkpt>
      <trkpt lat="45.47847" lon="-75.79111">
        <ele>105.4</ele>
      </trkpt>
      <trkpt lat="45.47849" lon="-75.79123">
        <ele>105.6</ele>
      </trkpt>
      <trkpt lat="45.47885" lon="-75.7926">
        <ele>110.3</ele>
      </trkpt>
      <trkpt lat="45.47905" lon="-75.79335">
        <ele>112.6</ele>
      </trkpt>
      <trkpt lat="45.47899" lon="-75.79338">
        <ele>112.7</ele>
      </trkpt>
      <trkpt lat="45.47865" lon="-75.79358">
        <ele>113.6</ele>
      </trkpt>
      <trkpt lat="45.47833" lon="-75.79394">
        <ele>117.2</ele>
      </trkpt>
      <trkpt lat="45.47804" lon="-75.79392">
        <ele>120.9</ele>
      </trkpt>
      <trkpt lat="45.47779" lon="-75.79383">
        <ele>123.9</ele>
      </trkpt>
      <trkpt lat="45.47759" lon="-75.79376">
        <ele>126.7</ele>
      </trkpt>
      <trkpt lat="45.47734" lon="-75.79371">
        <ele>129</ele>
      </trkpt>
      <trkpt lat="45.47715" lon="-75.79382">
        <ele>132.7</ele>
      </trkpt>
      <trkpt lat="45.47689" lon="-75.79406">
        <ele>138.4</ele>
      </trkpt>
      <trkpt lat="45.47651" lon="-75.79422">
        <ele>140.9</ele>
      </trkpt>
      <trkpt lat="45.47644" lon="-75.79428">
        <ele>141.5</ele>
      </trkpt>
      <trkpt lat="45.47636" lon="-75.79432">
        <ele>141.9</ele>
      </trkpt>
      <trkpt lat="45.47604" lon="-75.7943">
        <ele>142.1</ele>
      </trkpt>
      <trkpt lat="45.47572" lon="-75.79434">
        <ele>143.4</ele>
      </trkpt>
      <trkpt lat="45.47565" lon="-75.79437">
        <ele>144</ele>
      </trkpt>
      <trkpt lat="45.47532" lon="-75.79464">
        <ele>148.5</ele>
      </trkpt>
      <trkpt lat="45.47511" lon="-75.79489">
        <ele>150.2</ele>
      </trkpt>
      <trkpt lat="45.47506" lon="-75.7949">
        <ele>150.2</ele>
      </trkpt>
      <trkpt lat="45.4751" lon="-75.79498">
        <ele>149.9</ele>
      </trkpt>
      <trkpt lat="45.47511" lon="-75.79508">
        <ele>149.6</ele>
      </trkpt>
      <trkpt lat="45.47508" lon="-75.79528">
        <ele>149.9</ele>
      </trkpt>
      <trkpt lat="45.47492" lon="-75.79596">
        <ele>154.8</ele>
      </trkpt>
      <trkpt lat="45.47486" lon="-75.79652">
        <ele>160.7</ele>
      </trkpt>
      <trkpt lat="45.47481" lon="-75.79687">
        <ele>164.2</ele>
      </trkpt>
      <trkpt lat="45.47468" lon="-75.79735">
        <ele>166.9</ele>
      </trkpt>
      <trkpt lat="45.47456" lon="-75.7976">
        <ele>165.5</ele>
      </trkpt>
      <trkpt lat="45.47444" lon="-75.7975">
        <ele>163.4</ele>
      </trkpt>
      <trkpt lat="45.47441" lon="-75.79748">
        <ele>162.9</ele>
      </trkpt>
      <trkpt lat="45.47412" lon="-75.79734">
        <ele>159.2</ele>
      </trkpt>
      <trkpt lat="45.474" lon="-75.79727">
        <ele>158.2</ele>
      </trkpt>
      <trkpt lat="45.47365" lon="-75.79678">
        <ele>155</ele>
      </trkpt>
      <trkpt lat="45.47332" lon="-75.79639">
        <ele>152.2</ele>
      </trkpt>
      <trkpt lat="45.47321" lon="-75.79633">
        <ele>152.2</ele>
      </trkpt>
      <trkpt lat="45.47308" lon="-75.79631">
        <ele>152.5</ele>
      </trkpt>
      <trkpt lat="45.47193" lon="-75.79612">
        <ele>149.7</ele>
      </trkpt>
      <trkpt lat="45.47153" lon="-75.79604">
        <ele>147.1</ele>
      </trkpt>
      <trkpt lat="45.47136" lon="-75.79596">
        <ele>144.3</ele>
      </trkpt>
      <trkpt lat="45.47126" lon="-75.79586">
        <ele>143.4</ele>
      </trkpt>
      <trkpt lat="45.47116" lon="-75.79557">
        <ele>142.4</ele>
      </trkpt>
      <trkpt lat="45.47103" lon="-75.79532">
        <ele>141.5</ele>
      </trkpt>
      <trkpt lat="45.47084" lon="-75.79513">
        <ele>141.8</ele>
      </trkpt>
      <trkpt lat="45.47063" lon="-75.7951">
        <ele>141.7</ele>
      </trkpt>
      <trkpt lat="45.47047" lon="-75.79513">
        <ele>141.2</ele>
      </trkpt>
      <trkpt lat="45.47017" lon="-75.79537">
        <ele>141.5</ele>
      </trkpt>
      <trkpt lat="45.46996" lon="-75.7954">
        <ele>141.6</ele>
      </trkpt>
      <trkpt lat="45.46975" lon="-75.79538">
        <ele>141.8</ele>
      </trkpt>
      <trkpt lat="45.46957" lon="-75.79523">
        <ele>141.5</ele>
      </trkpt>
      <trkpt lat="45.46944" lon="-75.79513">
        <ele>141.2</ele>
      </trkpt>
      <trkpt lat="45.46923" lon="-75.79488">
        <ele>139</ele>
      </trkpt>
      <trkpt lat="45.46917" lon="-75.79464">
        <ele>135.6</ele>
      </trkpt>
      <trkpt lat="45.4691" lon="-75.79453">
        <ele>133.8</ele>
      </trkpt>
      <trkpt lat="45.46893" lon="-75.79442">
        <ele>131.7</ele>
      </trkpt>
      <trkpt lat="45.46869" lon="-75.79394">
        <ele>127.3</ele>
      </trkpt>
      <trkpt lat="45.46857" lon="-75.79368">
        <ele>126.8</ele>
      </trkpt>
      <trkpt lat="45.46836" lon="-75.79291">
        <ele>126.4</ele>
      </trkpt>
      <trkpt lat="45.46833" lon="-75.79257">
        <ele>124.7</ele>
      </trkpt>
      <trkpt lat="45.46828" lon="-75.79228">
        <ele>122.8</ele>
      </trkpt>
      <trkpt lat="45.46827" lon="-75.79186">
        <ele>120.4</ele>
      </trkpt>
      <trkpt lat="45.46821" lon="-75.79168">
        <ele>119.7</ele>
      </trkpt>
      <trkpt lat="45.46806" lon="-75.79144">
        <ele>119</ele>
      </trkpt>
      <trkpt lat="45.46799" lon="-75.79133">
        <ele>118.7</ele>
      </trkpt>
      <trkpt lat="45.46792" lon="-75.79117">
        <ele>118.5</ele>
      </trkpt>
      <trkpt lat="45.46786" lon="-75.79113">
        <ele>118.5</ele>
      </trkpt>
      <trkpt lat="45.46762" lon="-75.79077">
        <ele>119</ele>
      </trkpt>
      <trkpt lat="45.46753" lon="-75.79054">
        <ele>119.6</ele>
      </trkpt>
      <trkpt lat="45.46735" lon="-75.78978">
        <ele>123.4</ele>
      </trkpt>
      <trkpt lat="45.46748" lon="-75.78981">
        <ele>123.1</ele>
      </trkpt>
      <trkpt lat="45.46765" lon="-75.78972">
        <ele>123.1</ele>
      </trkpt>
      <trkpt lat="45.4679" lon="-75.78968">
        <ele>123.4</ele>
      </trkpt>
      <trkpt lat="45.468" lon="-75.78964">
        <ele>124.2</ele>
      </trkpt>
      <trkpt lat="45.46814" lon="-75.78957">
        <ele>125.6</ele>
      </trkpt>
      <trkpt lat="45.46822" lon="-75.78956">
        <ele>126.2</ele>
      </trkpt>
      <trkpt lat="45.46844" lon="-75.78958">
        <ele>127.3</ele>
      </trkpt>
      <trkpt lat="45.46901" lon="-75.78985">
        <ele>128</ele>
      </trkpt>
      <trkpt lat="45.46916" lon="-75.79">
        <ele>127.4</ele>
      </trkpt>
      <trkpt lat="45.46933" lon="-75.79002">
        <ele>127.2</ele>
      </trkpt>
      <trkpt lat="45.4694" lon="-75.78999">
        <ele>127.4</ele>
      </trkpt>
      <trkpt lat="45.46945" lon="-75.78992">
        <ele>127.6</ele>
      </trkpt>
      <trkpt lat="45.46952" lon="-75.7899">
        <ele>127.6</ele>
      </trkpt>
      <trkpt lat="45.46963" lon="-75.78977">
        <ele>128.4</ele>
      </trkpt>
      <trkpt lat="45.46983" lon="-75.78965">
        <ele>129.1</ele>
      </trkpt>
      <trkpt lat="45.47008" lon="-75.7896">
        <ele>129.3</ele>
      </trkpt>
      <trkpt lat="45.47019" lon="-75.78963">
        <ele>129.2</ele>
      </trkpt>
      <trkpt lat="45.47052" lon="-75.78984">
        <ele>128.2</ele>
      </trkpt>
      <trkpt lat="45.47066" lon="-75.78985">
        <ele>128.1</ele>
      </trkpt>
      <trkpt lat="45.47076" lon="-75.78991">
        <ele>127.8</ele>
      </trkpt>
      <trkpt lat="45.4709" lon="-75.7899">
        <ele>127.9</ele>
      </trkpt>
      <trkpt lat="45.47111" lon="-75.7898">
        <ele>128.6</ele>
      </trkpt>
      <trkpt lat="45.47128" lon="-75.78961">
        <ele>130.4</ele>
      </trkpt>
      <trkpt lat="45.47135" lon="-75.78949">
        <ele>131.5</ele>
      </trkpt>
      <trkpt lat="45.47151" lon="-75.78903">
        <ele>135.8</ele>
      </trkpt>
      <trkpt lat="45.4716" lon="-75.78895">
        <ele>136.9</ele>
      </trkpt>
      <trkpt lat="45.4716" lon="-75.78887">
        <ele>137.4</ele>
      </trkpt>
      <trkpt lat="45.47152" lon="-75.78877">
        <ele>137.9</ele>
      </trkpt>
      <trkpt lat="45.47147" lon="-75.78863">
        <ele>138.5</ele>
      </trkpt>
      <trkpt lat="45.4714" lon="-75.78851">
        <ele>138.9</ele>
      </trkpt>
      <trkpt lat="45.47129" lon="-75.78838">
        <ele>139.2</ele>
      </trkpt>
      <trkpt lat="45.47113" lon="-75.78826">
        <ele>138.5</ele>
      </trkpt>
      <trkpt lat="45.47108" lon="-75.7882">
        <ele>138.4</ele>
      </trkpt>
      <trkpt lat="45.47104" lon="-75.78811">
        <ele>138.5</ele>
      </trkpt>
      <trkpt lat="45.47088" lon="-75.78749">
        <ele>139.6</ele>
      </trkpt>
      <trkpt lat="45.47087" lon="-75.78718">
        <ele>140</ele>
      </trkpt>
      <trkpt lat="45.47085" lon="-75.78703">
        <ele>139.9</ele>
      </trkpt>
      <trkpt lat="45.47079" lon="-75.78689">
        <ele>139.6</ele>
      </trkpt>
      <trkpt lat="45.47072" lon="-75.7866">
        <ele>138.7</ele>
      </trkpt>
      <trkpt lat="45.47067" lon="-75.78653">
        <ele>138.2</ele>
      </trkpt>
      <trkpt lat="45.47059" lon="-75.78644">
        <ele>137.1</ele>
      </trkpt>
      <trkpt lat="45.47054" lon="-75.78636">
        <ele>136.1</ele>
      </trkpt>
      <trkpt lat="45.47054" lon="-75.78608">
        <ele>133.8</ele>
      </trkpt>
      <trkpt lat="45.47054" lon="-75.78605">
        <ele>133.6</ele>
      </trkpt>
      <trkpt lat="45.47056" lon="-75.78579">
        <ele>131.9</ele>
      </trkpt>
      <trkpt lat="45.47052" lon="-75.7856">
        <ele>130.7</ele>
      </trkpt>
      <trkpt lat="45.47048" lon="-75.78551">
        <ele>130.3</ele>
      </trkpt>
      <trkpt lat="45.47011" lon="-75.78496">
        <ele>130</ele>
      </trkpt>
      <trkpt lat="45.47005" lon="-75.78491">
        <ele>130</ele>
      </trkpt>
      <trkpt lat="45.46991" lon="-75.78485">
        <ele>130.1</ele>
      </trkpt>
      <trkpt lat="45.46984" lon="-75.78486">
        <ele>130.1</ele>
      </trkpt>
      <trkpt lat="45.46977" lon="-75.78489">
        <ele>130</ele>
      </trkpt>
      <trkpt lat="45.46965" lon="-75.78501">
        <ele>130</ele>
      </trkpt>
      <trkpt lat="45.46954" lon="-75.78503">
        <ele>130</ele>
      </trkpt>
      <trkpt lat="45.46948" lon="-75.785">
        <ele>130</ele>
      </trkpt>
      <trkpt lat="45.46932" lon="-75.78478">
        <ele>130</ele>
      </trkpt>
      <trkpt lat="45.46909" lon="-75.78414">
        <ele>128.9</ele>
      </trkpt>
      <trkpt lat="45.46895" lon="-75.7834">
        <ele>128.2</ele>
      </trkpt>
      <trkpt lat="45.46885" lon="-75.78307">
        <ele>126.8</ele>
      </trkpt>
      <trkpt lat="45.4688" lon="-75.78295">
        <ele>126.2</ele>
      </trkpt>
      <trkpt lat="45.46878" lon="-75.78259">
        <ele>124.2</ele>
      </trkpt>
      <trkpt lat="45.46875" lon="-75.78245">
        <ele>123</ele>
      </trkpt>
      <trkpt lat="45.46859" lon="-75.78217">
        <ele>119.4</ele>
      </trkpt>
      <trkpt lat="45.46874" lon="-75.78199">
        <ele>119.5</ele>
      </trkpt>
      <trkpt lat="45.46885" lon="-75.78172">
        <ele>119.3</ele>
      </trkpt>
      <trkpt lat="45.46896" lon="-75.78159">
        <ele>119.4</ele>
      </trkpt>
      <trkpt lat="45.46902" lon="-75.78153">
        <ele>119.3</ele>
      </trkpt>
      <trkpt lat="45.4693" lon="-75.78141">
        <ele>117.5</ele>
      </trkpt>
      <trkpt lat="45.46956" lon="-75.78124">
        <ele>114.5</ele>
      </trkpt>
      <trkpt lat="45.46971" lon="-75.78109">
        <ele>112.8</ele>
      </trkpt>
      <trkpt lat="45.46981" lon="-75.78094">
        <ele>111.4</ele>
      </trkpt>
      <trkpt lat="45.46983" lon="-75.78088">
        <ele>110.8</ele>
      </trkpt>
      <trkpt lat="45.4699" lon="-75.78066">
        <ele>109.3</ele>
      </trkpt>
      <trkpt lat="45.46995" lon="-75.78058">
        <ele>109</ele>
      </trkpt>
      <trkpt lat="45.47011" lon="-75.78048">
        <ele>108.6</ele>
      </trkpt>
      <trkpt lat="45.47032" lon="-75.78067">
        <ele>110.9</ele>
      </trkpt>
      <trkpt lat="45.47038" lon="-75.78073">
        <ele>111.7</ele>
      </trkpt>
      <trkpt lat="45.47064" lon="-75.78109">
        <ele>116.7</ele>
      </trkpt>
      <trkpt lat="45.47066" lon="-75.78134">
        <ele>119.6</ele>
      </trkpt>
      <trkpt lat="45.47065" lon="-75.7815">
        <ele>121.2</ele>
      </trkpt>
      <trkpt lat="45.47074" lon="-75.78205">
        <ele>124.7</ele>
      </trkpt>
      <trkpt lat="45.47089" lon="-75.78252">
        <ele>128.5</ele>
      </trkpt>
      <trkpt lat="45.47101" lon="-75.78295">
        <ele>131.4</ele>
      </trkpt>
      <trkpt lat="45.47116" lon="-75.78324">
        <ele>131.8</ele>
      </trkpt>
      <trkpt lat="45.47128" lon="-75.78335">
        <ele>131.6</ele>
      </trkpt>
      <trkpt lat="45.47145" lon="-75.78323">
        <ele>131.3</ele>
      </trkpt>
      <trkpt lat="45.47157" lon="-75.78325">
        <ele>130.9</ele>
      </trkpt>
      <trkpt lat="45.4719" lon="-75.78372">
        <ele>129.2</ele>
      </trkpt>
      <trkpt lat="45.47204" lon="-75.78394">
        <ele>128.4</ele>
      </trkpt>
      <trkpt lat="45.47211" lon="-75.78408">
        <ele>127.4</ele>
      </trkpt>
      <trkpt lat="45.47217" lon="-75.78411">
        <ele>126.9</ele>
      </trkpt>
      <trkpt lat="45.47231" lon="-75.78426">
        <ele>125.5</ele>
      </trkpt>
      <trkpt lat="45.47252" lon="-75.78435">
        <ele>124</ele>
      </trkpt>
      <trkpt lat="45.47263" lon="-75.78437">
        <ele>123.5</ele>
      </trkpt>
      <trkpt lat="45.47276" lon="-75.78445">
        <ele>122.9</ele>
      </trkpt>
      <trkpt lat="45.47286" lon="-75.78449">
        <ele>122.2</ele>
      </trkpt>
      <trkpt lat="45.47298" lon="-75.78462">
        <ele>121.6</ele>
      </trkpt>
      <trkpt lat="45.47298" lon="-75.78477">
        <ele>121.8</ele>
      </trkpt>
      <trkpt lat="45.47309" lon="-75.78526">
        <ele>123.8</ele>
      </trkpt>
      <trkpt lat="45.47319" lon="-75.7854">
        <ele>124.3</ele>
      </trkpt>
      <trkpt lat="45.47328" lon="-75.78562">
        <ele>124.9</ele>
      </trkpt>
      <trkpt lat="45.47338" lon="-75.7857">
        <ele>124.8</ele>
      </trkpt>
      <trkpt lat="45.47352" lon="-75.78586">
        <ele>124.7</ele>
      </trkpt>
      <trkpt lat="45.4737" lon="-75.78618">
        <ele>125.8</ele>
      </trkpt>
      <trkpt lat="45.47378" lon="-75.78629">
        <ele>125.8</ele>
      </trkpt>
      <trkpt lat="45.47386" lon="-75.78639">
        <ele>125.8</ele>
      </trkpt>
      <trkpt lat="45.47412" lon="-75.78667">
        <ele>125.1</ele>
      </trkpt>
      <trkpt lat="45.47427" lon="-75.78689">
        <ele>124</ele>
      </trkpt>
      <trkpt lat="45.47443" lon="-75.787">
        <ele>122.3</ele>
      </trkpt>
      <trkpt lat="45.47454" lon="-75.78703">
        <ele>121.3</ele>
      </trkpt>
      <trkpt lat="45.47459" lon="-75.78695">
        <ele>120.9</ele>
      </trkpt>
      <trkpt lat="45.47462" lon="-75.78681">
        <ele>120.6</ele>
      </trkpt>
      <trkpt lat="45.47464" lon="-75.78666">
        <ele>120.5</ele>
      </trkpt>
      <trkpt lat="45.47462" lon="-75.78625">
        <ele>118.4</ele>
      </trkpt>
      <trkpt lat="45.47467" lon="-75.78611">
        <ele>115.9</ele>
      </trkpt>
      <trkpt lat="45.4747" lon="-75.78608">
        <ele>115.3</ele>
      </trkpt>
      <trkpt lat="45.47477" lon="-75.7861">
        <ele>114.7</ele>
      </trkpt>
      <trkpt lat="45.47488" lon="-75.78642">
        <ele>116.3</ele>
      </trkpt>
      <trkpt lat="45.47496" lon="-75.78681">
        <ele>118</ele>
      </trkpt>
      <trkpt lat="45.475" lon="-75.78712">
        <ele>118.7</ele>
      </trkpt>
      <trkpt lat="45.47512" lon="-75.78743">
        <ele>119.7</ele>
      </trkpt>
      <trkpt lat="45.4752" lon="-75.78753">
        <ele>120.4</ele>
      </trkpt>
      <trkpt lat="45.47523" lon="-75.78762">
        <ele>121.1</ele>
      </trkpt>
      <trkpt lat="45.47521" lon="-75.78771">
        <ele>121.4</ele>
      </trkpt>
      <trkpt lat="45.47511" lon="-75.78767">
        <ele>121.3</ele>
      </trkpt>
      <trkpt lat="45.47507" lon="-75.78768">
        <ele>121.2</ele>
      </trkpt>
      <trkpt lat="45.47504" lon="-75.78771">
        <ele>121.4</ele>
      </trkpt>
      <trkpt lat="45.47501" lon="-75.7878">
        <ele>122.3</ele>
      </trkpt>
      <trkpt lat="45.47504" lon="-75.788">
        <ele>124.6</ele>
      </trkpt>
      <trkpt lat="45.47508" lon="-75.78809">
        <ele>125.8</ele>
      </trkpt>
      <trkpt lat="45.47514" lon="-75.78833">
        <ele>128.2</ele>
      </trkpt>
      <trkpt lat="45.47522" lon="-75.78844">
        <ele>129</ele>
      </trkpt>
      <trkpt lat="45.47532" lon="-75.78858">
        <ele>128.9</ele>
      </trkpt>
      <trkpt lat="45.4755" lon="-75.78874">
        <ele>127.1</ele>
      </trkpt>
      <trkpt lat="45.47552" lon="-75.78879">
        <ele>126.7</ele>
      </trkpt>
      <trkpt lat="45.47564" lon="-75.78888">
        <ele>125.3</ele>
      </trkpt>
      <trkpt lat="45.47574" lon="-75.78882">
        <ele>124.3</ele>
      </trkpt>
      <trkpt lat="45.47589" lon="-75.78881">
        <ele>123</ele>
      </trkpt>
      <trkpt lat="45.47601" lon="-75.78883">
        <ele>122.3</ele>
      </trkpt>
      <trkpt lat="45.4766" lon="-75.78896">
        <ele>115</ele>
      </trkpt>
      <trkpt lat="45.47668" lon="-75.78892">
        <ele>112.9</ele>
      </trkpt>
      <trkpt lat="45.47674" lon="-75.78886">
        <ele>111.7</ele>
      </trkpt>
      <trkpt lat="45.4769" lon="-75.78929">
        <ele>111.4</ele>
      </trkpt>
      <trkpt lat="45.47693" lon="-75.78927">
        <ele>110.9</ele>
      </trkpt>
      <trkpt lat="45.47705" lon="-75.78919">
        <ele>108.5</ele>
      </trkpt>
      <trkpt lat="45.47806" lon="-75.78834">
        <ele>102.2</ele>
      </trkpt>
      <trkpt lat="45.47852" lon="-75.78784">
        <ele>99.7</ele>
      </trkpt>
      <trkpt lat="45.47859" lon="-75.78781">
        <ele>99.5</ele>
      </trkpt>
      <trkpt lat="45.47863" lon="-75.78782">
        <ele>99.6</ele>
      </trkpt>
      <trkpt lat="45.47868" lon="-75.78788">
        <ele>99.7</ele>
      </trkpt>
      <trkpt lat="45.47884" lon="-75.78817">
        <ele>100.5</ele>
      </trkpt>
    </trkseg>
  </trk>
</gpx>