<?xml version="1.0" encoding="UTF-8" standalone="yes"?>
<gpx version="1.1" creator="https://onthegomap.com" xmlns="http://www.topografix.com/GPX/1/1">
  <metadata>
    <name>10.9km route</name>
    <link href="https://onthegomap.com">
      <text>On The Go Map</text>
    </link>
    <time>2026-02-25T02:20:00.911Z</time>
    <copyright author="On The Go Map, OpenStreetMap Contributors">
      <year>2026</year>
    </copyright>
  </metadata>
  <trk>
    <name>10.9km route</name>
    <trkseg>
      <trkpt lat="45.47884" lon="-75.78817">
        <ele>100.5</ele>
      </trkpt>
      <trkpt lat="45.47868" lon="-75.78788">
        <ele>99.8</ele>
      </trkpt>
      <trkpt lat="45.47863" lon="-75.78782">
        <ele>99.6</ele>
      </trkpt>
      <trkpt lat="45.47859" lon="-75.78781">
        <ele>99.6</ele>
      </trkpt>
      <trkpt lat="45.47852" lon="-75.78784">
        <ele>99.8</ele>
      </trkpt>
      <trkpt lat="45.47806" lon="-75.78834">
        <ele>102</ele>
      </trkpt>
      <trkpt lat="45.47769" lon="-75.78755">
        <ele>100.4</ele>
      </trkpt>
      <trkpt lat="45.47741" lon="-75.78693">
        <ele>99</ele>
      </trkpt>
      <trkpt lat="45.47738" lon="-75.78675">
        <ele>98.4</ele>
      </trkpt>
      <trkpt lat="45.47737" lon="-75.78652">
        <ele>97.9</ele>
      </trkpt>
      <trkpt lat="45.47746" lon="-75.78612">
        <ele>97.4</ele>
      </trkpt>
      <trkpt lat="45.47747" lon="-75.78587">
        <ele>97.1</ele>
      </trkpt>
      <trkpt lat="45.47746" lon="-75.78575">
        <ele>97</ele>
      </trkpt>
      <trkpt lat="45.47745" lon="-75.78571">
        <ele>97</ele>
      </trkpt>
      <trkpt lat="45.4774" lon="-75.78555">
        <ele>97</ele>
      </trkpt>
      <trkpt lat="45.47728" lon="-75.78534">
        <ele>97.3</ele>
      </trkpt>
      <trkpt lat="45.47654" lon="-75.784">
        <ele>98.3</ele>
      </trkpt>
      <trkpt lat="45.47645" lon="-75.7839">
        <ele>98.7</ele>
      </trkpt>
      <trkpt lat="45.47639" lon="-75.78388">
        <ele>98.9</ele>
      </trkpt>
      <trkpt lat="45.47615" lon="-75.78382">
        <ele>99</ele>
      </trkpt>
      <trkpt lat="45.47489" lon="-75.78361">
        <ele>99.3</ele>
      </trkpt>
      <trkpt lat="45.47475" lon="-75.78362">
        <ele>100.1</ele>
      </trkpt>
      <trkpt lat="45.47458" lon="-75.78371">
        <ele>101.8</ele>
      </trkpt>
      <trkpt lat="45.47454" lon="-75.78374">
        <ele>102.3</ele>
      </trkpt>
      <trkpt lat="45.4745" lon="-75.7838">
        <ele>103.1</ele>
      </trkpt>
      <trkpt lat="45.47426" lon="-75.78417">
        <ele>107.2</ele>
      </trkpt>
      <trkpt lat="45.47421" lon="-75.78424">
        <ele>107.7</ele>
      </trkpt>
      <trkpt lat="45.47414" lon="-75.78413">
        <ele>108</ele>
      </trkpt>
      <trkpt lat="45.47384" lon="-75.7837">
        <ele>107.6</ele>
      </trkpt>
      <trkpt lat="45.47339" lon="-75.783">
        <ele>109</ele>
      </trkpt>
      <trkpt lat="45.47326" lon="-75.78278">
        <ele>108.8</ele>
      </trkpt>
      <trkpt lat="45.47283" lon="-75.78207">
        <ele>108.1</ele>
      </trkpt>
      <trkpt lat="45.47259" lon="-75.78173">
        <ele>106.7</ele>
      </trkpt>
      <trkpt lat="45.47229" lon="-75.78136">
        <ele>105.7</ele>
      </trkpt>
      <trkpt lat="45.47205" lon="-75.78109">
        <ele>105.4</ele>
      </trkpt>
      <trkpt lat="45.472" lon="-75.78117">
        <ele>105.4</ele>
      </trkpt>
      <trkpt lat="45.47198" lon="-75.7812">
        <ele>105.5</ele>
      </trkpt>
      <trkpt lat="45.47192" lon="-75.78115">
        <ele>105.3</ele>
      </trkpt>
      <trkpt lat="45.47175" lon="-75.78098">
        <ele>105.5</ele>
      </trkpt>
      <trkpt lat="45.47112" lon="-75.78028">
        <ele>107.4</ele>
      </trkpt>
      <trkpt lat="45.47076" lon="-75.77998">
        <ele>106.7</ele>
      </trkpt>
      <trkpt lat="45.46978" lon="-75.77918">
        <ele>105.7</ele>
      </trkpt>
      <trkpt lat="45.46921" lon="-75.77872">
        <ele>105</ele>
      </trkpt>
      <trkpt lat="45.46836" lon="-75.77798">
        <ele>104</ele>
      </trkpt>
      <trkpt lat="45.46786" lon="-75.77747">
        <ele>104.1</ele>
      </trkpt>
      <trkpt lat="45.46651" lon="-75.7756">
        <ele>102.1</ele>
      </trkpt>
      <trkpt lat="45.466" lon="-75.77487">
        <ele>100.9</ele>
      </trkpt>
      <trkpt lat="45.46594" lon="-75.77474">
        <ele>100.7</ele>
      </trkpt>
      <trkpt lat="45.46571" lon="-75.77441">
        <ele>100.7</ele>
      </trkpt>
      <trkpt lat="45.4656" lon="-75.7743">
        <ele>100.8</ele>
      </trkpt>
      <trkpt lat="45.46501" lon="-75.77347">
        <ele>101</ele>
      </trkpt>
      <trkpt lat="45.46484" lon="-75.77322">
        <ele>101</ele>
      </trkpt>
      <trkpt lat="45.46473" lon="-75.77317">
        <ele>101</ele>
      </trkpt>
      <trkpt lat="45.46464" lon="-75.77307">
        <ele>101</ele>
      </trkpt>
      <trkpt lat="45.46394" lon="-75.77201">
        <ele>99.5</ele>
      </trkpt>
      <trkpt lat="45.4638" lon="-75.77177">
        <ele>99</ele>
      </trkpt>
      <trkpt lat="45.46363" lon="-75.77157">
        <ele>99</ele>
      </trkpt>
      <trkpt lat="45.46315" lon="-75.77088">
        <ele>99</ele>
      </trkpt>
      <trkpt lat="45.46305" lon="-75.77072">
        <ele>99</ele>
      </trkpt>
      <trkpt lat="45.46296" lon="-75.77065">
        <ele>99</ele>
      </trkpt>
      <trkpt lat="45.46265" lon="-75.77024">
        <ele>99</ele>
      </trkpt>
      <trkpt lat="45.46258" lon="-75.77009">
        <ele>99</ele>
      </trkpt>
      <trkpt lat="45.46255" lon="-75.77005">
        <ele>99</ele>
      </trkpt>
      <trkpt lat="45.46227" lon="-75.76972">
        <ele>99.6</ele>
      </trkpt>
      <trkpt lat="45.46222" lon="-75.76964">
        <ele>99.9</ele>
      </trkpt>
      <trkpt lat="45.46179" lon="-75.76913">
        <ele>100</ele>
      </trkpt>
      <trkpt lat="45.46116" lon="-75.76843">
        <ele>101.2</ele>
      </trkpt>
      <trkpt lat="45.46099" lon="-75.76822">
        <ele>101.9</ele>
      </trkpt>
      <trkpt lat="45.46072" lon="-75.76798">
        <ele>102</ele>
      </trkpt>
      <trkpt lat="45.46063" lon="-75.76787">
        <ele>102</ele>
      </trkpt>
      <trkpt lat="45.46057" lon="-75.76779">
        <ele>102</ele>
      </trkpt>
      <trkpt lat="45.46051" lon="-75.76771">
        <ele>102.1</ele>
      </trkpt>
      <trkpt lat="45.46046" lon="-75.76766">
        <ele>102.2</ele>
      </trkpt>
      <trkpt lat="45.46025" lon="-75.76744">
        <ele>102</ele>
      </trkpt>
      <trkpt lat="45.4601" lon="-75.76733">
        <ele>102</ele>
      </trkpt>
      <trkpt lat="45.4599" lon="-75.76727">
        <ele>102</ele>
      </trkpt>
      <trkpt lat="45.45952" lon="-75.76719">
        <ele>102</ele>
      </trkpt>
      <trkpt lat="45.4587" lon="-75.76706">
        <ele>101</ele>
      </trkpt>
      <trkpt lat="45.45866" lon="-75.76703">
        <ele>101.1</ele>
      </trkpt>
      <trkpt lat="45.45855" lon="-75.767">
        <ele>101.1</ele>
      </trkpt>
      <trkpt lat="45.45848" lon="-75.76698">
        <ele>101.2</ele>
      </trkpt>
      <trkpt lat="45.45787" lon="-75.76685">
        <ele>101</ele>
      </trkpt>
      <trkpt lat="45.45765" lon="-75.76676">
        <ele>101</ele>
      </trkpt>
      <trkpt lat="45.45729" lon="-75.76648">
        <ele>101.1</ele>
      </trkpt>
      <trkpt lat="45.45724" lon="-75.7664">
        <ele>101</ele>
      </trkpt>
      <trkpt lat="45.45704" lon="-75.76591">
        <ele>100.6</ele>
      </trkpt>
      <trkpt lat="45.457" lon="-75.76582">
        <ele>100.4</ele>
      </trkpt>
      <trkpt lat="45.45696" lon="-75.76572">
        <ele>100.2</ele>
      </trkpt>
      <trkpt lat="45.45693" lon="-75.76564">
        <ele>100.1</ele>
      </trkpt>
      <trkpt lat="45.45686" lon="-75.76545">
        <ele>100</ele>
      </trkpt>
      <trkpt lat="45.45682" lon="-75.76535">
        <ele>100</ele>
      </trkpt>
      <trkpt lat="45.45668" lon="-75.76506">
        <ele>100</ele>
      </trkpt>
      <trkpt lat="45.45661" lon="-75.76481">
        <ele>99.9</ele>
      </trkpt>
      <trkpt lat="45.45654" lon="-75.76444">
        <ele>99.5</ele>
      </trkpt>
      <trkpt lat="45.45621" lon="-75.76364">
        <ele>96.9</ele>
      </trkpt>
      <trkpt lat="45.45605" lon="-75.76329">
        <ele>96.3</ele>
      </trkpt>
      <trkpt lat="45.45594" lon="-75.76287">
        <ele>94.5</ele>
      </trkpt>
      <trkpt lat="45.45566" lon="-75.76214">
        <ele>90.7</ele>
      </trkpt>
      <trkpt lat="45.45552" lon="-75.76183">
        <ele>90.1</ele>
      </trkpt>
      <trkpt lat="45.45466" lon="-75.76033">
        <ele>89.5</ele>
      </trkpt>
      <trkpt lat="45.4544" lon="-75.75999">
        <ele>87.7</ele>
      </trkpt>
      <trkpt lat="45.45427" lon="-75.75976">
        <ele>86.8</ele>
      </trkpt>
      <trkpt lat="45.45416" lon="-75.75949">
        <ele>86</ele>
      </trkpt>
      <trkpt lat="45.45395" lon="-75.75917">
        <ele>85.2</ele>
      </trkpt>
      <trkpt lat="45.45386" lon="-75.75906">
        <ele>85</ele>
      </trkpt>
      <trkpt lat="45.45368" lon="-75.75894">
        <ele>85.3</ele>
      </trkpt>
      <trkpt lat="45.45368" lon="-75.75883">
        <ele>85.5</ele>
      </trkpt>
      <trkpt lat="45.45311" lon="-75.7588">
        <ele>88.4</ele>
      </trkpt>
      <trkpt lat="45.45266" lon="-75.75874">
        <ele>90.5</ele>
      </trkpt>
      <trkpt lat="45.45226" lon="-75.75862">
        <ele>90.7</ele>
      </trkpt>
      <trkpt lat="45.45194" lon="-75.75848">
        <ele>91.6</ele>
      </trkpt>
      <trkpt lat="45.45175" lon="-75.75835">
        <ele>91.8</ele>
      </trkpt>
      <trkpt lat="45.45155" lon="-75.75817">
        <ele>92</ele>
      </trkpt>
      <trkpt lat="45.45082" lon="-75.75732">
        <ele>91.7</ele>
      </trkpt>
      <trkpt lat="45.45075" lon="-75.75724">
        <ele>91.8</ele>
      </trkpt>
      <trkpt lat="45.45075" lon="-75.75725">
        <ele>91.8</ele>
      </trkpt>
      <trkpt lat="45.45071" lon="-75.75735">
        <ele>91.9</ele>
      </trkpt>
      <trkpt lat="45.45063" lon="-75.75755">
        <ele>92</ele>
      </trkpt>
      <trkpt lat="45.45056" lon="-75.75773">
        <ele>92</ele>
      </trkpt>
      <trkpt lat="45.45045" lon="-75.75813">
        <ele>92</ele>
      </trkpt>
      <trkpt lat="45.45041" lon="-75.75837">
        <ele>92.1</ele>
      </trkpt>
      <trkpt lat="45.45029" lon="-75.75955">
        <ele>94.7</ele>
      </trkpt>
      <trkpt lat="45.45088" lon="-75.75964">
        <ele>95</ele>
      </trkpt>
      <trkpt lat="45.45101" lon="-75.75962">
        <ele>95</ele>
      </trkpt>
      <trkpt lat="45.45129" lon="-75.75965">
        <ele>95</ele>
      </trkpt>
      <trkpt lat="45.45144" lon="-75.75967">
        <ele>95</ele>
      </trkpt>
      <trkpt lat="45.45169" lon="-75.75969">
        <ele>94.8</ele>
      </trkpt>
      <trkpt lat="45.45205" lon="-75.75974">
        <ele>94</ele>
      </trkpt>
      <trkpt lat="45.45212" lon="-75.75977">
        <ele>93.7</ele>
      </trkpt>
      <trkpt lat="45.45233" lon="-75.75992">
        <ele>93.5</ele>
      </trkpt>
      <trkpt lat="45.45242" lon="-75.76003">
        <ele>93.8</ele>
      </trkpt>
      <trkpt lat="45.45264" lon="-75.76044">
        <ele>94.8</ele>
      </trkpt>
      <trkpt lat="45.45287" lon="-75.76087">
        <ele>96.2</ele>
      </trkpt>
      <trkpt lat="45.45299" lon="-75.76106">
        <ele>96.4</ele>
      </trkpt>
      <trkpt lat="45.4531" lon="-75.76118">
        <ele>96.2</ele>
      </trkpt>
      <trkpt lat="45.45333" lon="-75.76136">
        <ele>96.1</ele>
      </trkpt>
      <trkpt lat="45.45362" lon="-75.76154">
        <ele>96.5</ele>
      </trkpt>
      <trkpt lat="45.45374" lon="-75.76166">
        <ele>96.7</ele>
      </trkpt>
      <trkpt lat="45.45384" lon="-75.76181">
        <ele>96.7</ele>
      </trkpt>
      <trkpt lat="45.45393" lon="-75.76201">
        <ele>97.9</ele>
      </trkpt>
      <trkpt lat="45.45397" lon="-75.76223">
        <ele>99.2</ele>
      </trkpt>
      <trkpt lat="45.45398" lon="-75.76256">
        <ele>101</ele>
      </trkpt>
      <trkpt lat="45.45396" lon="-75.76278">
        <ele>101.8</ele>
      </trkpt>
      <trkpt lat="45.45347" lon="-75.76464">
        <ele>100.1</ele>
      </trkpt>
      <trkpt lat="45.45323" lon="-75.76557">
        <ele>100.2</ele>
      </trkpt>
      <trkpt lat="45.45322" lon="-75.76559">
        <ele>100.2</ele>
      </trkpt>
      <trkpt lat="45.45315" lon="-75.76577">
        <ele>99.9</ele>
      </trkpt>
      <trkpt lat="45.45312" lon="-75.76584">
        <ele>99.9</ele>
      </trkpt>
      <trkpt lat="45.45302" lon="-75.76599">
        <ele>100</ele>
      </trkpt>
      <trkpt lat="45.45289" lon="-75.76614">
        <ele>100.3</ele>
      </trkpt>
      <trkpt lat="45.45275" lon="-75.76625">
        <ele>100.9</ele>
      </trkpt>
      <trkpt lat="45.45252" lon="-75.7663">
        <ele>102</ele>
      </trkpt>
      <trkpt lat="45.45194" lon="-75.7663">
        <ele>103.3</ele>
      </trkpt>
      <trkpt lat="45.45109" lon="-75.76628">
        <ele>103.8</ele>
      </trkpt>
      <trkpt lat="45.45082" lon="-75.76626">
        <ele>103.7</ele>
      </trkpt>
      <trkpt lat="45.45065" lon="-75.76621">
        <ele>103.6</ele>
      </trkpt>
      <trkpt lat="45.45057" lon="-75.76618">
        <ele>103.6</ele>
      </trkpt>
      <trkpt lat="45.45041" lon="-75.76606">
        <ele>104</ele>
      </trkpt>
      <trkpt lat="45.45014" lon="-75.76575">
        <ele>105.1</ele>
      </trkpt>
      <trkpt lat="45.45001" lon="-75.76556">
        <ele>105.6</ele>
      </trkpt>
      <trkpt lat="45.44986" lon="-75.76533">
        <ele>106.2</ele>
      </trkpt>
      <trkpt lat="45.44973" lon="-75.76514">
        <ele>106.7</ele>
      </trkpt>
      <trkpt lat="45.44947" lon="-75.76475">
        <ele>106.3</ele>
      </trkpt>
      <trkpt lat="45.44906" lon="-75.76415">
        <ele>103.5</ele>
      </trkpt>
      <trkpt lat="45.44899" lon="-75.76404">
        <ele>103.1</ele>
      </trkpt>
      <trkpt lat="45.44839" lon="-75.76314">
        <ele>98.5</ele>
      </trkpt>
      <trkpt lat="45.44827" lon="-75.76291">
        <ele>98</ele>
      </trkpt>
      <trkpt lat="45.44814" lon="-75.76256">
        <ele>97.8</ele>
      </trkpt>
      <trkpt lat="45.44806" lon="-75.76216">
        <ele>97.1</ele>
      </trkpt>
      <trkpt lat="45.44803" lon="-75.76168">
        <ele>97</ele>
      </trkpt>
      <trkpt lat="45.44805" lon="-75.76139">
        <ele>96.5</ele>
      </trkpt>
      <trkpt lat="45.44812" lon="-75.76097">
        <ele>95.2</ele>
      </trkpt>
      <trkpt lat="45.4482" lon="-75.76071">
        <ele>94.5</ele>
      </trkpt>
      <trkpt lat="45.44841" lon="-75.76026">
        <ele>93.9</ele>
      </trkpt>
      <trkpt lat="45.44867" lon="-75.75991">
        <ele>93.2</ele>
      </trkpt>
      <trkpt lat="45.44886" lon="-75.75975">
        <ele>93</ele>
      </trkpt>
      <trkpt lat="45.44916" lon="-75.75957">
        <ele>93</ele>
      </trkpt>
      <trkpt lat="45.44937" lon="-75.7595">
        <ele>93</ele>
      </trkpt>
      <trkpt lat="45.44967" lon="-75.75948">
        <ele>93</ele>
      </trkpt>
      <trkpt lat="45.44974" lon="-75.75949">
        <ele>93</ele>
      </trkpt>
      <trkpt lat="45.45011" lon="-75.75952">
        <ele>94.1</ele>
      </trkpt>
      <trkpt lat="45.45017" lon="-75.75953">
        <ele>94</ele>
      </trkpt>
      <trkpt lat="45.45035" lon="-75.75803">
        <ele>92</ele>
      </trkpt>
      <trkpt lat="45.4505" lon="-75.75754">
        <ele>92</ele>
      </trkpt>
      <trkpt lat="45.45062" lon="-75.75725">
        <ele>91.5</ele>
      </trkpt>
      <trkpt lat="45.45066" lon="-75.75714">
        <ele>91.4</ele>
      </trkpt>
      <trkpt lat="45.45067" lon="-75.75713">
        <ele>91.4</ele>
      </trkpt>
      <trkpt lat="45.45075" lon="-75.75724">
        <ele>91.4</ele>
      </trkpt>
      <trkpt lat="45.45082" lon="-75.75732">
        <ele>91.4</ele>
      </trkpt>
      <trkpt lat="45.45086" lon="-75.75724">
        <ele>91.4</ele>
      </trkpt>
      <trkpt lat="45.4509" lon="-75.75729">
        <ele>91.4</ele>
      </trkpt>
      <trkpt lat="45.45153" lon="-75.75801">
        <ele>91.6</ele>
      </trkpt>
      <trkpt lat="45.45182" lon="-75.75829">
        <ele>91.4</ele>
      </trkpt>
      <trkpt lat="45.45208" lon="-75.75845">
        <ele>90.9</ele>
      </trkpt>
      <trkpt lat="45.45249" lon="-75.75855">
        <ele>90.3</ele>
      </trkpt>
      <trkpt lat="45.45313" lon="-75.75852">
        <ele>88.5</ele>
      </trkpt>
      <trkpt lat="45.4536" lon="-75.75856">
        <ele>85.7</ele>
      </trkpt>
      <trkpt lat="45.45371" lon="-75.75858">
        <ele>85.3</ele>
      </trkpt>
      <trkpt lat="45.45374" lon="-75.75859">
        <ele>85.3</ele>
      </trkpt>
      <trkpt lat="45.45377" lon="-75.75861">
        <ele>85.2</ele>
      </trkpt>
      <trkpt lat="45.45374" lon="-75.75867">
        <ele>85.1</ele>
      </trkpt>
      <trkpt lat="45.45369" lon="-75.75871">
        <ele>85.1</ele>
      </trkpt>
      <trkpt lat="45.45368" lon="-75.75883">
        <ele>85.2</ele>
      </trkpt>
      <trkpt lat="45.45368" lon="-75.75894">
        <ele>85.3</ele>
      </trkpt>
      <trkpt lat="45.45371" lon="-75.75896">
        <ele>85.2</ele>
      </trkpt>
      <trkpt lat="45.45386" lon="-75.75906">
        <ele>85</ele>
      </trkpt>
      <trkpt lat="45.45395" lon="-75.75917">
        <ele>85.2</ele>
      </trkpt>
      <trkpt lat="45.45416" lon="-75.75949">
        <ele>86</ele>
      </trkpt>
      <trkpt lat="45.45427" lon="-75.75976">
        <ele>86.8</ele>
      </trkpt>
      <trkpt lat="45.4544" lon="-75.75999">
        <ele>87.7</ele>
      </trkpt>
      <trkpt lat="45.45466" lon="-75.76033">
        <ele>89.5</ele>
      </trkpt>
      <trkpt lat="45.45552" lon="-75.76183">
        <ele>90.1</ele>
      </trkpt>
      <trkpt lat="45.45566" lon="-75.76214">
        <ele>90.7</ele>
      </trkpt>
      <trkpt lat="45.45594" lon="-75.76287">
        <ele>94.4</ele>
      </trkpt>
      <trkpt lat="45.45605" lon="-75.76329">
        <ele>96.3</ele>
      </trkpt>
      <trkpt lat="45.45621" lon="-75.76364">
        <ele>96.9</ele>
      </trkpt>
      <trkpt lat="45.45654" lon="-75.76444">
        <ele>99.5</ele>
      </trkpt>
      <trkpt lat="45.45661" lon="-75.76481">
        <ele>99.9</ele>
      </trkpt>
      <trkpt lat="45.45668" lon="-75.76506">
        <ele>100</ele>
      </trkpt>
      <trkpt lat="45.45682" lon="-75.76535">
        <ele>100</ele>
      </trkpt>
      <trkpt lat="45.45693" lon="-75.76564">
        <ele>100.1</ele>
      </trkpt>
      <trkpt lat="45.45696" lon="-75.76572">
        <ele>100.2</ele>
      </trkpt>
      <trkpt lat="45.457" lon="-75.76582">
        <ele>100.4</ele>
      </trkpt>
      <trkpt lat="45.45704" lon="-75.76591">
        <ele>100.7</ele>
      </trkpt>
      <trkpt lat="45.45724" lon="-75.7664">
        <ele>101.1</ele>
      </trkpt>
      <trkpt lat="45.45729" lon="-75.76648">
        <ele>101.1</ele>
      </trkpt>
      <trkpt lat="45.45765" lon="-75.76676">
        <ele>101</ele>
      </trkpt>
      <trkpt lat="45.45787" lon="-75.76685">
        <ele>101</ele>
      </trkpt>
      <trkpt lat="45.45848" lon="-75.76698">
        <ele>101.2</ele>
      </trkpt>
      <trkpt lat="45.45855" lon="-75.767">
        <ele>101.1</ele>
      </trkpt>
      <trkpt lat="45.45866" lon="-75.76703">
        <ele>101.1</ele>
      </trkpt>
      <trkpt lat="45.4587" lon="-75.76706">
        <ele>101</ele>
      </trkpt>
      <trkpt lat="45.45952" lon="-75.76719">
        <ele>102</ele>
      </trkpt>
      <trkpt lat="45.4599" lon="-75.76727">
        <ele>102</ele>
      </trkpt>
      <trkpt lat="45.4601" lon="-75.76733">
        <ele>102</ele>
      </trkpt>
      <trkpt lat="45.46025" lon="-75.76744">
        <ele>102</ele>
      </trkpt>
      <trkpt lat="45.46046" lon="-75.76766">
        <ele>102.1</ele>
      </trkpt>
      <trkpt lat="45.46051" lon="-75.76771">
        <ele>102.1</ele>
      </trkpt>
      <trkpt lat="45.46057" lon="-75.76779">
        <ele>102</ele>
      </trkpt>
      <trkpt lat="45.46063" lon="-75.76787">
        <ele>102</ele>
      </trkpt>
      <trkpt lat="45.46072" lon="-75.76798">
        <ele>102</ele>
      </trkpt>
      <trkpt lat="45.46099" lon="-75.76822">
        <ele>101.9</ele>
      </trkpt>
      <trkpt lat="45.46116" lon="-75.76843">
        <ele>101.3</ele>
      </trkpt>
      <trkpt lat="45.46179" lon="-75.76913">
        <ele>100</ele>
      </trkpt>
      <trkpt lat="45.46222" lon="-75.76964">
        <ele>99.9</ele>
      </trkpt>
      <trkpt lat="45.46227" lon="-75.76972">
        <ele>99.6</ele>
      </trkpt>
      <trkpt lat="45.46255" lon="-75.77005">
        <ele>99</ele>
      </trkpt>
      <trkpt lat="45.46258" lon="-75.77009">
        <ele>99</ele>
      </trkpt>
      <trkpt lat="45.46265" lon="-75.77024">
        <ele>99</ele>
      </trkpt>
      <trkpt lat="45.46296" lon="-75.77065">
        <ele>99</ele>
      </trkpt>
      <trkpt lat="45.46305" lon="-75.77072">
        <ele>99</ele>
      </trkpt>
      <trkpt lat="45.46315" lon="-75.77088">
        <ele>99</ele>
      </trkpt>
      <trkpt lat="45.46363" lon="-75.77157">
        <ele>99</ele>
      </trkpt>
      <trkpt lat="45.4638" lon="-75.77177">
        <ele>99</ele>
      </trkpt>
      <trkpt lat="45.46394" lon="-75.77201">
        <ele>99.4</ele>
      </trkpt>
      <trkpt lat="45.46457" lon="-75.77297">
        <ele>101</ele>
      </trkpt>
      <trkpt lat="45.46464" lon="-75.77307">
        <ele>101</ele>
      </trkpt>
      <trkpt lat="45.46473" lon="-75.77317">
        <ele>101</ele>
      </trkpt>
      <trkpt lat="45.46484" lon="-75.77322">
        <ele>101</ele>
      </trkpt>
      <trkpt lat="45.46501" lon="-75.77347">
        <ele>101</ele>
      </trkpt>
      <trkpt lat="45.4656" lon="-75.7743">
        <ele>100.8</ele>
      </trkpt>
      <trkpt lat="45.46571" lon="-75.77441">
        <ele>100.7</ele>
      </trkpt>
      <trkpt lat="45.46594" lon="-75.77474">
        <ele>100.7</ele>
      </trkpt>
      <trkpt lat="45.466" lon="-75.77487">
        <ele>100.8</ele>
      </trkpt>
      <trkpt lat="45.46651" lon="-75.7756">
        <ele>102.1</ele>
      </trkpt>
      <trkpt lat="45.46786" lon="-75.77747">
        <ele>104.1</ele>
      </trkpt>
      <trkpt lat="45.46836" lon="-75.77798">
        <ele>104</ele>
      </trkpt>
      <trkpt lat="45.46921" lon="-75.77872">
        <ele>105</ele>
      </trkpt>
      <trkpt lat="45.46978" lon="-75.77918">
        <ele>105.7</ele>
      </trkpt>
      <trkpt lat="45.47076" lon="-75.77998">
        <ele>106.7</ele>
      </trkpt>
      <trkpt lat="45.47112" lon="-75.78028">
        <ele>107.4</ele>
      </trkpt>
      <trkpt lat="45.47175" lon="-75.78098">
        <ele>105.5</ele>
      </trkpt>
      <trkpt lat="45.47196" lon="-75.78118">
        <ele>105.4</ele>
      </trkpt>
      <trkpt lat="45.47198" lon="-75.7812">
        <ele>105.4</ele>
      </trkpt>
      <trkpt lat="45.472" lon="-75.78117">
        <ele>105.4</ele>
      </trkpt>
      <trkpt lat="45.47205" lon="-75.78109">
        <ele>105.3</ele>
      </trkpt>
      <trkpt lat="45.47229" lon="-75.78136">
        <ele>105.7</ele>
      </trkpt>
      <trkpt lat="45.47259" lon="-75.78173">
        <ele>106.7</ele>
      </trkpt>
      <trkpt lat="45.47283" lon="-75.78207">
        <ele>108.1</ele>
      </trkpt>
      <trkpt lat="45.47326" lon="-75.78278">
        <ele>108.8</ele>
      </trkpt>
      <trkpt lat="45.47339" lon="-75.783">
        <ele>109</ele>
      </trkpt>
      <trkpt lat="45.47384" lon="-75.7837">
        <ele>107.6</ele>
      </trkpt>
      <trkpt lat="45.47419" lon="-75.78421">
        <ele>107.9</ele>
      </trkpt>
      <trkpt lat="45.47421" lon="-75.78424">
        <ele>107.8</ele>
      </trkpt>
      <trkpt lat="45.47426" lon="-75.78417">
        <ele>107.1</ele>
      </trkpt>
      <trkpt lat="45.4745" lon="-75.7838">
        <ele>103</ele>
      </trkpt>
      <trkpt lat="45.47454" lon="-75.78374">
        <ele>102.3</ele>
      </trkpt>
      <trkpt lat="45.47458" lon="-75.78371">
        <ele>101.7</ele>
      </trkpt>
      <trkpt lat="45.47475" lon="-75.78362">
        <ele>100.1</ele>
      </trkpt>
      <trkpt lat="45.47489" lon="-75.78361">
        <ele>99.4</ele>
      </trkpt>
      <trkpt lat="45.47615" lon="-75.78382">
        <ele>99</ele>
      </trkpt>
      <trkpt lat="45.47639" lon="-75.78388">
        <ele>98.9</ele>
      </trkpt>
      <trkpt lat="45.47645" lon="-75.7839">
        <ele>98.7</ele>
      </trkpt>
      <trkpt lat="45.47645" lon="-75.78391">
        <ele>98.7</ele>
      </trkpt>
      <trkpt lat="45.47654" lon="-75.784">
        <ele>98.4</ele>
      </trkpt>
      <trkpt lat="45.47728" lon="-75.78534">
        <ele>97.3</ele>
      </trkpt>
      <trkpt lat="45.4774" lon="-75.78555">
        <ele>97</ele>
      </trkpt>
      <trkpt lat="45.47746" lon="-75.78575">
        <ele>97</ele>
      </trkpt>
      <trkpt lat="45.47747" lon="-75.78587">
        <ele>97.1</ele>
      </trkpt>
      <trkpt lat="45.47746" lon="-75.78612">
        <ele>97.4</ele>
      </trkpt>
      <trkpt lat="45.47737" lon="-75.78652">
        <ele>97.9</ele>
      </trkpt>
      <trkpt lat="45.47738" lon="-75.78675">
        <ele>98.4</ele>
      </trkpt>
      <trkpt lat="45.47741" lon="-75.78693">
        <ele>99</ele>
      </trkpt>
      <trkpt lat="45.47769" lon="-75.78755">
        <ele>100.4</ele>
      </trkpt>
      <trkpt lat="45.47806" lon="-75.78834">
        <ele>102</ele>
      </trkpt>
      <trkpt lat="45.47852" lon="-75.78784">
        <ele>99.7</ele>
      </trkpt>
      <trkpt lat="45.47859" lon="-75.78781">
        <ele>99.6</ele>
      </trkpt>
      <trkpt lat="45.47863" lon="-75.78782">
        <ele>99.7</ele>
      </trkpt>
      <trkpt lat="45.47868" lon="-75.78788">
        <ele>99.8</ele>
      </trkpt>
      <trkpt lat="45.47883" lon="-75.78815">
        <ele>100.5</ele>
      </trkpt>
    </trkseg>
  </trk>
</gpx>