<?xml version="1.0" encoding="UTF-8" standalone="yes"?>
<gpx version="1.1" creator="https://onthegomap.com" xmlns="http://www.topografix.com/GPX/1/1">
  <metadata>
    <name>9.3km route</name>
    <link href="https://onthegomap.com">
      <text>On The Go Map</text>
    </link>
    <time>2026-06-01T01:51:49.603Z</time>
    <copyright author="On The Go Map, OpenStreetMap Contributors">
      <year>2026</year>
    </copyright>
  </metadata>
  <trk>
    <name>9.3km route</name>
    <trkseg>
      <trkpt lat="45.47884" lon="-75.78816"/>
      <trkpt lat="45.47928" lon="-75.78899"/>
      <trkpt lat="45.47966" lon="-75.78969"/>
      <trkpt lat="45.47969" lon="-75.78981"/>
      <trkpt lat="45.47967" lon="-75.78992"/>
      <trkpt lat="45.47964" lon="-75.78996"/>
      <trkpt lat="45.47945" lon="-75.79014"/>
      <trkpt lat="45.47903" lon="-75.79021"/>
      <trkpt lat="45.47904" lon="-75.79059"/>
      <trkpt lat="45.47908" lon="-75.79078"/>
      <trkpt lat="45.47854" lon="-75.79099"/>
      <trkpt lat="45.47848" lon="-75.79105"/>
      <trkpt lat="45.47847" lon="-75.79111"/>
      <trkpt lat="45.47849" lon="-75.79123"/>
      <trkpt lat="45.47894" lon="-75.79295"/>
      <trkpt lat="45.47905" lon="-75.79335"/>
      <trkpt lat="45.47899" lon="-75.79338"/>
      <trkpt lat="45.47865" lon="-75.79358"/>
      <trkpt lat="45.47833" lon="-75.79394"/>
      <trkpt lat="45.47804" lon="-75.79392"/>
      <trkpt lat="45.47781" lon="-75.79384"/>
      <trkpt lat="45.47759" lon="-75.79376"/>
      <trkpt lat="45.47734" lon="-75.79371"/>
      <trkpt lat="45.47715" lon="-75.79382"/>
      <trkpt lat="45.47689" lon="-75.79406"/>
      <trkpt lat="45.47651" lon="-75.79422"/>
      <trkpt lat="45.47644" lon="-75.79428"/>
      <trkpt lat="45.47636" lon="-75.79432"/>
      <trkpt lat="45.47604" lon="-75.7943"/>
      <trkpt lat="45.47572" lon="-75.79434"/>
      <trkpt lat="45.47565" lon="-75.79437"/>
      <trkpt lat="45.47532" lon="-75.79464"/>
      <trkpt lat="45.47511" lon="-75.79489"/>
      <trkpt lat="45.47506" lon="-75.7949"/>
      <trkpt lat="45.4751" lon="-75.79498"/>
      <trkpt lat="45.47511" lon="-75.79508"/>
      <trkpt lat="45.47508" lon="-75.79528"/>
      <trkpt lat="45.47492" lon="-75.79596"/>
      <trkpt lat="45.47486" lon="-75.79652"/>
      <trkpt lat="45.47481" lon="-75.79687"/>
      <trkpt lat="45.47468" lon="-75.79735"/>
      <trkpt lat="45.47456" lon="-75.7976"/>
      <trkpt lat="45.47454" lon="-75.79776"/>
      <trkpt lat="45.47449" lon="-75.79847"/>
      <trkpt lat="45.47447" lon="-75.79898"/>
      <trkpt lat="45.4745" lon="-75.79928"/>
      <trkpt lat="45.47453" lon="-75.79937"/>
      <trkpt lat="45.47458" lon="-75.79944"/>
      <trkpt lat="45.47468" lon="-75.79949"/>
      <trkpt lat="45.47476" lon="-75.7995"/>
      <trkpt lat="45.47482" lon="-75.79947"/>
      <trkpt lat="45.47499" lon="-75.79928"/>
      <trkpt lat="45.47506" lon="-75.79924"/>
      <trkpt lat="45.47517" lon="-75.79926"/>
      <trkpt lat="45.47543" lon="-75.79943"/>
      <trkpt lat="45.47555" lon="-75.79954"/>
      <trkpt lat="45.47583" lon="-75.79987"/>
      <trkpt lat="45.47589" lon="-75.79999"/>
      <trkpt lat="45.47591" lon="-75.80009"/>
      <trkpt lat="45.4759" lon="-75.80019"/>
      <trkpt lat="45.47576" lon="-75.80055"/>
      <trkpt lat="45.47568" lon="-75.80094"/>
      <trkpt lat="45.47569" lon="-75.80145"/>
      <trkpt lat="45.47557" lon="-75.80226"/>
      <trkpt lat="45.47557" lon="-75.80246"/>
      <trkpt lat="45.47558" lon="-75.80267"/>
      <trkpt lat="45.4756" lon="-75.80271"/>
      <trkpt lat="45.47568" lon="-75.80282"/>
      <trkpt lat="45.47585" lon="-75.80301"/>
      <trkpt lat="45.47611" lon="-75.80318"/>
      <trkpt lat="45.47634" lon="-75.80329"/>
      <trkpt lat="45.47647" lon="-75.8034"/>
      <trkpt lat="45.47674" lon="-75.80351"/>
      <trkpt lat="45.47686" lon="-75.80363"/>
      <trkpt lat="45.47693" lon="-75.80374"/>
      <trkpt lat="45.47695" lon="-75.80389"/>
      <trkpt lat="45.47689" lon="-75.8044"/>
      <trkpt lat="45.47687" lon="-75.80471"/>
      <trkpt lat="45.47679" lon="-75.80505"/>
      <trkpt lat="45.47677" lon="-75.80525"/>
      <trkpt lat="45.47677" lon="-75.80587"/>
      <trkpt lat="45.47679" lon="-75.80612"/>
      <trkpt lat="45.47684" lon="-75.80632"/>
      <trkpt lat="45.47731" lon="-75.80714"/>
      <trkpt lat="45.47738" lon="-75.80732"/>
      <trkpt lat="45.47737" lon="-75.80753"/>
      <trkpt lat="45.47724" lon="-75.80775"/>
      <trkpt lat="45.47722" lon="-75.80778"/>
      <trkpt lat="45.47704" lon="-75.80802"/>
      <trkpt lat="45.47691" lon="-75.80826"/>
      <trkpt lat="45.47652" lon="-75.80873"/>
      <trkpt lat="45.47644" lon="-75.80886"/>
      <trkpt lat="45.47642" lon="-75.8093"/>
      <trkpt lat="45.47637" lon="-75.80936"/>
      <trkpt lat="45.47599" lon="-75.80946"/>
      <trkpt lat="45.47592" lon="-75.80943"/>
      <trkpt lat="45.47575" lon="-75.80946"/>
      <trkpt lat="45.47564" lon="-75.80943"/>
      <trkpt lat="45.47521" lon="-75.80942"/>
      <trkpt lat="45.4751" lon="-75.80943"/>
      <trkpt lat="45.47475" lon="-75.80955"/>
      <trkpt lat="45.47462" lon="-75.80964"/>
      <trkpt lat="45.47446" lon="-75.80984"/>
      <trkpt lat="45.47403" lon="-75.8101"/>
      <trkpt lat="45.47372" lon="-75.81059"/>
      <trkpt lat="45.47368" lon="-75.81068"/>
      <trkpt lat="45.47363" lon="-75.81087"/>
      <trkpt lat="45.4736" lon="-75.81112"/>
      <trkpt lat="45.47354" lon="-75.81142"/>
      <trkpt lat="45.47349" lon="-75.81183"/>
      <trkpt lat="45.47333" lon="-75.81239"/>
      <trkpt lat="45.47322" lon="-75.81288"/>
      <trkpt lat="45.47316" lon="-75.81352"/>
      <trkpt lat="45.47315" lon="-75.8136"/>
      <trkpt lat="45.47314" lon="-75.81401"/>
      <trkpt lat="45.47308" lon="-75.8143"/>
      <trkpt lat="45.47301" lon="-75.81448"/>
      <trkpt lat="45.47293" lon="-75.81458"/>
      <trkpt lat="45.47284" lon="-75.81475"/>
      <trkpt lat="45.47274" lon="-75.81513"/>
      <trkpt lat="45.47266" lon="-75.8153"/>
      <trkpt lat="45.47241" lon="-75.81574"/>
      <trkpt lat="45.47217" lon="-75.81605"/>
      <trkpt lat="45.47213" lon="-75.81619"/>
      <trkpt lat="45.47213" lon="-75.81629"/>
      <trkpt lat="45.47215" lon="-75.81639"/>
      <trkpt lat="45.47239" lon="-75.81677"/>
      <trkpt lat="45.47248" lon="-75.81699"/>
      <trkpt lat="45.47224" lon="-75.81694"/>
      <trkpt lat="45.47215" lon="-75.81685"/>
      <trkpt lat="45.472" lon="-75.81663"/>
      <trkpt lat="45.47149" lon="-75.81624"/>
      <trkpt lat="45.47141" lon="-75.81614"/>
      <trkpt lat="45.47132" lon="-75.81604"/>
      <trkpt lat="45.47121" lon="-75.81583"/>
      <trkpt lat="45.47112" lon="-75.81576"/>
      <trkpt lat="45.47104" lon="-75.81574"/>
      <trkpt lat="45.47083" lon="-75.81575"/>
      <trkpt lat="45.4707" lon="-75.81579"/>
      <trkpt lat="45.47051" lon="-75.81585"/>
      <trkpt lat="45.47047" lon="-75.81584"/>
      <trkpt lat="45.47031" lon="-75.81572"/>
      <trkpt lat="45.47017" lon="-75.81568"/>
      <trkpt lat="45.47011" lon="-75.81562"/>
      <trkpt lat="45.47007" lon="-75.81553"/>
      <trkpt lat="45.47007" lon="-75.81548"/>
      <trkpt lat="45.47009" lon="-75.81506"/>
      <trkpt lat="45.47008" lon="-75.81486"/>
      <trkpt lat="45.47006" lon="-75.81479"/>
      <trkpt lat="45.46999" lon="-75.81441"/>
      <trkpt lat="45.46995" lon="-75.81432"/>
      <trkpt lat="45.46984" lon="-75.81418"/>
      <trkpt lat="45.4697" lon="-75.81388"/>
      <trkpt lat="45.46947" lon="-75.81348"/>
      <trkpt lat="45.4692" lon="-75.81305"/>
      <trkpt lat="45.46917" lon="-75.81296"/>
      <trkpt lat="45.46896" lon="-75.81254"/>
      <trkpt lat="45.46889" lon="-75.81228"/>
      <trkpt lat="45.46888" lon="-75.81209"/>
      <trkpt lat="45.46892" lon="-75.81205"/>
      <trkpt lat="45.46893" lon="-75.81204"/>
      <trkpt lat="45.46893" lon="-75.81196"/>
      <trkpt lat="45.46895" lon="-75.81171"/>
      <trkpt lat="45.46894" lon="-75.81142"/>
      <trkpt lat="45.46892" lon="-75.81142"/>
      <trkpt lat="45.46877" lon="-75.81142"/>
      <trkpt lat="45.46868" lon="-75.81145"/>
      <trkpt lat="45.46862" lon="-75.81142"/>
      <trkpt lat="45.46854" lon="-75.81132"/>
      <trkpt lat="45.46847" lon="-75.81126"/>
      <trkpt lat="45.46837" lon="-75.81104"/>
      <trkpt lat="45.4683" lon="-75.81093"/>
      <trkpt lat="45.46823" lon="-75.81086"/>
      <trkpt lat="45.46802" lon="-75.81075"/>
      <trkpt lat="45.46792" lon="-75.81075"/>
      <trkpt lat="45.46782" lon="-75.8107"/>
      <trkpt lat="45.46773" lon="-75.81062"/>
      <trkpt lat="45.46767" lon="-75.81051"/>
      <trkpt lat="45.46749" lon="-75.81032"/>
      <trkpt lat="45.46745" lon="-75.81023"/>
      <trkpt lat="45.46741" lon="-75.81013"/>
      <trkpt lat="45.4674" lon="-75.80996"/>
      <trkpt lat="45.46737" lon="-75.80972"/>
      <trkpt lat="45.46737" lon="-75.8097"/>
      <trkpt lat="45.46729" lon="-75.80953"/>
      <trkpt lat="45.46725" lon="-75.8094"/>
      <trkpt lat="45.46697" lon="-75.80891"/>
      <trkpt lat="45.46694" lon="-75.8088"/>
      <trkpt lat="45.46692" lon="-75.80864"/>
      <trkpt lat="45.46693" lon="-75.80849"/>
      <trkpt lat="45.46696" lon="-75.80828"/>
      <trkpt lat="45.46696" lon="-75.80821"/>
      <trkpt lat="45.46697" lon="-75.80815"/>
      <trkpt lat="45.46697" lon="-75.80809"/>
      <trkpt lat="45.467" lon="-75.80786"/>
      <trkpt lat="45.46703" lon="-75.80777"/>
      <trkpt lat="45.4671" lon="-75.80763"/>
      <trkpt lat="45.46727" lon="-75.80744"/>
      <trkpt lat="45.46735" lon="-75.80727"/>
      <trkpt lat="45.46738" lon="-75.80713"/>
      <trkpt lat="45.46742" lon="-75.80688"/>
      <trkpt lat="45.46733" lon="-75.80654"/>
      <trkpt lat="45.46731" lon="-75.80634"/>
      <trkpt lat="45.46725" lon="-75.80614"/>
      <trkpt lat="45.46719" lon="-75.8058"/>
      <trkpt lat="45.46717" lon="-75.80563"/>
      <trkpt lat="45.46703" lon="-75.80511"/>
      <trkpt lat="45.46702" lon="-75.80495"/>
      <trkpt lat="45.46703" lon="-75.80444"/>
      <trkpt lat="45.46705" lon="-75.80414"/>
      <trkpt lat="45.46707" lon="-75.80394"/>
      <trkpt lat="45.467" lon="-75.80363"/>
      <trkpt lat="45.46697" lon="-75.80345"/>
      <trkpt lat="45.46694" lon="-75.80325"/>
      <trkpt lat="45.46687" lon="-75.80312"/>
      <trkpt lat="45.46683" lon="-75.80277"/>
      <trkpt lat="45.46681" lon="-75.80272"/>
      <trkpt lat="45.46679" lon="-75.80248"/>
      <trkpt lat="45.46679" lon="-75.80237"/>
      <trkpt lat="45.46675" lon="-75.8022"/>
      <trkpt lat="45.46676" lon="-75.80212"/>
      <trkpt lat="45.46683" lon="-75.8021"/>
      <trkpt lat="45.46687" lon="-75.80216"/>
      <trkpt lat="45.46705" lon="-75.80232"/>
      <trkpt lat="45.46718" lon="-75.80247"/>
      <trkpt lat="45.46729" lon="-75.80267"/>
      <trkpt lat="45.46736" lon="-75.80275"/>
      <trkpt lat="45.46748" lon="-75.80307"/>
      <trkpt lat="45.46764" lon="-75.80336"/>
      <trkpt lat="45.4677" lon="-75.8035"/>
      <trkpt lat="45.4679" lon="-75.80393"/>
      <trkpt lat="45.46802" lon="-75.80407"/>
      <trkpt lat="45.46802" lon="-75.80418"/>
      <trkpt lat="45.46799" lon="-75.8043"/>
      <trkpt lat="45.46804" lon="-75.80445"/>
      <trkpt lat="45.46814" lon="-75.80461"/>
      <trkpt lat="45.46852" lon="-75.80503"/>
      <trkpt lat="45.46868" lon="-75.80516"/>
      <trkpt lat="45.46887" lon="-75.80529"/>
      <trkpt lat="45.46899" lon="-75.8055"/>
      <trkpt lat="45.46924" lon="-75.80568"/>
      <trkpt lat="45.46953" lon="-75.80584"/>
      <trkpt lat="45.46974" lon="-75.80573"/>
      <trkpt lat="45.46993" lon="-75.80558"/>
      <trkpt lat="45.47001" lon="-75.80548"/>
      <trkpt lat="45.47016" lon="-75.80525"/>
      <trkpt lat="45.47022" lon="-75.80507"/>
      <trkpt lat="45.47031" lon="-75.80491"/>
      <trkpt lat="45.47053" lon="-75.80473"/>
      <trkpt lat="45.47072" lon="-75.80449"/>
      <trkpt lat="45.47075" lon="-75.80434"/>
      <trkpt lat="45.47074" lon="-75.80424"/>
      <trkpt lat="45.47066" lon="-75.80401"/>
      <trkpt lat="45.47057" lon="-75.80385"/>
      <trkpt lat="45.47055" lon="-75.80376"/>
      <trkpt lat="45.4706" lon="-75.80356"/>
      <trkpt lat="45.47062" lon="-75.80351"/>
      <trkpt lat="45.47066" lon="-75.80343"/>
      <trkpt lat="45.47084" lon="-75.80312"/>
      <trkpt lat="45.47105" lon="-75.80284"/>
      <trkpt lat="45.47126" lon="-75.8025"/>
      <trkpt lat="45.47152" lon="-75.80235"/>
      <trkpt lat="45.47162" lon="-75.80223"/>
      <trkpt lat="45.47168" lon="-75.80206"/>
      <trkpt lat="45.47174" lon="-75.80172"/>
      <trkpt lat="45.47182" lon="-75.80152"/>
      <trkpt lat="45.47168" lon="-75.8012"/>
      <trkpt lat="45.47159" lon="-75.80111"/>
      <trkpt lat="45.47141" lon="-75.80085"/>
      <trkpt lat="45.47124" lon="-75.80052"/>
      <trkpt lat="45.47103" lon="-75.80024"/>
      <trkpt lat="45.47098" lon="-75.80012"/>
      <trkpt lat="45.47095" lon="-75.79992"/>
      <trkpt lat="45.47094" lon="-75.79951"/>
      <trkpt lat="45.47103" lon="-75.79929"/>
      <trkpt lat="45.47108" lon="-75.79921"/>
      <trkpt lat="45.47128" lon="-75.79909"/>
      <trkpt lat="45.47148" lon="-75.79879"/>
      <trkpt lat="45.47153" lon="-75.79866"/>
      <trkpt lat="45.4716" lon="-75.79854"/>
      <trkpt lat="45.47169" lon="-75.79846"/>
      <trkpt lat="45.47202" lon="-75.79801"/>
      <trkpt lat="45.47226" lon="-75.79748"/>
      <trkpt lat="45.4724" lon="-75.7969"/>
      <trkpt lat="45.47242" lon="-75.79684"/>
      <trkpt lat="45.47243" lon="-75.79681"/>
      <trkpt lat="45.4725" lon="-75.79675"/>
      <trkpt lat="45.47264" lon="-75.7967"/>
      <trkpt lat="45.47271" lon="-75.79671"/>
      <trkpt lat="45.47294" lon="-75.79679"/>
      <trkpt lat="45.47302" lon="-75.79677"/>
      <trkpt lat="45.47306" lon="-75.79662"/>
      <trkpt lat="45.47308" lon="-75.79631"/>
      <trkpt lat="45.47193" lon="-75.79612"/>
      <trkpt lat="45.47174" lon="-75.79608"/>
      <trkpt lat="45.47153" lon="-75.79604"/>
      <trkpt lat="45.47136" lon="-75.79596"/>
      <trkpt lat="45.47126" lon="-75.79586"/>
      <trkpt lat="45.47116" lon="-75.79557"/>
      <trkpt lat="45.47103" lon="-75.79532"/>
      <trkpt lat="45.47084" lon="-75.79513"/>
      <trkpt lat="45.47063" lon="-75.7951"/>
      <trkpt lat="45.47047" lon="-75.79513"/>
      <trkpt lat="45.47017" lon="-75.79537"/>
      <trkpt lat="45.46996" lon="-75.7954"/>
      <trkpt lat="45.46975" lon="-75.79538"/>
      <trkpt lat="45.46944" lon="-75.79513"/>
      <trkpt lat="45.46923" lon="-75.79488"/>
      <trkpt lat="45.46917" lon="-75.79464"/>
      <trkpt lat="45.4691" lon="-75.79453"/>
      <trkpt lat="45.46893" lon="-75.79442"/>
      <trkpt lat="45.46869" lon="-75.79394"/>
      <trkpt lat="45.46857" lon="-75.79368"/>
      <trkpt lat="45.46836" lon="-75.79291"/>
      <trkpt lat="45.46833" lon="-75.79257"/>
      <trkpt lat="45.46828" lon="-75.79228"/>
      <trkpt lat="45.46827" lon="-75.79196"/>
      <trkpt lat="45.46827" lon="-75.79186"/>
      <trkpt lat="45.46821" lon="-75.79168"/>
      <trkpt lat="45.46799" lon="-75.79133"/>
      <trkpt lat="45.46792" lon="-75.79117"/>
      <trkpt lat="45.46786" lon="-75.79113"/>
      <trkpt lat="45.46762" lon="-75.79077"/>
      <trkpt lat="45.46753" lon="-75.79054"/>
      <trkpt lat="45.46735" lon="-75.78978"/>
      <trkpt lat="45.46748" lon="-75.78981"/>
      <trkpt lat="45.46765" lon="-75.78972"/>
      <trkpt lat="45.4679" lon="-75.78968"/>
      <trkpt lat="45.46814" lon="-75.78957"/>
      <trkpt lat="45.46822" lon="-75.78956"/>
      <trkpt lat="45.46844" lon="-75.78958"/>
      <trkpt lat="45.46851" lon="-75.78961"/>
      <trkpt lat="45.46901" lon="-75.78985"/>
      <trkpt lat="45.46916" lon="-75.79"/>
      <trkpt lat="45.46933" lon="-75.79002"/>
      <trkpt lat="45.4694" lon="-75.78999"/>
      <trkpt lat="45.46945" lon="-75.78992"/>
      <trkpt lat="45.46952" lon="-75.7899"/>
      <trkpt lat="45.46963" lon="-75.78977"/>
      <trkpt lat="45.46983" lon="-75.78965"/>
      <trkpt lat="45.47008" lon="-75.7896"/>
      <trkpt lat="45.47019" lon="-75.78963"/>
      <trkpt lat="45.47052" lon="-75.78984"/>
      <trkpt lat="45.47066" lon="-75.78985"/>
      <trkpt lat="45.47076" lon="-75.78991"/>
      <trkpt lat="45.4709" lon="-75.7899"/>
      <trkpt lat="45.47111" lon="-75.7898"/>
      <trkpt lat="45.47128" lon="-75.78961"/>
      <trkpt lat="45.47135" lon="-75.78949"/>
      <trkpt lat="45.47151" lon="-75.78903"/>
      <trkpt lat="45.4716" lon="-75.78895"/>
      <trkpt lat="45.47177" lon="-75.789"/>
      <trkpt lat="45.47191" lon="-75.78901"/>
      <trkpt lat="45.47197" lon="-75.78906"/>
      <trkpt lat="45.472" lon="-75.78883"/>
      <trkpt lat="45.47209" lon="-75.78854"/>
      <trkpt lat="45.47212" lon="-75.78834"/>
      <trkpt lat="45.47222" lon="-75.78806"/>
      <trkpt lat="45.47225" lon="-75.78791"/>
      <trkpt lat="45.47228" lon="-75.78755"/>
      <trkpt lat="45.47234" lon="-75.78736"/>
      <trkpt lat="45.47243" lon="-75.78697"/>
      <trkpt lat="45.47254" lon="-75.78668"/>
      <trkpt lat="45.47261" lon="-75.78646"/>
      <trkpt lat="45.47268" lon="-75.78633"/>
      <trkpt lat="45.47272" lon="-75.78619"/>
      <trkpt lat="45.47285" lon="-75.78594"/>
      <trkpt lat="45.47291" lon="-75.78564"/>
      <trkpt lat="45.47298" lon="-75.78545"/>
      <trkpt lat="45.47309" lon="-75.78526"/>
      <trkpt lat="45.47319" lon="-75.7854"/>
      <trkpt lat="45.47328" lon="-75.78562"/>
      <trkpt lat="45.47338" lon="-75.7857"/>
      <trkpt lat="45.47352" lon="-75.78586"/>
      <trkpt lat="45.4737" lon="-75.78618"/>
      <trkpt lat="45.47383" lon="-75.78636"/>
      <trkpt lat="45.47386" lon="-75.78639"/>
      <trkpt lat="45.47412" lon="-75.78667"/>
      <trkpt lat="45.47427" lon="-75.78689"/>
      <trkpt lat="45.47443" lon="-75.787"/>
      <trkpt lat="45.47454" lon="-75.78703"/>
      <trkpt lat="45.47459" lon="-75.78695"/>
      <trkpt lat="45.47462" lon="-75.78681"/>
      <trkpt lat="45.47464" lon="-75.78666"/>
      <trkpt lat="45.47462" lon="-75.78625"/>
      <trkpt lat="45.47467" lon="-75.78611"/>
      <trkpt lat="45.4747" lon="-75.78608"/>
      <trkpt lat="45.47477" lon="-75.7861"/>
      <trkpt lat="45.47488" lon="-75.78642"/>
      <trkpt lat="45.47496" lon="-75.78681"/>
      <trkpt lat="45.475" lon="-75.78712"/>
      <trkpt lat="45.47512" lon="-75.78743"/>
      <trkpt lat="45.4752" lon="-75.78753"/>
      <trkpt lat="45.47523" lon="-75.78762"/>
      <trkpt lat="45.47521" lon="-75.78771"/>
      <trkpt lat="45.47511" lon="-75.78767"/>
      <trkpt lat="45.47507" lon="-75.78768"/>
      <trkpt lat="45.47504" lon="-75.78771"/>
      <trkpt lat="45.47501" lon="-75.7878"/>
      <trkpt lat="45.47504" lon="-75.788"/>
      <trkpt lat="45.47508" lon="-75.78809"/>
      <trkpt lat="45.47512" lon="-75.78825"/>
      <trkpt lat="45.47514" lon="-75.78833"/>
      <trkpt lat="45.47532" lon="-75.78858"/>
      <trkpt lat="45.4755" lon="-75.78874"/>
      <trkpt lat="45.47552" lon="-75.78879"/>
      <trkpt lat="45.47564" lon="-75.78888"/>
      <trkpt lat="45.47574" lon="-75.78882"/>
      <trkpt lat="45.47589" lon="-75.78881"/>
      <trkpt lat="45.47628" lon="-75.78889"/>
      <trkpt lat="45.4766" lon="-75.78896"/>
      <trkpt lat="45.47668" lon="-75.78892"/>
      <trkpt lat="45.47674" lon="-75.78886"/>
      <trkpt lat="45.4769" lon="-75.78929"/>
      <trkpt lat="45.47693" lon="-75.78927"/>
      <trkpt lat="45.47705" lon="-75.78919"/>
      <trkpt lat="45.47806" lon="-75.78834"/>
      <trkpt lat="45.47852" lon="-75.78784"/>
      <trkpt lat="45.47859" lon="-75.78781"/>
      <trkpt lat="45.47863" lon="-75.78782"/>
      <trkpt lat="45.47868" lon="-75.78788"/>
      <trkpt lat="45.47882" lon="-75.78814"/>
    </trkseg>
  </trk>
</gpx>