<?xml version="1.0" encoding="UTF-8" standalone="yes"?>
<gpx version="1.1" creator="https://onthegomap.com" xmlns="http://www.topografix.com/GPX/1/1">
  <metadata>
    <name>6.9km route</name>
    <link href="https://onthegomap.com">
      <text>On The Go Map</text>
    </link>
    <time>2026-04-29T12:55:07.289Z</time>
    <copyright author="On The Go Map, OpenStreetMap Contributors">
      <year>2026</year>
    </copyright>
  </metadata>
  <trk>
    <name>6.9km route</name>
    <trkseg>
      <trkpt lat="45.47884" lon="-75.78816">
        <ele>100.5</ele>
      </trkpt>
      <trkpt lat="45.47868" lon="-75.78788">
        <ele>99.7</ele>
      </trkpt>
      <trkpt lat="45.47863" lon="-75.78782">
        <ele>99.6</ele>
      </trkpt>
      <trkpt lat="45.47859" lon="-75.78781">
        <ele>99.5</ele>
      </trkpt>
      <trkpt lat="45.47852" lon="-75.78784">
        <ele>99.7</ele>
      </trkpt>
      <trkpt lat="45.47806" lon="-75.78834">
        <ele>102.2</ele>
      </trkpt>
      <trkpt lat="45.47705" lon="-75.78919">
        <ele>108.2</ele>
      </trkpt>
      <trkpt lat="45.47693" lon="-75.78927">
        <ele>110.6</ele>
      </trkpt>
      <trkpt lat="45.47698" lon="-75.78946">
        <ele>111.6</ele>
      </trkpt>
      <trkpt lat="45.47694" lon="-75.78948">
        <ele>112.2</ele>
      </trkpt>
      <trkpt lat="45.47689" lon="-75.7895">
        <ele>112.9</ele>
      </trkpt>
      <trkpt lat="45.47691" lon="-75.78959">
        <ele>113.2</ele>
      </trkpt>
      <trkpt lat="45.47697" lon="-75.78997">
        <ele>112.9</ele>
      </trkpt>
      <trkpt lat="45.47699" lon="-75.79038">
        <ele>111.9</ele>
      </trkpt>
      <trkpt lat="45.47701" lon="-75.79052">
        <ele>111.5</ele>
      </trkpt>
      <trkpt lat="45.47713" lon="-75.79072">
        <ele>110.1</ele>
      </trkpt>
      <trkpt lat="45.47713" lon="-75.79124">
        <ele>109.4</ele>
      </trkpt>
      <trkpt lat="45.47714" lon="-75.7914">
        <ele>109</ele>
      </trkpt>
      <trkpt lat="45.47718" lon="-75.7915">
        <ele>108.7</ele>
      </trkpt>
      <trkpt lat="45.47724" lon="-75.79162">
        <ele>108.5</ele>
      </trkpt>
      <trkpt lat="45.47734" lon="-75.79185">
        <ele>108.3</ele>
      </trkpt>
      <trkpt lat="45.47743" lon="-75.79218">
        <ele>108.8</ele>
      </trkpt>
      <trkpt lat="45.47705" lon="-75.79264">
        <ele>110.5</ele>
      </trkpt>
      <trkpt lat="45.47699" lon="-75.7927">
        <ele>110.7</ele>
      </trkpt>
      <trkpt lat="45.47687" lon="-75.79276">
        <ele>110.8</ele>
      </trkpt>
      <trkpt lat="45.47608" lon="-75.79295">
        <ele>113.1</ele>
      </trkpt>
      <trkpt lat="45.47581" lon="-75.79298">
        <ele>113.6</ele>
      </trkpt>
      <trkpt lat="45.47462" lon="-75.79307">
        <ele>118.6</ele>
      </trkpt>
      <trkpt lat="45.47441" lon="-75.79305">
        <ele>118.7</ele>
      </trkpt>
      <trkpt lat="45.47414" lon="-75.7929">
        <ele>118.5</ele>
      </trkpt>
      <trkpt lat="45.47342" lon="-75.79248">
        <ele>115.1</ele>
      </trkpt>
      <trkpt lat="45.47315" lon="-75.79239">
        <ele>115.1</ele>
      </trkpt>
      <trkpt lat="45.47304" lon="-75.79237">
        <ele>115.4</ele>
      </trkpt>
      <trkpt lat="45.47287" lon="-75.79241">
        <ele>116.3</ele>
      </trkpt>
      <trkpt lat="45.47235" lon="-75.79273">
        <ele>119.1</ele>
      </trkpt>
      <trkpt lat="45.47202" lon="-75.79289">
        <ele>119.9</ele>
      </trkpt>
      <trkpt lat="45.47061" lon="-75.79349">
        <ele>125.9</ele>
      </trkpt>
      <trkpt lat="45.47046" lon="-75.7935">
        <ele>125.6</ele>
      </trkpt>
      <trkpt lat="45.47006" lon="-75.79344">
        <ele>124.6</ele>
      </trkpt>
      <trkpt lat="45.46965" lon="-75.79348">
        <ele>125</ele>
      </trkpt>
      <trkpt lat="45.46956" lon="-75.79347">
        <ele>124.9</ele>
      </trkpt>
      <trkpt lat="45.46952" lon="-75.79344">
        <ele>124.6</ele>
      </trkpt>
      <trkpt lat="45.46948" lon="-75.7933">
        <ele>123.9</ele>
      </trkpt>
      <trkpt lat="45.46947" lon="-75.79312">
        <ele>122.8</ele>
      </trkpt>
      <trkpt lat="45.46946" lon="-75.79289">
        <ele>121.4</ele>
      </trkpt>
      <trkpt lat="45.46941" lon="-75.7925">
        <ele>120.9</ele>
      </trkpt>
      <trkpt lat="45.46931" lon="-75.79224">
        <ele>120.8</ele>
      </trkpt>
      <trkpt lat="45.469" lon="-75.79175">
        <ele>119.1</ele>
      </trkpt>
      <trkpt lat="45.4688" lon="-75.79155">
        <ele>118.4</ele>
      </trkpt>
      <trkpt lat="45.46834" lon="-75.79133">
        <ele>118.3</ele>
      </trkpt>
      <trkpt lat="45.46792" lon="-75.79117">
        <ele>118.4</ele>
      </trkpt>
      <trkpt lat="45.46786" lon="-75.79113">
        <ele>118.5</ele>
      </trkpt>
      <trkpt lat="45.46762" lon="-75.79077">
        <ele>119</ele>
      </trkpt>
      <trkpt lat="45.46753" lon="-75.79054">
        <ele>119.5</ele>
      </trkpt>
      <trkpt lat="45.46735" lon="-75.78978">
        <ele>123.4</ele>
      </trkpt>
      <trkpt lat="45.46724" lon="-75.78918">
        <ele>126.5</ele>
      </trkpt>
      <trkpt lat="45.46713" lon="-75.78885">
        <ele>126.6</ele>
      </trkpt>
      <trkpt lat="45.467" lon="-75.78854">
        <ele>126</ele>
      </trkpt>
      <trkpt lat="45.46684" lon="-75.78825">
        <ele>124.7</ele>
      </trkpt>
      <trkpt lat="45.46672" lon="-75.78807">
        <ele>123.9</ele>
      </trkpt>
      <trkpt lat="45.46652" lon="-75.78783">
        <ele>123</ele>
      </trkpt>
      <trkpt lat="45.46634" lon="-75.78765">
        <ele>122.3</ele>
      </trkpt>
      <trkpt lat="45.46591" lon="-75.78731">
        <ele>122</ele>
      </trkpt>
      <trkpt lat="45.46582" lon="-75.78724">
        <ele>122</ele>
      </trkpt>
      <trkpt lat="45.4658" lon="-75.78723">
        <ele>122</ele>
      </trkpt>
      <trkpt lat="45.46556" lon="-75.78712">
        <ele>122</ele>
      </trkpt>
      <trkpt lat="45.46541" lon="-75.7871">
        <ele>121.8</ele>
      </trkpt>
      <trkpt lat="45.46515" lon="-75.7871">
        <ele>121.9</ele>
      </trkpt>
      <trkpt lat="45.46483" lon="-75.78719">
        <ele>122.7</ele>
      </trkpt>
      <trkpt lat="45.4647" lon="-75.78718">
        <ele>123.7</ele>
      </trkpt>
      <trkpt lat="45.46466" lon="-75.78684">
        <ele>125.7</ele>
      </trkpt>
      <trkpt lat="45.46454" lon="-75.78625">
        <ele>127.2</ele>
      </trkpt>
      <trkpt lat="45.46452" lon="-75.78597">
        <ele>127.3</ele>
      </trkpt>
      <trkpt lat="45.46456" lon="-75.78567">
        <ele>127.8</ele>
      </trkpt>
      <trkpt lat="45.46468" lon="-75.78517">
        <ele>127.5</ele>
      </trkpt>
      <trkpt lat="45.46479" lon="-75.78485">
        <ele>126.3</ele>
      </trkpt>
      <trkpt lat="45.46491" lon="-75.78459">
        <ele>125.6</ele>
      </trkpt>
      <trkpt lat="45.46503" lon="-75.7844">
        <ele>126</ele>
      </trkpt>
      <trkpt lat="45.46537" lon="-75.78395">
        <ele>127.7</ele>
      </trkpt>
      <trkpt lat="45.46541" lon="-75.78387">
        <ele>128</ele>
      </trkpt>
      <trkpt lat="45.46543" lon="-75.78379">
        <ele>128.2</ele>
      </trkpt>
      <trkpt lat="45.46528" lon="-75.78317">
        <ele>127.9</ele>
      </trkpt>
      <trkpt lat="45.46507" lon="-75.78263">
        <ele>121.7</ele>
      </trkpt>
      <trkpt lat="45.46491" lon="-75.78211">
        <ele>118.9</ele>
      </trkpt>
      <trkpt lat="45.46476" lon="-75.78182">
        <ele>117.4</ele>
      </trkpt>
      <trkpt lat="45.46463" lon="-75.7814">
        <ele>115.7</ele>
      </trkpt>
      <trkpt lat="45.4645" lon="-75.78122">
        <ele>115.4</ele>
      </trkpt>
      <trkpt lat="45.46445" lon="-75.78109">
        <ele>114.8</ele>
      </trkpt>
      <trkpt lat="45.46442" lon="-75.78068">
        <ele>111</ele>
      </trkpt>
      <trkpt lat="45.46442" lon="-75.78028">
        <ele>108.6</ele>
      </trkpt>
      <trkpt lat="45.46438" lon="-75.78013">
        <ele>108.1</ele>
      </trkpt>
      <trkpt lat="45.46426" lon="-75.77988">
        <ele>107.4</ele>
      </trkpt>
      <trkpt lat="45.46419" lon="-75.77963">
        <ele>106.7</ele>
      </trkpt>
      <trkpt lat="45.46413" lon="-75.77939">
        <ele>106.1</ele>
      </trkpt>
      <trkpt lat="45.4641" lon="-75.77921">
        <ele>106</ele>
      </trkpt>
      <trkpt lat="45.46411" lon="-75.77902">
        <ele>106</ele>
      </trkpt>
      <trkpt lat="45.46413" lon="-75.77882">
        <ele>106</ele>
      </trkpt>
      <trkpt lat="45.46425" lon="-75.77713">
        <ele>104.2</ele>
      </trkpt>
      <trkpt lat="45.46424" lon="-75.77696">
        <ele>104</ele>
      </trkpt>
      <trkpt lat="45.46415" lon="-75.77677">
        <ele>104</ele>
      </trkpt>
      <trkpt lat="45.464" lon="-75.77651">
        <ele>103.8</ele>
      </trkpt>
      <trkpt lat="45.46393" lon="-75.77643">
        <ele>103.9</ele>
      </trkpt>
      <trkpt lat="45.46302" lon="-75.77576">
        <ele>105</ele>
      </trkpt>
      <trkpt lat="45.46297" lon="-75.7757">
        <ele>105</ele>
      </trkpt>
      <trkpt lat="45.46293" lon="-75.77564">
        <ele>104.9</ele>
      </trkpt>
      <trkpt lat="45.46272" lon="-75.77515">
        <ele>104</ele>
      </trkpt>
      <trkpt lat="45.46245" lon="-75.77484">
        <ele>104</ele>
      </trkpt>
      <trkpt lat="45.46227" lon="-75.77466">
        <ele>104.1</ele>
      </trkpt>
      <trkpt lat="45.46224" lon="-75.7746">
        <ele>104</ele>
      </trkpt>
      <trkpt lat="45.46221" lon="-75.77448">
        <ele>103.7</ele>
      </trkpt>
      <trkpt lat="45.46222" lon="-75.77427">
        <ele>103.1</ele>
      </trkpt>
      <trkpt lat="45.46219" lon="-75.77422">
        <ele>103</ele>
      </trkpt>
      <trkpt lat="45.46222" lon="-75.77427">
        <ele>103.1</ele>
      </trkpt>
      <trkpt lat="45.46221" lon="-75.77448">
        <ele>103.7</ele>
      </trkpt>
      <trkpt lat="45.46224" lon="-75.7746">
        <ele>103.9</ele>
      </trkpt>
      <trkpt lat="45.46227" lon="-75.77466">
        <ele>104.1</ele>
      </trkpt>
      <trkpt lat="45.46245" lon="-75.77484">
        <ele>104</ele>
      </trkpt>
      <trkpt lat="45.46272" lon="-75.77515">
        <ele>104</ele>
      </trkpt>
      <trkpt lat="45.46293" lon="-75.77564">
        <ele>105</ele>
      </trkpt>
      <trkpt lat="45.46297" lon="-75.7757">
        <ele>105</ele>
      </trkpt>
      <trkpt lat="45.46302" lon="-75.77576">
        <ele>105</ele>
      </trkpt>
      <trkpt lat="45.46393" lon="-75.77643">
        <ele>103.9</ele>
      </trkpt>
      <trkpt lat="45.464" lon="-75.77651">
        <ele>103.8</ele>
      </trkpt>
      <trkpt lat="45.46415" lon="-75.77677">
        <ele>104</ele>
      </trkpt>
      <trkpt lat="45.46424" lon="-75.77696">
        <ele>104</ele>
      </trkpt>
      <trkpt lat="45.46425" lon="-75.77713">
        <ele>104.2</ele>
      </trkpt>
      <trkpt lat="45.46413" lon="-75.77882">
        <ele>106</ele>
      </trkpt>
      <trkpt lat="45.46411" lon="-75.77902">
        <ele>106</ele>
      </trkpt>
      <trkpt lat="45.4641" lon="-75.77921">
        <ele>106</ele>
      </trkpt>
      <trkpt lat="45.46413" lon="-75.77939">
        <ele>106.1</ele>
      </trkpt>
      <trkpt lat="45.46419" lon="-75.77963">
        <ele>106.7</ele>
      </trkpt>
      <trkpt lat="45.46426" lon="-75.77988">
        <ele>107.4</ele>
      </trkpt>
      <trkpt lat="45.46438" lon="-75.78013">
        <ele>108.1</ele>
      </trkpt>
      <trkpt lat="45.46442" lon="-75.78028">
        <ele>108.6</ele>
      </trkpt>
      <trkpt lat="45.46442" lon="-75.78068">
        <ele>111</ele>
      </trkpt>
      <trkpt lat="45.46445" lon="-75.78109">
        <ele>114.8</ele>
      </trkpt>
      <trkpt lat="45.4645" lon="-75.78122">
        <ele>115.4</ele>
      </trkpt>
      <trkpt lat="45.46463" lon="-75.7814">
        <ele>115.7</ele>
      </trkpt>
      <trkpt lat="45.46476" lon="-75.78182">
        <ele>117.4</ele>
      </trkpt>
      <trkpt lat="45.46491" lon="-75.78211">
        <ele>118.9</ele>
      </trkpt>
      <trkpt lat="45.46507" lon="-75.78263">
        <ele>121.7</ele>
      </trkpt>
      <trkpt lat="45.46528" lon="-75.78317">
        <ele>127.8</ele>
      </trkpt>
      <trkpt lat="45.46543" lon="-75.78379">
        <ele>128.2</ele>
      </trkpt>
      <trkpt lat="45.46541" lon="-75.78387">
        <ele>128</ele>
      </trkpt>
      <trkpt lat="45.46537" lon="-75.78395">
        <ele>127.7</ele>
      </trkpt>
      <trkpt lat="45.46503" lon="-75.7844">
        <ele>126</ele>
      </trkpt>
      <trkpt lat="45.46491" lon="-75.78459">
        <ele>125.6</ele>
      </trkpt>
      <trkpt lat="45.46479" lon="-75.78485">
        <ele>126.3</ele>
      </trkpt>
      <trkpt lat="45.46468" lon="-75.78517">
        <ele>127.5</ele>
      </trkpt>
      <trkpt lat="45.46456" lon="-75.78567">
        <ele>127.8</ele>
      </trkpt>
      <trkpt lat="45.46452" lon="-75.78597">
        <ele>127.3</ele>
      </trkpt>
      <trkpt lat="45.46454" lon="-75.78625">
        <ele>127.2</ele>
      </trkpt>
      <trkpt lat="45.46466" lon="-75.78684">
        <ele>125.7</ele>
      </trkpt>
      <trkpt lat="45.4647" lon="-75.78718">
        <ele>123.7</ele>
      </trkpt>
      <trkpt lat="45.46483" lon="-75.78719">
        <ele>122.8</ele>
      </trkpt>
      <trkpt lat="45.46515" lon="-75.7871">
        <ele>121.9</ele>
      </trkpt>
      <trkpt lat="45.46541" lon="-75.7871">
        <ele>121.8</ele>
      </trkpt>
      <trkpt lat="45.46556" lon="-75.78712">
        <ele>122</ele>
      </trkpt>
      <trkpt lat="45.4658" lon="-75.78723">
        <ele>122</ele>
      </trkpt>
      <trkpt lat="45.46591" lon="-75.78731">
        <ele>122</ele>
      </trkpt>
      <trkpt lat="45.46634" lon="-75.78765">
        <ele>122.3</ele>
      </trkpt>
      <trkpt lat="45.46652" lon="-75.78783">
        <ele>123</ele>
      </trkpt>
      <trkpt lat="45.46672" lon="-75.78807">
        <ele>123.9</ele>
      </trkpt>
      <trkpt lat="45.46684" lon="-75.78825">
        <ele>124.8</ele>
      </trkpt>
      <trkpt lat="45.467" lon="-75.78854">
        <ele>126</ele>
      </trkpt>
      <trkpt lat="45.46713" lon="-75.78885">
        <ele>126.6</ele>
      </trkpt>
      <trkpt lat="45.46724" lon="-75.78918">
        <ele>126.5</ele>
      </trkpt>
      <trkpt lat="45.46735" lon="-75.78978">
        <ele>123.4</ele>
      </trkpt>
      <trkpt lat="45.46753" lon="-75.79054">
        <ele>119.5</ele>
      </trkpt>
      <trkpt lat="45.46762" lon="-75.79077">
        <ele>119</ele>
      </trkpt>
      <trkpt lat="45.46786" lon="-75.79113">
        <ele>118.5</ele>
      </trkpt>
      <trkpt lat="45.46792" lon="-75.79117">
        <ele>118.4</ele>
      </trkpt>
      <trkpt lat="45.46834" lon="-75.79133">
        <ele>118.3</ele>
      </trkpt>
      <trkpt lat="45.4688" lon="-75.79155">
        <ele>118.4</ele>
      </trkpt>
      <trkpt lat="45.469" lon="-75.79175">
        <ele>119.1</ele>
      </trkpt>
      <trkpt lat="45.46931" lon="-75.79224">
        <ele>120.8</ele>
      </trkpt>
      <trkpt lat="45.46941" lon="-75.7925">
        <ele>121</ele>
      </trkpt>
      <trkpt lat="45.46946" lon="-75.79289">
        <ele>121.4</ele>
      </trkpt>
      <trkpt lat="45.46948" lon="-75.7933">
        <ele>123.8</ele>
      </trkpt>
      <trkpt lat="45.46952" lon="-75.79344">
        <ele>124.6</ele>
      </trkpt>
      <trkpt lat="45.46956" lon="-75.79347">
        <ele>124.9</ele>
      </trkpt>
      <trkpt lat="45.46965" lon="-75.79348">
        <ele>125</ele>
      </trkpt>
      <trkpt lat="45.47006" lon="-75.79344">
        <ele>124.6</ele>
      </trkpt>
      <trkpt lat="45.47046" lon="-75.7935">
        <ele>125.6</ele>
      </trkpt>
      <trkpt lat="45.47061" lon="-75.79349">
        <ele>125.9</ele>
      </trkpt>
      <trkpt lat="45.47202" lon="-75.79289">
        <ele>119.9</ele>
      </trkpt>
      <trkpt lat="45.47235" lon="-75.79273">
        <ele>119.1</ele>
      </trkpt>
      <trkpt lat="45.47268" lon="-75.79253">
        <ele>118.2</ele>
      </trkpt>
      <trkpt lat="45.47287" lon="-75.79241">
        <ele>116.3</ele>
      </trkpt>
      <trkpt lat="45.47304" lon="-75.79237">
        <ele>115.4</ele>
      </trkpt>
      <trkpt lat="45.47315" lon="-75.79239">
        <ele>115.1</ele>
      </trkpt>
      <trkpt lat="45.47342" lon="-75.79248">
        <ele>115.2</ele>
      </trkpt>
      <trkpt lat="45.47414" lon="-75.7929">
        <ele>118.5</ele>
      </trkpt>
      <trkpt lat="45.47441" lon="-75.79305">
        <ele>118.8</ele>
      </trkpt>
      <trkpt lat="45.47462" lon="-75.79307">
        <ele>118.6</ele>
      </trkpt>
      <trkpt lat="45.47581" lon="-75.79298">
        <ele>113.6</ele>
      </trkpt>
      <trkpt lat="45.47608" lon="-75.79295">
        <ele>113.1</ele>
      </trkpt>
      <trkpt lat="45.47687" lon="-75.79276">
        <ele>110.8</ele>
      </trkpt>
      <trkpt lat="45.47699" lon="-75.7927">
        <ele>110.7</ele>
      </trkpt>
      <trkpt lat="45.47705" lon="-75.79264">
        <ele>110.5</ele>
      </trkpt>
      <trkpt lat="45.47743" lon="-75.79218">
        <ele>108.8</ele>
      </trkpt>
      <trkpt lat="45.47734" lon="-75.79185">
        <ele>108.3</ele>
      </trkpt>
      <trkpt lat="45.47724" lon="-75.79162">
        <ele>108.5</ele>
      </trkpt>
      <trkpt lat="45.47718" lon="-75.7915">
        <ele>108.7</ele>
      </trkpt>
      <trkpt lat="45.47714" lon="-75.7914">
        <ele>109</ele>
      </trkpt>
      <trkpt lat="45.47713" lon="-75.79124">
        <ele>109.4</ele>
      </trkpt>
      <trkpt lat="45.47713" lon="-75.79072">
        <ele>110.1</ele>
      </trkpt>
      <trkpt lat="45.47701" lon="-75.79052">
        <ele>111.5</ele>
      </trkpt>
      <trkpt lat="45.47699" lon="-75.79038">
        <ele>112</ele>
      </trkpt>
      <trkpt lat="45.47697" lon="-75.79002">
        <ele>112.8</ele>
      </trkpt>
      <trkpt lat="45.47697" lon="-75.78997">
        <ele>112.9</ele>
      </trkpt>
      <trkpt lat="45.47689" lon="-75.7895">
        <ele>113</ele>
      </trkpt>
      <trkpt lat="45.47694" lon="-75.78948">
        <ele>112.2</ele>
      </trkpt>
      <trkpt lat="45.47698" lon="-75.78946">
        <ele>111.5</ele>
      </trkpt>
      <trkpt lat="45.47693" lon="-75.78927">
        <ele>110.7</ele>
      </trkpt>
      <trkpt lat="45.47705" lon="-75.78919">
        <ele>108.3</ele>
      </trkpt>
      <trkpt lat="45.47806" lon="-75.78834">
        <ele>102.2</ele>
      </trkpt>
      <trkpt lat="45.47852" lon="-75.78784">
        <ele>99.7</ele>
      </trkpt>
      <trkpt lat="45.47859" lon="-75.78781">
        <ele>99.5</ele>
      </trkpt>
      <trkpt lat="45.47863" lon="-75.78782">
        <ele>99.6</ele>
      </trkpt>
      <trkpt lat="45.47868" lon="-75.78788">
        <ele>99.7</ele>
      </trkpt>
      <trkpt lat="45.47883" lon="-75.78815">
        <ele>100.5</ele>
      </trkpt>
    </trkseg>
  </trk>
</gpx>