<?xml version="1.0" encoding="UTF-8" standalone="yes"?>
<gpx version="1.1" creator="https://onthegomap.com" xmlns="http://www.topografix.com/GPX/1/1">
  <metadata>
    <name>8.4km route</name>
    <link href="https://onthegomap.com">
      <text>On The Go Map</text>
    </link>
    <time>2026-02-23T02:10:19.299Z</time>
    <copyright author="On The Go Map, OpenStreetMap Contributors">
      <year>2026</year>
    </copyright>
  </metadata>
  <trk>
    <name>8.4km route</name>
    <trkseg>
      <trkpt lat="45.47885" lon="-75.78819">
        <ele>100.6</ele>
      </trkpt>
      <trkpt lat="45.47868" lon="-75.78788">
        <ele>99.7</ele>
      </trkpt>
      <trkpt lat="45.47863" lon="-75.78782">
        <ele>99.6</ele>
      </trkpt>
      <trkpt lat="45.47859" lon="-75.78781">
        <ele>99.6</ele>
      </trkpt>
      <trkpt lat="45.47852" lon="-75.78784">
        <ele>99.7</ele>
      </trkpt>
      <trkpt lat="45.47806" lon="-75.78834">
        <ele>102.1</ele>
      </trkpt>
      <trkpt lat="45.47769" lon="-75.78755">
        <ele>100.3</ele>
      </trkpt>
      <trkpt lat="45.47741" lon="-75.78693">
        <ele>98.9</ele>
      </trkpt>
      <trkpt lat="45.47738" lon="-75.78675">
        <ele>98.3</ele>
      </trkpt>
      <trkpt lat="45.47737" lon="-75.78652">
        <ele>97.9</ele>
      </trkpt>
      <trkpt lat="45.47746" lon="-75.78612">
        <ele>97.3</ele>
      </trkpt>
      <trkpt lat="45.47747" lon="-75.78587">
        <ele>97</ele>
      </trkpt>
      <trkpt lat="45.47746" lon="-75.78575">
        <ele>97</ele>
      </trkpt>
      <trkpt lat="45.4774" lon="-75.78555">
        <ele>97</ele>
      </trkpt>
      <trkpt lat="45.47728" lon="-75.78534">
        <ele>97.3</ele>
      </trkpt>
      <trkpt lat="45.47654" lon="-75.784">
        <ele>98.4</ele>
      </trkpt>
      <trkpt lat="45.47645" lon="-75.7839">
        <ele>98.7</ele>
      </trkpt>
      <trkpt lat="45.47639" lon="-75.78388">
        <ele>98.8</ele>
      </trkpt>
      <trkpt lat="45.47615" lon="-75.78382">
        <ele>99</ele>
      </trkpt>
      <trkpt lat="45.47546" lon="-75.7837">
        <ele>99.5</ele>
      </trkpt>
      <trkpt lat="45.47489" lon="-75.78361">
        <ele>99.4</ele>
      </trkpt>
      <trkpt lat="45.47475" lon="-75.78362">
        <ele>100.1</ele>
      </trkpt>
      <trkpt lat="45.47458" lon="-75.78371">
        <ele>101.9</ele>
      </trkpt>
      <trkpt lat="45.47454" lon="-75.78374">
        <ele>102.5</ele>
      </trkpt>
      <trkpt lat="45.4745" lon="-75.7838">
        <ele>103.2</ele>
      </trkpt>
      <trkpt lat="45.47426" lon="-75.78417">
        <ele>107.3</ele>
      </trkpt>
      <trkpt lat="45.47421" lon="-75.78424">
        <ele>107.8</ele>
      </trkpt>
      <trkpt lat="45.47384" lon="-75.7837">
        <ele>107.6</ele>
      </trkpt>
      <trkpt lat="45.47361" lon="-75.78334">
        <ele>108.3</ele>
      </trkpt>
      <trkpt lat="45.47339" lon="-75.783">
        <ele>109.1</ele>
      </trkpt>
      <trkpt lat="45.47326" lon="-75.78278">
        <ele>108.6</ele>
      </trkpt>
      <trkpt lat="45.47283" lon="-75.78207">
        <ele>108.1</ele>
      </trkpt>
      <trkpt lat="45.47259" lon="-75.78173">
        <ele>106.6</ele>
      </trkpt>
      <trkpt lat="45.47229" lon="-75.78136">
        <ele>105.7</ele>
      </trkpt>
      <trkpt lat="45.47205" lon="-75.78109">
        <ele>105.3</ele>
      </trkpt>
      <trkpt lat="45.472" lon="-75.78117">
        <ele>105.3</ele>
      </trkpt>
      <trkpt lat="45.47198" lon="-75.7812">
        <ele>105.2</ele>
      </trkpt>
      <trkpt lat="45.47191" lon="-75.78114">
        <ele>105.1</ele>
      </trkpt>
      <trkpt lat="45.47175" lon="-75.78098">
        <ele>105.6</ele>
      </trkpt>
      <trkpt lat="45.47123" lon="-75.78041">
        <ele>107.3</ele>
      </trkpt>
      <trkpt lat="45.47112" lon="-75.78028">
        <ele>107.4</ele>
      </trkpt>
      <trkpt lat="45.47076" lon="-75.77998">
        <ele>106.7</ele>
      </trkpt>
      <trkpt lat="45.47036" lon="-75.77965">
        <ele>105.8</ele>
      </trkpt>
      <trkpt lat="45.46978" lon="-75.77918">
        <ele>105.6</ele>
      </trkpt>
      <trkpt lat="45.46921" lon="-75.77872">
        <ele>105</ele>
      </trkpt>
      <trkpt lat="45.46836" lon="-75.77798">
        <ele>104</ele>
      </trkpt>
      <trkpt lat="45.46786" lon="-75.77747">
        <ele>104.1</ele>
      </trkpt>
      <trkpt lat="45.46651" lon="-75.7756">
        <ele>102</ele>
      </trkpt>
      <trkpt lat="45.466" lon="-75.77487">
        <ele>100.8</ele>
      </trkpt>
      <trkpt lat="45.46594" lon="-75.77474">
        <ele>100.7</ele>
      </trkpt>
      <trkpt lat="45.46571" lon="-75.77441">
        <ele>100.6</ele>
      </trkpt>
      <trkpt lat="45.4656" lon="-75.7743">
        <ele>100.8</ele>
      </trkpt>
      <trkpt lat="45.46501" lon="-75.77347">
        <ele>101</ele>
      </trkpt>
      <trkpt lat="45.46484" lon="-75.77322">
        <ele>101</ele>
      </trkpt>
      <trkpt lat="45.46473" lon="-75.77317">
        <ele>101</ele>
      </trkpt>
      <trkpt lat="45.46464" lon="-75.77307">
        <ele>101</ele>
      </trkpt>
      <trkpt lat="45.46434" lon="-75.77261">
        <ele>100.2</ele>
      </trkpt>
      <trkpt lat="45.46394" lon="-75.77201">
        <ele>99.4</ele>
      </trkpt>
      <trkpt lat="45.4638" lon="-75.77177">
        <ele>99</ele>
      </trkpt>
      <trkpt lat="45.46363" lon="-75.77157">
        <ele>99</ele>
      </trkpt>
      <trkpt lat="45.46315" lon="-75.77088">
        <ele>99</ele>
      </trkpt>
      <trkpt lat="45.46305" lon="-75.77072">
        <ele>99</ele>
      </trkpt>
      <trkpt lat="45.46296" lon="-75.77065">
        <ele>99</ele>
      </trkpt>
      <trkpt lat="45.46265" lon="-75.77024">
        <ele>99</ele>
      </trkpt>
      <trkpt lat="45.46258" lon="-75.77009">
        <ele>99</ele>
      </trkpt>
      <trkpt lat="45.46255" lon="-75.77005">
        <ele>99</ele>
      </trkpt>
      <trkpt lat="45.46227" lon="-75.76972">
        <ele>99.7</ele>
      </trkpt>
      <trkpt lat="45.46222" lon="-75.76964">
        <ele>99.9</ele>
      </trkpt>
      <trkpt lat="45.46179" lon="-75.76913">
        <ele>100</ele>
      </trkpt>
      <trkpt lat="45.46116" lon="-75.76843">
        <ele>101.3</ele>
      </trkpt>
      <trkpt lat="45.46099" lon="-75.76822">
        <ele>101.9</ele>
      </trkpt>
      <trkpt lat="45.46072" lon="-75.76798">
        <ele>102</ele>
      </trkpt>
      <trkpt lat="45.46063" lon="-75.76787">
        <ele>102</ele>
      </trkpt>
      <trkpt lat="45.46057" lon="-75.76779">
        <ele>102</ele>
      </trkpt>
      <trkpt lat="45.46051" lon="-75.76771">
        <ele>102.1</ele>
      </trkpt>
      <trkpt lat="45.46046" lon="-75.76766">
        <ele>102.1</ele>
      </trkpt>
      <trkpt lat="45.46025" lon="-75.76744">
        <ele>102</ele>
      </trkpt>
      <trkpt lat="45.4601" lon="-75.76733">
        <ele>102</ele>
      </trkpt>
      <trkpt lat="45.4599" lon="-75.76727">
        <ele>102</ele>
      </trkpt>
      <trkpt lat="45.45952" lon="-75.76719">
        <ele>102</ele>
      </trkpt>
      <trkpt lat="45.4587" lon="-75.76706">
        <ele>101</ele>
      </trkpt>
      <trkpt lat="45.45866" lon="-75.76703">
        <ele>101</ele>
      </trkpt>
      <trkpt lat="45.45855" lon="-75.767">
        <ele>101.1</ele>
      </trkpt>
      <trkpt lat="45.45848" lon="-75.76698">
        <ele>101.2</ele>
      </trkpt>
      <trkpt lat="45.45823" lon="-75.76693">
        <ele>101.2</ele>
      </trkpt>
      <trkpt lat="45.45787" lon="-75.76685">
        <ele>101</ele>
      </trkpt>
      <trkpt lat="45.45765" lon="-75.76676">
        <ele>101</ele>
      </trkpt>
      <trkpt lat="45.45729" lon="-75.76648">
        <ele>101.1</ele>
      </trkpt>
      <trkpt lat="45.45724" lon="-75.7664">
        <ele>101.1</ele>
      </trkpt>
      <trkpt lat="45.45704" lon="-75.76591">
        <ele>100.7</ele>
      </trkpt>
      <trkpt lat="45.457" lon="-75.76582">
        <ele>100.4</ele>
      </trkpt>
      <trkpt lat="45.45696" lon="-75.76572">
        <ele>100.2</ele>
      </trkpt>
      <trkpt lat="45.45693" lon="-75.76564">
        <ele>100.1</ele>
      </trkpt>
      <trkpt lat="45.45682" lon="-75.76535">
        <ele>100</ele>
      </trkpt>
      <trkpt lat="45.45668" lon="-75.76506">
        <ele>100</ele>
      </trkpt>
      <trkpt lat="45.45661" lon="-75.76481">
        <ele>99.9</ele>
      </trkpt>
      <trkpt lat="45.45654" lon="-75.76444">
        <ele>99.6</ele>
      </trkpt>
      <trkpt lat="45.45621" lon="-75.76364">
        <ele>96.9</ele>
      </trkpt>
      <trkpt lat="45.45605" lon="-75.76329">
        <ele>96.4</ele>
      </trkpt>
      <trkpt lat="45.45594" lon="-75.76287">
        <ele>94.4</ele>
      </trkpt>
      <trkpt lat="45.45566" lon="-75.76214">
        <ele>90.6</ele>
      </trkpt>
      <trkpt lat="45.45552" lon="-75.76183">
        <ele>90</ele>
      </trkpt>
      <trkpt lat="45.45466" lon="-75.76033">
        <ele>89.5</ele>
      </trkpt>
      <trkpt lat="45.4544" lon="-75.75999">
        <ele>87.7</ele>
      </trkpt>
      <trkpt lat="45.45427" lon="-75.75976">
        <ele>86.9</ele>
      </trkpt>
      <trkpt lat="45.45416" lon="-75.75949">
        <ele>86</ele>
      </trkpt>
      <trkpt lat="45.45395" lon="-75.75917">
        <ele>85.1</ele>
      </trkpt>
      <trkpt lat="45.45386" lon="-75.75906">
        <ele>85</ele>
      </trkpt>
      <trkpt lat="45.45368" lon="-75.75894">
        <ele>85.3</ele>
      </trkpt>
      <trkpt lat="45.45368" lon="-75.75891">
        <ele>85.2</ele>
      </trkpt>
      <trkpt lat="45.45368" lon="-75.75883">
        <ele>85.1</ele>
      </trkpt>
      <trkpt lat="45.45375" lon="-75.75883">
        <ele>85</ele>
      </trkpt>
      <trkpt lat="45.45382" lon="-75.75866">
        <ele>84.8</ele>
      </trkpt>
      <trkpt lat="45.45391" lon="-75.75841">
        <ele>84.5</ele>
      </trkpt>
      <trkpt lat="45.45404" lon="-75.75809">
        <ele>84.7</ele>
      </trkpt>
      <trkpt lat="45.4541" lon="-75.75812">
        <ele>84.5</ele>
      </trkpt>
      <trkpt lat="45.45476" lon="-75.75841">
        <ele>84.2</ele>
      </trkpt>
      <trkpt lat="45.45486" lon="-75.75844">
        <ele>84.6</ele>
      </trkpt>
      <trkpt lat="45.45488" lon="-75.75845">
        <ele>84.7</ele>
      </trkpt>
      <trkpt lat="45.45549" lon="-75.75851">
        <ele>86.2</ele>
      </trkpt>
      <trkpt lat="45.45615" lon="-75.7586">
        <ele>87.3</ele>
      </trkpt>
      <trkpt lat="45.45621" lon="-75.75861">
        <ele>87.4</ele>
      </trkpt>
      <trkpt lat="45.45628" lon="-75.75862">
        <ele>87.5</ele>
      </trkpt>
      <trkpt lat="45.45636" lon="-75.75862">
        <ele>87.5</ele>
      </trkpt>
      <trkpt lat="45.45786" lon="-75.7588">
        <ele>88</ele>
      </trkpt>
      <trkpt lat="45.45792" lon="-75.75881">
        <ele>88</ele>
      </trkpt>
      <trkpt lat="45.45799" lon="-75.75881">
        <ele>88</ele>
      </trkpt>
      <trkpt lat="45.45971" lon="-75.75903">
        <ele>93.3</ele>
      </trkpt>
      <trkpt lat="45.45976" lon="-75.75903">
        <ele>93.7</ele>
      </trkpt>
      <trkpt lat="45.45982" lon="-75.75904">
        <ele>94.2</ele>
      </trkpt>
      <trkpt lat="45.46" lon="-75.75906">
        <ele>95.7</ele>
      </trkpt>
      <trkpt lat="45.46049" lon="-75.75912">
        <ele>96.9</ele>
      </trkpt>
      <trkpt lat="45.46115" lon="-75.7592">
        <ele>96.4</ele>
      </trkpt>
      <trkpt lat="45.46114" lon="-75.7593">
        <ele>96.8</ele>
      </trkpt>
      <trkpt lat="45.46109" lon="-75.76011">
        <ele>100</ele>
      </trkpt>
      <trkpt lat="45.46108" lon="-75.76022">
        <ele>100.3</ele>
      </trkpt>
      <trkpt lat="45.46106" lon="-75.76053">
        <ele>101</ele>
      </trkpt>
      <trkpt lat="45.46102" lon="-75.76114">
        <ele>101.2</ele>
      </trkpt>
      <trkpt lat="45.46097" lon="-75.76175">
        <ele>101</ele>
      </trkpt>
      <trkpt lat="45.46089" lon="-75.76294">
        <ele>102</ele>
      </trkpt>
      <trkpt lat="45.46085" lon="-75.76357">
        <ele>102</ele>
      </trkpt>
      <trkpt lat="45.4608" lon="-75.76425">
        <ele>102.9</ele>
      </trkpt>
      <trkpt lat="45.46079" lon="-75.7643">
        <ele>103</ele>
      </trkpt>
      <trkpt lat="45.46085" lon="-75.76431">
        <ele>103</ele>
      </trkpt>
      <trkpt lat="45.46095" lon="-75.76432">
        <ele>103</ele>
      </trkpt>
      <trkpt lat="45.461" lon="-75.76433">
        <ele>103</ele>
      </trkpt>
      <trkpt lat="45.46142" lon="-75.7644">
        <ele>103</ele>
      </trkpt>
      <trkpt lat="45.46147" lon="-75.76441">
        <ele>103</ele>
      </trkpt>
      <trkpt lat="45.46159" lon="-75.76443">
        <ele>103</ele>
      </trkpt>
      <trkpt lat="45.4617" lon="-75.76445">
        <ele>103</ele>
      </trkpt>
      <trkpt lat="45.46197" lon="-75.76449">
        <ele>103</ele>
      </trkpt>
      <trkpt lat="45.46312" lon="-75.76465">
        <ele>102</ele>
      </trkpt>
      <trkpt lat="45.46341" lon="-75.76469">
        <ele>102</ele>
      </trkpt>
      <trkpt lat="45.46378" lon="-75.76474">
        <ele>102</ele>
      </trkpt>
      <trkpt lat="45.46382" lon="-75.76475">
        <ele>102</ele>
      </trkpt>
      <trkpt lat="45.46395" lon="-75.76478">
        <ele>102</ele>
      </trkpt>
      <trkpt lat="45.4639" lon="-75.76553">
        <ele>102</ele>
      </trkpt>
      <trkpt lat="45.46386" lon="-75.76606">
        <ele>101.2</ele>
      </trkpt>
      <trkpt lat="45.4639" lon="-75.76607">
        <ele>101.1</ele>
      </trkpt>
      <trkpt lat="45.4639" lon="-75.76618">
        <ele>101.1</ele>
      </trkpt>
      <trkpt lat="45.46392" lon="-75.76656">
        <ele>100.8</ele>
      </trkpt>
      <trkpt lat="45.46402" lon="-75.76698">
        <ele>100.4</ele>
      </trkpt>
      <trkpt lat="45.46411" lon="-75.76739">
        <ele>100.7</ele>
      </trkpt>
      <trkpt lat="45.46416" lon="-75.76753">
        <ele>100.4</ele>
      </trkpt>
      <trkpt lat="45.46423" lon="-75.76776">
        <ele>100.2</ele>
      </trkpt>
      <trkpt lat="45.46428" lon="-75.76791">
        <ele>100.4</ele>
      </trkpt>
      <trkpt lat="45.46435" lon="-75.76809">
        <ele>100.9</ele>
      </trkpt>
      <trkpt lat="45.46465" lon="-75.76882">
        <ele>99.2</ele>
      </trkpt>
      <trkpt lat="45.46467" lon="-75.76888">
        <ele>99.2</ele>
      </trkpt>
      <trkpt lat="45.46535" lon="-75.7707">
        <ele>98.7</ele>
      </trkpt>
      <trkpt lat="45.46537" lon="-75.77074">
        <ele>98.8</ele>
      </trkpt>
      <trkpt lat="45.46542" lon="-75.77089">
        <ele>99.1</ele>
      </trkpt>
      <trkpt lat="45.46555" lon="-75.77137">
        <ele>100.3</ele>
      </trkpt>
      <trkpt lat="45.46555" lon="-75.77143">
        <ele>100.5</ele>
      </trkpt>
      <trkpt lat="45.46556" lon="-75.77154">
        <ele>100.8</ele>
      </trkpt>
      <trkpt lat="45.46556" lon="-75.77161">
        <ele>101</ele>
      </trkpt>
      <trkpt lat="45.46556" lon="-75.77209">
        <ele>100.4</ele>
      </trkpt>
      <trkpt lat="45.46552" lon="-75.77234">
        <ele>100.5</ele>
      </trkpt>
      <trkpt lat="45.4654" lon="-75.77275">
        <ele>101</ele>
      </trkpt>
      <trkpt lat="45.46521" lon="-75.77312">
        <ele>101</ele>
      </trkpt>
      <trkpt lat="45.46514" lon="-75.77329">
        <ele>101</ele>
      </trkpt>
      <trkpt lat="45.46515" lon="-75.77332">
        <ele>101</ele>
      </trkpt>
      <trkpt lat="45.46558" lon="-75.77394">
        <ele>101</ele>
      </trkpt>
      <trkpt lat="45.4659" lon="-75.77437">
        <ele>100.2</ele>
      </trkpt>
      <trkpt lat="45.4662" lon="-75.77487">
        <ele>100.8</ele>
      </trkpt>
      <trkpt lat="45.46648" lon="-75.77526">
        <ele>102</ele>
      </trkpt>
      <trkpt lat="45.46667" lon="-75.77553">
        <ele>101.9</ele>
      </trkpt>
      <trkpt lat="45.46681" lon="-75.77569">
        <ele>102.2</ele>
      </trkpt>
      <trkpt lat="45.46686" lon="-75.77575">
        <ele>102.2</ele>
      </trkpt>
      <trkpt lat="45.46706" lon="-75.77603">
        <ele>102.2</ele>
      </trkpt>
      <trkpt lat="45.4672" lon="-75.77628">
        <ele>103</ele>
      </trkpt>
      <trkpt lat="45.46735" lon="-75.77648">
        <ele>103.5</ele>
      </trkpt>
      <trkpt lat="45.46776" lon="-75.77705">
        <ele>104</ele>
      </trkpt>
      <trkpt lat="45.46815" lon="-75.77749">
        <ele>104</ele>
      </trkpt>
      <trkpt lat="45.46821" lon="-75.77753">
        <ele>104</ele>
      </trkpt>
      <trkpt lat="45.46844" lon="-75.77776">
        <ele>104</ele>
      </trkpt>
      <trkpt lat="45.46864" lon="-75.77799">
        <ele>104</ele>
      </trkpt>
      <trkpt lat="45.46929" lon="-75.7785">
        <ele>104.4</ele>
      </trkpt>
      <trkpt lat="45.46984" lon="-75.77899">
        <ele>105.1</ele>
      </trkpt>
      <trkpt lat="45.46991" lon="-75.77902">
        <ele>105.1</ele>
      </trkpt>
      <trkpt lat="45.46997" lon="-75.77905">
        <ele>105</ele>
      </trkpt>
      <trkpt lat="45.47019" lon="-75.77923">
        <ele>105</ele>
      </trkpt>
      <trkpt lat="45.47024" lon="-75.77927">
        <ele>105</ele>
      </trkpt>
      <trkpt lat="45.47039" lon="-75.77943">
        <ele>105.1</ele>
      </trkpt>
      <trkpt lat="45.47059" lon="-75.77959">
        <ele>105.6</ele>
      </trkpt>
      <trkpt lat="45.47093" lon="-75.77987">
        <ele>106.4</ele>
      </trkpt>
      <trkpt lat="45.47097" lon="-75.7799">
        <ele>106.5</ele>
      </trkpt>
      <trkpt lat="45.47101" lon="-75.77993">
        <ele>106.5</ele>
      </trkpt>
      <trkpt lat="45.47133" lon="-75.78015">
        <ele>106.1</ele>
      </trkpt>
      <trkpt lat="45.4714" lon="-75.78022">
        <ele>105.9</ele>
      </trkpt>
      <trkpt lat="45.47141" lon="-75.78023">
        <ele>105.9</ele>
      </trkpt>
      <trkpt lat="45.47145" lon="-75.78027">
        <ele>105.8</ele>
      </trkpt>
      <trkpt lat="45.47162" lon="-75.78046">
        <ele>105.8</ele>
      </trkpt>
      <trkpt lat="45.47174" lon="-75.78058">
        <ele>105.4</ele>
      </trkpt>
      <trkpt lat="45.47183" lon="-75.78066">
        <ele>104.8</ele>
      </trkpt>
      <trkpt lat="45.4719" lon="-75.78069">
        <ele>104.6</ele>
      </trkpt>
      <trkpt lat="45.4719" lon="-75.78075">
        <ele>104.5</ele>
      </trkpt>
      <trkpt lat="45.47196" lon="-75.78081">
        <ele>104.4</ele>
      </trkpt>
      <trkpt lat="45.47199" lon="-75.78084">
        <ele>104.4</ele>
      </trkpt>
      <trkpt lat="45.47202" lon="-75.78087">
        <ele>104.4</ele>
      </trkpt>
      <trkpt lat="45.47205" lon="-75.78092">
        <ele>104.5</ele>
      </trkpt>
      <trkpt lat="45.4721" lon="-75.78098">
        <ele>104.6</ele>
      </trkpt>
      <trkpt lat="45.47205" lon="-75.78109">
        <ele>104.9</ele>
      </trkpt>
      <trkpt lat="45.47229" lon="-75.78136">
        <ele>105.7</ele>
      </trkpt>
      <trkpt lat="45.47229" lon="-75.78137">
        <ele>105.7</ele>
      </trkpt>
      <trkpt lat="45.47259" lon="-75.78173">
        <ele>106.6</ele>
      </trkpt>
      <trkpt lat="45.47283" lon="-75.78207">
        <ele>108.1</ele>
      </trkpt>
      <trkpt lat="45.47326" lon="-75.78278">
        <ele>108.8</ele>
      </trkpt>
      <trkpt lat="45.47339" lon="-75.783">
        <ele>109.1</ele>
      </trkpt>
      <trkpt lat="45.47384" lon="-75.7837">
        <ele>107.6</ele>
      </trkpt>
      <trkpt lat="45.47407" lon="-75.78403">
        <ele>108.2</ele>
      </trkpt>
      <trkpt lat="45.47421" lon="-75.78424">
        <ele>108</ele>
      </trkpt>
      <trkpt lat="45.4743" lon="-75.78429">
        <ele>107.3</ele>
      </trkpt>
      <trkpt lat="45.47433" lon="-75.78433">
        <ele>107</ele>
      </trkpt>
      <trkpt lat="45.47434" lon="-75.78431">
        <ele>106.8</ele>
      </trkpt>
      <trkpt lat="45.47459" lon="-75.78467">
        <ele>105.3</ele>
      </trkpt>
      <trkpt lat="45.47487" lon="-75.78515">
        <ele>104.5</ele>
      </trkpt>
      <trkpt lat="45.47505" lon="-75.78544">
        <ele>104</ele>
      </trkpt>
      <trkpt lat="45.47535" lon="-75.78621">
        <ele>105.7</ele>
      </trkpt>
      <trkpt lat="45.47552" lon="-75.78612">
        <ele>103.6</ele>
      </trkpt>
      <trkpt lat="45.47616" lon="-75.78578">
        <ele>101</ele>
      </trkpt>
      <trkpt lat="45.4763" lon="-75.78571">
        <ele>101</ele>
      </trkpt>
      <trkpt lat="45.47635" lon="-75.78591">
        <ele>101</ele>
      </trkpt>
      <trkpt lat="45.47654" lon="-75.78667">
        <ele>101.5</ele>
      </trkpt>
      <trkpt lat="45.47656" lon="-75.78671">
        <ele>101.4</ele>
      </trkpt>
      <trkpt lat="45.47661" lon="-75.78676">
        <ele>101.4</ele>
      </trkpt>
      <trkpt lat="45.47668" lon="-75.78676">
        <ele>101.2</ele>
      </trkpt>
      <trkpt lat="45.47724" lon="-75.78656">
        <ele>98.9</ele>
      </trkpt>
      <trkpt lat="45.47737" lon="-75.78652">
        <ele>98</ele>
      </trkpt>
      <trkpt lat="45.47738" lon="-75.78675">
        <ele>98.3</ele>
      </trkpt>
      <trkpt lat="45.47741" lon="-75.78693">
        <ele>98.9</ele>
      </trkpt>
      <trkpt lat="45.47769" lon="-75.78755">
        <ele>100.3</ele>
      </trkpt>
      <trkpt lat="45.47806" lon="-75.78834">
        <ele>102.1</ele>
      </trkpt>
      <trkpt lat="45.47852" lon="-75.78784">
        <ele>99.7</ele>
      </trkpt>
      <trkpt lat="45.47859" lon="-75.78781">
        <ele>99.6</ele>
      </trkpt>
      <trkpt lat="45.47863" lon="-75.78782">
        <ele>99.6</ele>
      </trkpt>
      <trkpt lat="45.47868" lon="-75.78788">
        <ele>99.7</ele>
      </trkpt>
      <trkpt lat="45.47885" lon="-75.78819">
        <ele>100.6</ele>
      </trkpt>
    </trkseg>
  </trk>
</gpx>